<?xml version='1.0' encoding='UTF-8'?>
<q:quakeml xmlns="http://quakeml.org/xmlns/bed/1.2"
  xmlns:q="http://quakeml.org/xmlns/quakeml/1.2">
  <eventParameters publicID="smi:eu.emsc/unid">
    <event publicID="smi:ch.ethz.sed/event/historical/1165">
      <pick publicID="smi:ch.ethz.sed/pick/117634">
        <time>
          <value>2005-09-18T22:04:35.000000Z</value>
          <uncertainty>0.012</uncertainty>
        </time>
        <waveformID networkCode="BW" stationCode="FUR">smi:ch.ethz.sed/waveform/201754</waveformID>
        <filterID>smi:ch.ethz.sed/filter/lowpass/standard</filterID>
        <methodID>smi:ch.ethz.sed/picker/autopicker/6.0.2</methodID>
        <backazimuth>
          <value>44.0</value>
        </backazimuth>
        <onset>impulsive</onset>
        <phaseHint>Pn</phaseHint>
        <polarity>positive</polarity>
        <evaluationMode>manual</evaluationMode>
        <evaluationStatus>confirmed</evaluationStatus>
        <comment>
          <text>Some comment</text>
          <creationInfo>
            <agencyID>EMSC</agencyID>
          </creationInfo>
        </comment>
        <comment id="smi:some/comment/id">
          <text>More comment</text>
        </comment>
        <creationInfo>
          <agencyID>EMSC</agencyID>
          <agencyURI>smi:smi-registry/organization/EMSC</agencyURI>
          <author>Erika Mustermann</author>
          <authorURI>smi:smi-registry/organization/EMSC</authorURI>
          <creationTime>2012-04-04T16:40:50.000000Z</creationTime>
          <version>1.0.1</version>
        </creationInfo>
      </pick>
      <pick publicID="smi:geonet.org.nz/pick/4965421">
        <time>
          <value>2007-05-12T07:41:28.815000Z</value>
          <lowerUncertainty>0.0</lowerUncertainty>
          <upperUncertainty>0.1</upperUncertainty>
        </time>
        <waveformID networkCode="NZ" stationCode="BKZ" channelCode="HHZ" />
        <polarity>positive</polarity>
        <evaluationMode>automatic</evaluationMode>
        <evaluationStatus>confirmed</evaluationStatus>
      </pick>
    </event>
  </eventParameters>
</q:quakeml>
