<?xml version='1.0' encoding='utf-8'?>
<q:quakeml xmlns="http://quakeml.org/xmlns/bed/1.2" xmlns:q="http://quakeml.org/xmlns/quakeml/1.2">
  <eventParameters publicID="smi:local/a1520fea-9164-4f27-bea3-d135bf2e9b24">
    <description>ISC Bulletin</description>
    <event publicID="smi:local/a1520fea-9164-4f27-bea3-d135bf2e9b24/event/840268">
      <preferredOriginID>smi:local/a1520fea-9164-4f27-bea3-d135bf2e9b24/origin/1838613</preferredOriginID>
      <type>earthquake</type>
      <typeCertainty>known</typeCertainty>
      <description>
        <text>Western Caucasus</text>
        <type>region name</type>
      </description>
      <comment id="smi:local/a1520fea-9164-4f27-bea3-d135bf2e9b24/comment">
        <text>2008    175   185   201 Geophys. J. Int.</text>
      </comment>
      <comment id="smi:local/a1520fea-9164-4f27-bea3-d135bf2e9b24/comment">
        <text>1970           29    31 Earthquakes in USSR</text>
      </comment>
      <origin publicID="smi:local/a1520fea-9164-4f27-bea3-d135bf2e9b24/origin/1838610">
        <time>
          <value>1967-01-30T01:20:27.000000Z</value>
        </time>
        <latitude>
          <value>41.0</value>
        </latitude>
        <longitude>
          <value>44.2</value>
        </longitude>
        <depth>
          <value>0.0</value>
        </depth>
        <timeFixed>false</timeFixed>
        <epicenterFixed>false</epicenterFixed>
        <creationInfo>
          <author>BCIS</author>
        </creationInfo>
      </origin>
      <origin publicID="smi:local/a1520fea-9164-4f27-bea3-d135bf2e9b24/origin/1838611">
        <time>
          <value>1967-01-30T01:20:27.700000Z</value>
        </time>
        <latitude>
          <value>41.038</value>
        </latitude>
        <longitude>
          <value>44.335</value>
        </longitude>
        <depth>
          <value>6000.0</value>
        </depth>
        <timeFixed>false</timeFixed>
        <epicenterFixed>false</epicenterFixed>
        <creationInfo>
          <author>USCGS</author>
        </creationInfo>
      </origin>
      <origin publicID="smi:local/a1520fea-9164-4f27-bea3-d135bf2e9b24/origin/9093437">
        <time>
          <value>1967-01-30T01:20:28.170000Z</value>
        </time>
        <latitude>
          <value>41.0502</value>
        </latitude>
        <longitude>
          <value>44.2685</value>
        </longitude>
        <depth>
          <value>5000.0</value>
        </depth>
        <timeFixed>false</timeFixed>
        <epicenterFixed>true</epicenterFixed>
        <comment id="smi:local/a1520fea-9164-4f27-bea3-d135bf2e9b24/comment">
          <text> (Spitak, Armenia)</text>
        </comment>
        <comment id="smi:local/a1520fea-9164-4f27-bea3-d135bf2e9b24/comment">
          <text> (GT5 produced by HDC-RCA methodology)</text>
        </comment>
        <comment id="smi:local/a1520fea-9164-4f27-bea3-d135bf2e9b24/comment">
          <text> (Bondár, I., E. Bergman, E.R. Engdahl, B. Kohl, Y-L. Kung, and K. McLaughlin,  A hybrid multiple event location technique to obtain ground)</text>
        </comment>
        <comment id="smi:local/a1520fea-9164-4f27-bea3-d135bf2e9b24/comment">
          <text> ( truth event locations,  Geophys. J. Int., 175, 185-201, doi: 10.1111/j.1365-246X.2008.03867.x, 2008.)</text>
        </comment>
        <creationInfo>
          <author>IASPEI</author>
        </creationInfo>
        <originUncertainty>
          <preferredDescription>uncertainty ellipse</preferredDescription>
          <minHorizontalUncertainty>2719.0</minHorizontalUncertainty>
          <maxHorizontalUncertainty>4091.0</maxHorizontalUncertainty>
          <azimuthMaxHorizontalUncertainty>49.0</azimuthMaxHorizontalUncertainty>
          <confidenceLevel>90.0</confidenceLevel>
        </originUncertainty>
      </origin>
      <origin publicID="smi:local/a1520fea-9164-4f27-bea3-d135bf2e9b24/origin/1838612">
        <time>
          <value>1967-01-30T01:20:30.000000Z</value>
        </time>
        <latitude>
          <value>40.9</value>
        </latitude>
        <longitude>
          <value>44.3</value>
        </longitude>
        <depth>
          <value>33000.0</value>
        </depth>
        <timeFixed>false</timeFixed>
        <epicenterFixed>false</epicenterFixed>
        <creationInfo>
          <author>MOS</author>
        </creationInfo>
      </origin>
      <origin publicID="smi:local/a1520fea-9164-4f27-bea3-d135bf2e9b24/origin/9212463">
        <time>
          <value>1967-01-30T01:20:30.030000Z</value>
        </time>
        <latitude>
          <value>41.034</value>
        </latitude>
        <longitude>
          <value>44.267</value>
        </longitude>
        <depth>
          <value>10000.0</value>
        </depth>
        <timeFixed>false</timeFixed>
        <epicenterFixed>true</epicenterFixed>
        <creationInfo>
          <author>EHB</author>
        </creationInfo>
        <originUncertainty>
          <preferredDescription>uncertainty ellipse</preferredDescription>
          <minHorizontalUncertainty>5400.0</minHorizontalUncertainty>
          <maxHorizontalUncertainty>7100.0</maxHorizontalUncertainty>
          <azimuthMaxHorizontalUncertainty>18.0</azimuthMaxHorizontalUncertainty>
          <confidenceLevel>90.0</confidenceLevel>
        </originUncertainty>
      </origin>
      <origin publicID="smi:local/a1520fea-9164-4f27-bea3-d135bf2e9b24/origin/1838613">
        <time>
          <value>1967-01-30T01:20:28.700000Z</value>
        </time>
        <latitude>
          <value>41.09</value>
        </latitude>
        <longitude>
          <value>44.31</value>
        </longitude>
        <depth>
          <value>11000.0</value>
        </depth>
        <timeFixed>false</timeFixed>
        <epicenterFixed>false</epicenterFixed>
        <comment id="smi:local/a1520fea-9164-4f27-bea3-d135bf2e9b24/comment">
          <text>location method: inversion</text>
        </comment>
        <comment id="smi:local/a1520fea-9164-4f27-bea3-d135bf2e9b24/comment">
          <text> (#PRIME)</text>
        </comment>
        <comment id="smi:local/a1520fea-9164-4f27-bea3-d135bf2e9b24/comment">
          <text> (Depth fixed to depth phase depth)</text>
        </comment>
        <creationInfo>
          <author>ISC</author>
        </creationInfo>
        <originUncertainty>
          <preferredDescription>uncertainty ellipse</preferredDescription>
          <minHorizontalUncertainty>2510.0</minHorizontalUncertainty>
          <maxHorizontalUncertainty>3700.0</maxHorizontalUncertainty>
          <azimuthMaxHorizontalUncertainty>0.0</azimuthMaxHorizontalUncertainty>
          <confidenceLevel>90.0</confidenceLevel>
        </originUncertainty>
        <arrival publicID="smi:local/a1520fea-9164-4f27-bea3-d135bf2e9b24/arrival/27631110">
          <pickID>smi:local/a1520fea-9164-4f27-bea3-d135bf2e9b24/pick/27631110</pickID>
          <phase>P*</phase>
          <azimuth>30.0</azimuth>
          <distance>0.73</distance>
          <timeResidual>1.1</timeResidual>
          <timeWeight>1.0</timeWeight>
        </arrival>
        <arrival publicID="smi:local/a1520fea-9164-4f27-bea3-d135bf2e9b24/arrival/27631111">
          <pickID>smi:local/a1520fea-9164-4f27-bea3-d135bf2e9b24/pick/27631111</pickID>
          <phase>S</phase>
          <distance>0.73</distance>
        </arrival>
        <arrival publicID="smi:local/a1520fea-9164-4f27-bea3-d135bf2e9b24/arrival/27631112">
          <pickID>smi:local/a1520fea-9164-4f27-bea3-d135bf2e9b24/pick/27631112</pickID>
          <phase>P*</phase>
          <azimuth>317.0</azimuth>
          <distance>0.88</distance>
          <timeResidual>-1.5</timeResidual>
          <timeWeight>1.0</timeWeight>
        </arrival>
        <arrival publicID="smi:local/a1520fea-9164-4f27-bea3-d135bf2e9b24/arrival/27631113">
          <pickID>smi:local/a1520fea-9164-4f27-bea3-d135bf2e9b24/pick/27631113</pickID>
          <phase>S</phase>
          <distance>0.88</distance>
        </arrival>
      </origin>
      <magnitude publicID="smi:local/a1520fea-9164-4f27-bea3-d135bf2e9b24/magnitude">
        <mag>
          <value>4.5</value>
        </mag>
        <originID>smi:local/a1520fea-9164-4f27-bea3-d135bf2e9b24/origin/1838610</originID>
        <creationInfo>
          <author>BCIS</author>
        </creationInfo>
      </magnitude>
      <magnitude publicID="smi:local/a1520fea-9164-4f27-bea3-d135bf2e9b24/magnitude">
        <mag>
          <value>5.1</value>
        </mag>
        <type>MB</type>
        <originID>smi:local/a1520fea-9164-4f27-bea3-d135bf2e9b24/origin/1838611</originID>
        <stationCount>13</stationCount>
        <creationInfo>
          <author>USCGS</author>
        </creationInfo>
      </magnitude>
      <magnitude publicID="smi:local/a1520fea-9164-4f27-bea3-d135bf2e9b24/magnitude">
        <mag>
          <value>5.0</value>
        </mag>
        <type>mb</type>
        <originID>smi:local/a1520fea-9164-4f27-bea3-d135bf2e9b24/origin/9093437</originID>
        <creationInfo>
          <author>IASPEI</author>
        </creationInfo>
      </magnitude>
      <magnitude publicID="smi:local/a1520fea-9164-4f27-bea3-d135bf2e9b24/magnitude">
        <mag>
          <value>5.0</value>
        </mag>
        <originID>smi:local/a1520fea-9164-4f27-bea3-d135bf2e9b24/origin/1838612</originID>
        <creationInfo>
          <author>MOS</author>
        </creationInfo>
      </magnitude>
      <magnitude publicID="smi:local/a1520fea-9164-4f27-bea3-d135bf2e9b24/magnitude">
        <mag>
          <value>5.0</value>
        </mag>
        <type>mb</type>
        <originID>smi:local/a1520fea-9164-4f27-bea3-d135bf2e9b24/origin/1838613</originID>
        <stationCount>15</stationCount>
        <creationInfo>
          <author>ISC</author>
        </creationInfo>
      </magnitude>
      <stationMagnitude publicID="smi:local/a1520fea-9164-4f27-bea3-d135bf2e9b24/station_magnitude/27631202">
        <originID>smi:local/a1520fea-9164-4f27-bea3-d135bf2e9b24/origin/1838613</originID>
        <mag>
          <value>5.4</value>
        </mag>
        <waveformID stationCode="LJU"></waveformID>
      </stationMagnitude>
      <stationMagnitude publicID="smi:local/a1520fea-9164-4f27-bea3-d135bf2e9b24/station_magnitude/27631216">
        <originID>smi:local/a1520fea-9164-4f27-bea3-d135bf2e9b24/origin/1838613</originID>
        <mag>
          <value>5.5</value>
        </mag>
        <waveformID stationCode="KHC"></waveformID>
      </stationMagnitude>
      <stationMagnitude publicID="smi:local/a1520fea-9164-4f27-bea3-d135bf2e9b24/station_magnitude/27631252">
        <originID>smi:local/a1520fea-9164-4f27-bea3-d135bf2e9b24/origin/1838613</originID>
        <mag>
          <value>5.5</value>
        </mag>
        <waveformID stationCode="STU"></waveformID>
      </stationMagnitude>
      <stationMagnitude publicID="smi:local/a1520fea-9164-4f27-bea3-d135bf2e9b24/station_magnitude/27631311">
        <originID>smi:local/a1520fea-9164-4f27-bea3-d135bf2e9b24/origin/1838613</originID>
        <mag>
          <value>4.9</value>
        </mag>
        <waveformID stationCode="SHL"></waveformID>
      </stationMagnitude>
      <stationMagnitude publicID="smi:local/a1520fea-9164-4f27-bea3-d135bf2e9b24/station_magnitude/27631313">
        <originID>smi:local/a1520fea-9164-4f27-bea3-d135bf2e9b24/origin/1838613</originID>
        <mag>
          <value>4.8</value>
        </mag>
        <waveformID stationCode="KOD"></waveformID>
      </stationMagnitude>
      <stationMagnitude publicID="smi:local/a1520fea-9164-4f27-bea3-d135bf2e9b24/station_magnitude/27631314">
        <originID>smi:local/a1520fea-9164-4f27-bea3-d135bf2e9b24/origin/1838613</originID>
        <mag>
          <value>4.8</value>
        </mag>
        <waveformID stationCode="NAI"></waveformID>
      </stationMagnitude>
      <stationMagnitude publicID="smi:local/a1520fea-9164-4f27-bea3-d135bf2e9b24/station_magnitude/27631315">
        <originID>smi:local/a1520fea-9164-4f27-bea3-d135bf2e9b24/origin/1838613</originID>
        <mag>
          <value>4.5</value>
        </mag>
        <waveformID stationCode="LAO"></waveformID>
      </stationMagnitude>
      <pick publicID="smi:local/a1520fea-9164-4f27-bea3-d135bf2e9b24/pick/27631110">
        <time>
          <value>1967-01-30T01:20:44.000000Z</value>
        </time>
        <waveformID stationCode="TIF"></waveformID>
        <phaseHint>P*</phaseHint>
      </pick>
      <pick publicID="smi:local/a1520fea-9164-4f27-bea3-d135bf2e9b24/pick/27631111">
        <time>
          <value>1967-01-30T01:20:54.000000Z</value>
        </time>
        <waveformID stationCode="TIF"></waveformID>
        <phaseHint>S</phaseHint>
      </pick>
      <pick publicID="smi:local/a1520fea-9164-4f27-bea3-d135bf2e9b24/pick/27631112">
        <time>
          <value>1967-01-30T01:20:44.000000Z</value>
        </time>
        <waveformID stationCode="BKR"></waveformID>
        <onset>impulsive</onset>
        <phaseHint>P*</phaseHint>
      </pick>
      <pick publicID="smi:local/a1520fea-9164-4f27-bea3-d135bf2e9b24/pick/27631113">
        <time>
          <value>1967-01-30T01:21:01.000000Z</value>
        </time>
        <waveformID stationCode="BKR"></waveformID>
        <phaseHint>S</phaseHint>
      </pick>
    </event>
  </eventParameters>
</q:quakeml>
