DATA_TYPE BULLETIN IMS1.0:short
ISC Bulletin
Event   840268 Western Caucasus

   Date       Time        Err   RMS Latitude Longitude  Smaj  Smin  Az Depth   Err Ndef Nsta Gap  mdist  Mdist Qual   Author      OrigID
1967/01/30 01:20:27.00               41.0000   44.2000                   0.0                                       uk BCIS       1838610
1967/01/30 01:20:27.70        1.500  41.0380   44.3350                   6.0         96                            uk USCGS      1838611
1967/01/30 01:20:28.17   0.15        41.0502   44.2685 4.091 2.719  49   5.0f        76   70                       ke IASPEI     9093437
 (Spitak, Armenia)
 (GT5 produced by HDC-RCA methodology)
 (Bondár, I., E. Bergman, E.R. Engdahl, B. Kohl, Y-L. Kung, and K. McLaughlin,  A hybrid multiple event location technique to obtain ground)
 ( truth event locations,  Geophys. J. Int., 175, 185-201, doi: 10.1111/j.1365-246X.2008.03867.x, 2008.)
1967/01/30 01:20:30.00               40.9000   44.3000                  33.0                                       uk MOS        1838612
1967/01/30 01:20:30.03        1.430  41.0340   44.2670   7.1   5.4  18  10.0f       168  144                       ke EHB        9212463
1967/01/30 01:20:28.70   0.20 1.850  41.0900   44.3100   3.7 2.510   0  11.0d       150  153  21   1.00 120.00 m i uk ISC        1838613
 (#PRIME)
 (Depth fixed to depth phase depth)

Year Volume Page1 Page2 Journal
2008    175   185   201 Geophys. J. Int.
 (#AUTHOR Bondár,I. , Bergman,E. , Engdahl,E.R. , Kohl,B. , Kung,Y.-L. , McLaughlin,K.    )
 (#TITLE  A hybrid multiple event location technique to obtain ground truth event          )
 (+       locations                                                                        )
1970           29    31 Earthquakes in USSR
 (#AUTHOR Bagramyan,A.H. , Papalashvili,V.G. , Piruzyan,C.A. , Shaginyan,S.G.              )
 (#TITLE  Spitak earthquake of 30 January 1967 (in Russian)                                )
 (#PARAM pP_DEPTH=11+2)

Magnitude  Err Nsta Author      OrigID
       4.5          BCIS       1838610
MB     5.1       13 USCGS      1838611
mb     5.0          IASPEI     9093437
       5.0          MOS        1838612
mb     5.0       15 ISC        1838613

Sta     Dist  EvAz Phase        Time      TRes  Azim AzRes   Slow   SRes Def   SNR       Amp   Per Qual Magnitude    ArrID
TIF     0.73  30.0 P*       01:20:44.0     1.1                           T__                        __            27631110
TIF     0.73       S        01:20:54.0                                   ___                        __            27631111
BKR     0.88 317.0 P*       01:20:44.0    -1.5                           T__                        _i            27631112
BKR     0.88       S        01:21:01.0                                   ___                        __            27631113
ERE     0.92 171.0 P*       01:20:42.0    -4.1                           T__                        __            27631114
ERE     0.92       S        01:20:54.0                                   ___                        __            27631115
KRV     1.60 105.0 PN       01:20:57.0     0.1                           T__                        _i            27631116
GRS     2.22 135.0 PN       01:21:06.0     0.2                           T__                        ci            27631117
GRS     2.22       S        01:21:40.0                                   ___                        __            27631118
ZUG     2.31 309.0 PN       01:21:00.0    -7.1                           T__                        _i            27631119
MAK     3.02  49.0 PN       01:21:21.0     3.7                           T__                        _i            27631120
MAK     3.02       S        01:22:07.0                                   ___                        __            27631121
PYA     3.08 343.0 PN       01:21:15.0    -3.2                           T__                        _i            27631122
PYA     3.08       S        01:21:55.0                                   ___                        __            27631123
TAB     3.40 152.0 PN       01:21:24.0     1.4                           T__                        ci            27631124
TAB     3.40                01:21:28.0                                   ___                        _i            27631125
TAB     3.40       S        01:22:09.0                                   ___                        __            27631126
SOC     4.22 308.0 PN       01:21:35.0     0.7                           T__                        ci            27631127
BAK     4.31  98.0 PN       01:21:38.0     2.4                           T__                        __            27631128
TEH     7.71 132.0 PN       01:22:27.0     3.5                           T__                        _e            27631129
KAS     7.95 275.0 PN       01:22:24.0    -2.9                           T__                        _e            27631130
KAS     7.95                01:22:26.0                                   ___                        _i            27631131
KAS     7.95                01:22:30.0                                   ___                        _i            27631132
SIM     8.40 301.0 P        01:22:36.0     2.8                           T__                        _i            27631133
ANK     8.84 266.0 P        01:22:38.0    -1.2                           T__                        _i            27631134
ANK     8.84                01:22:40.0                                   ___                        _i            27631135
ANK     8.84       S        01:25:13.0                                   ___                        __            27631136
KAT     9.35  98.0 P        01:22:44.0    -2.3                           T__                        di            27631137
KAT     9.35       S        01:24:31.0                                   ___                        __            27631138
KSA     9.86 225.0 P        01:22:57.0     3.6                           T__                        _i            27631139
KSA     9.86       S        01:24:51.0                                   ___                        __            27631140
KSA     9.86       L        01:25:53.0                                   ___                        __            27631141
VAN    11.10 102.0 P        01:23:07.0    -3.4                           T__                        _i            27631142
ASH    11.29 102.0 P        01:23:09.0    -3.9                           T__                        _e            27631143
ASH    11.29       S        01:25:16.0                                   ___                        __            27631144
IST    11.57 275.0 P        01:23:16.8     0.1                           T__                        ci            27631145
IST    11.57                01:23:17.0                                   ___                        _i            27631146
IST    11.57       S        01:26:05.0                                   ___                        __            27631147
JER    11.84 221.0 P        01:23:21.0     0.7                           T__                        _e            27631148
MSH    12.85 107.0 P        01:23:31.0    -2.9                           T__                        _e            27631149
CIN    13.03 260.0 P        01:23:34.0    -2.3                           T__                        _i            27631150
FOC    13.27 296.0 P        01:23:47.0     7.6                           T__                        __            27631151
FOC    13.27                01:23:53.0                                   ___                        _e            27631152
FOC    13.27                01:26:21.0                                   ___                        _e            27631153
IAS    13.48 303.0 P        01:23:43.0     0.8                           T__                        __            27631154
IAS    13.48                01:28:49.0                                   ___                        _e            27631155
PRK    13.92 268.0 P        01:23:49.0     1.0                           T__                        di            27631156
CMP    14.66 293.0 P        01:23:55.0    -2.7                           T__                        __            27631157
CMP    14.66                01:24:09.0                                   ___                        _e            27631158
CMP    14.66                01:24:10.0                                   ___                        _e            27631159
MOS    15.30 346.0 P        01:24:03.0    -2.9                           T__                        ci            27631160
MOS    15.30       S        01:27:00.0                                   ___                        __            27631161
ATH    16.19 266.0 P        01:24:17.7     0.2                           T__                        di            27631162
ATH    16.19       S        01:27:40.0                                   ___                        __            27631163
LVV    16.65 308.0 P        01:24:22.0    -1.3                           T__                        ci            27631164
VAM    16.77 257.0 P        01:24:27.4     2.4                           T__                        ci            27631165
UZH    17.29 303.0 P        01:24:30.0    -1.4                           T__                        _e            27631166
SAM    17.33  87.0 P        01:24:30.0    -2.0                           T__                        ci            27631167
VLS    18.49 269.0 P        01:24:44.8    -1.6                           T__                        ci            27631168
NIE    18.77 304.0 P        01:24:49.0    -0.7                           T__                        _i            27631169
NIE    18.77                01:24:53.0                                   ___                        _i            27631170
NIE    18.77       PP       01:25:05.0                                   ___                        __            27631171
NIE    18.77                01:25:31.0                                   ___                        _e            27631172
TAS    18.79  81.0 P        01:24:48.0    -2.0                           T__                        ci            27631173
TAS    18.79       S        01:28:23.0                                   ___                        __            27631174
SVE    18.95  28.0 P        01:24:47.0    -4.8                           T__                        ci            27631175
SVE    18.95       S        01:28:25.0                                   ___                        __            27631176
KRA    19.20 306.0 P        01:24:53.0    -1.9                           T__                        _e            27631177
KRA    19.20       PP       01:25:08.0                                   ___                        __            27631178
KRA    19.20       PPP      01:25:23.0                                   ___                        __            27631179
KRA    19.20       S        01:28:21.0                                   ___                        __            27631180
KRA    19.20       SS       01:28:51.0                                   ___                        __            27631181
CHZ    19.85 306.0 P        01:25:02.0    -0.3                           T__                        _e            27631182
CHZ    19.85                01:25:12.0                                   ___                        _e            27631183
RBN    20.08 305.0 P        01:25:04.0    -0.7                           T__                        _e            27631184
RAC    20.28 305.0 P        01:25:10.0     3.2                           T__                        _e            27631185
RAC    20.28                01:25:14.0                                   ___                        _e            27631186
RAC    20.28       PP       01:25:22.0                                   ___                        __            27631187
BRA    20.54 299.0 P        01:25:09.0    -0.6                           T__                        _i            27631188
BRA    20.54       PP       01:25:30.0                                   ___                        __            27631189
PUL    20.63 340.0 P        01:25:09.0    -1.4                           T__                        ci            27631190
PUL    20.63       S        01:28:54.0                                   ___                        __            27631191
ZAG    21.04 292.0 P        01:25:15.0     0.3                           T__                        ce            27631192
ZAG    21.04       S        01:35:00.0                                   ___                        __            27631193
VIE    21.05 299.0 P        01:25:15.7     1.0                           T__                        _i            27631194
VIE    21.05       sP       01:25:30.0                                   ___                        __            27631195
VIE    21.05       PP       01:25:39.0                                   ___                        __            27631196
VIE    21.05       sPP      01:25:54.0                                   ___                        __            27631197
QUE    21.31 114.0 P        01:25:15.8    -1.8                           T__                        ci            27631198
QUE    21.31       S        01:29:20.0                                   ___                        __            27631199
KHO    21.34  91.0 P        01:25:19.0     1.2                           T__                        _i            27631200
KHO    21.34       S        01:29:20.0                                   ___                        __            27631201
LJU    22.07 293.0 P        01:25:25.0     0.0                           T__                        _e mb     5.4 27631202
MES    22.29 272.0 P        01:25:26.0    -1.3                           T__                        _i            27631203
MES    22.29       pP       01:25:37.0                                   ___                        __            27631204
MES    22.29       S        01:29:34.0                                   ___                        __            27631205
FRU    22.55  75.0 P        01:25:30.0     0.2                           T__                        ci            27631208
PRU    22.55 303.0 P        01:25:30.5     0.8                           T__                        _i            27631206
PRU    22.55       S        01:29:45.0                                   ___                        __            27631207
PRA    22.63 303.0 P        01:25:33.0     2.5                           T__                        _e            27631209
PRA    22.63       PP       01:26:06.0                                   ___                        __            27631210
PRA    22.63       PPP      01:26:20.0                                   ___                        __            27631211
PRA    22.63       MAXIMUM  01:35:00.0                                   ___                        __            27631212
NUR    22.90 335.0 P        01:25:34.0     0.9                           T__                        _e            27631213
NUR    22.90                01:25:37.0                                   ___                        _i            27631214
NUR    22.90       S        01:29:44.0                                   ___                        __            27631215
KHC    23.01 301.0 P        01:25:35.0     0.8                           T__                        __ mb     5.5 27631216
AQU    23.05 283.0 P        01:25:27.0    -7.7                           T__                        _i            27631217
AQU    23.05       S        01:29:48.0                                   ___                        __            27631218
ROM    23.76 283.0 P        01:25:43.5     1.9                           T__                        ci            27631219
ROM    23.76       S        01:30:04.0                                   ___                        __            27631220
CLL    23.79 306.0 P        01:25:41.8     0.0                           T__                        ci            27631221
CLL    23.79                01:25:44.0                                   ___                        _i            27631222
CLL    23.79                01:25:46.0                                   ___                        _i            27631223
CLL    23.79                01:27:37.0                                   ___                        _e            27631224
CLL    23.79       PCP      01:29:18.0                                   ___                        __            27631225
CLL    23.79       S        01:30:09.0                                   ___                        __            27631226
CLL    23.79       L        01:33:54.0                                   ___                        __            27631227
CLL    23.79                01:34:36.0                                   ___                        _e            27631228
CLL    23.79       MAXIMUM  01:34:57.0                                   ___                        __            27631229
PAD    23.91 291.0 P        01:25:47.0     3.9                           T__                        _e            27631230
KLS    24.00 319.0 P        01:25:43.6    -0.2                           T__                        _i            27631231
FUR    24.41 298.0 P        01:25:48.0     0.1                           T__                        _i            27631232
HLE    24.47 306.0 P        01:25:49.0     0.5                           T__                        _i            27631233
MOX    24.51 304.0 P        01:25:50.5     1.7                           T__                        _i            27631234
MOX    24.51                01:25:52.0                                   ___                        _i            27631235
MOX    24.51                01:25:59.0                                   ___                        _e            27631236
MOX    24.51       PP       01:26:21.0                                   ___                        __            27631237
MOX    24.51       S        01:30:12.0                                   ___                        __            27631238
AAB    24.52  74.0 P        01:25:49.0     0.0                           T__                        ci            27631239
AAB    24.52       S        01:30:14.0                                   ___                        __            27631240
TLG    24.52  74.0 P        01:25:49.0     0.0                           T__                        ci            27631241
TLG    24.52       S        01:30:14.0                                   ___                        __            27631242
PRT    24.56 288.0 P        01:25:45.8    -3.6                           T__                        _i            27631243
PRT    24.56       PP       01:26:46.0                                   ___                        __            27631244
PRT    24.56       S        01:30:12.0                                   ___                        __            27631245
GRF    24.62 302.0 P        01:25:52.6     2.7                           T__                        di            27631246
KJN    24.98 343.0 P        01:25:52.0    -1.2                           T__                        _i            27631247
KJN    24.98                01:25:55.0                                   ___                        _i            27631248
UPP    25.03 328.0 P        01:25:52.3    -1.4                           T__                        _i            27631249
UPP    25.03       sS       01:30:26.0     5.9                           ___                        __            27631250
PRZ    25.36  75.0 P        01:25:59.0     2.0                           T__                        ci            27631251
STU    25.84 299.0 P        01:26:01.3    -0.2                           T__                        ci mb     5.5 27631252
