EVENT_NAME: UMBRIA-MARCHE 3RD SHOCK
EVENT_DATE_YYYYMMDD: 19971014
EVENT_TIME_HHMMSS: 152309
EVENT_LATITUDE_DEGREE: 42.8982
EVENT_LONGITUDE_DEGREE: 12.8987
EVENT_DEPTH_KM: 7
MAGNITUDE_L: 5.5
MAGNITUDE_S: 5.6
MAGNITUDE_W: 5.6
FOCAL_MECHANISM: NF
STATION_CODE: NCR
STATION_NAME: NOCERA UMBRA
STATION_LATITUDE_DEGREE: 43.111583
STATION_LONGITUDE_DEGREE: 12.784666
STATION_ELEVATION_M: 478
SITE_CLASSIFICATION_EC8: E
MORPHOLOGIC_CLASSIFICATION: SL
EPICENTRAL_DISTANCE_KM: 25.5
EARTHQUAKE_BACKAZIMUTH_DEGREE: 158.5
TIME_FIRST_SAMPLE_S: 0.000000
SAMPLING_INTERVAL_S: 0.005000
NDATA: 6560
DURATION_S: 32.795000
COMPONENT: WE
UNITS: cm/s^2
INSTRUMENT: SMA 1
INSTRUMENTAL_FREQUENCY_HZ: 17.900
INSTRUMENTAL_DAMPING: 0.570
SENSITIVITY_V/G:  
FULL_SCALE_G:  
N_BIT_DIGITAL_CONVERTER:  
PGA_CM/S^2: -134.700000
TIME_PGA_S: 0.870000
OWNER_RECORD: DPC-USSN
INSTRUMENT_ANALOG/DIGITAL: A
BASELINE_CORRECTION: BASELINE NOT REMOVED
FILTER_TYPE:  
FILTER_ORDER:  
LOW_CUT_FREQUENCY_HZ:  
HIGH_CUT_FREQUENCY_HZ:  
LATE/NORMAL_TRIGGERED: LT
DATA_VERSION: ITACA 1.1
DATA_TYPE: UNPROCESSED ACCELERATION
43.246000
43.246000
42.596000
40.096000
35.696000
29.616000
23.536000
17.456000
11.375000
5.295000
-0.785000
-6.955000
-13.195000
-21.815000
-30.305000
-36.335000
-39.905000
-40.115000
-40.755000
-41.585000
-40.016000
-38.156000
-35.666000
-33.486000
-31.616000
-25.886000
-18.746000
-5.346000
6.114000
13.284000
17.723000
20.213000
25.153000
30.083000
31.883000
33.743000
35.673000
35.453000
34.143000
32.023000
29.603000
26.282000
22.752000
19.012000
16.202000
13.692000
9.942000
5.382000
-1.278000
-11.158000
-23.628000
-33.428000
-41.968000
-43.959000
-45.539000
-46.369000
-43.609000
-38.789000
-33.479000
-27.529000
-18.789000
-8.209000
4.701000
17.611000
30.520000
34.140000
36.580000
35.960000
36.650000
38.520000
36.420000
33.190000
28.410000
23.170000
17.039000
10.279000
3.109000
-6.521000
-15.731000
-20.471000
-23.341000
-23.591000
-22.641000
-21.151000
-21.561000
-22.232000
-23.482000
-24.192000
-24.352000
-19.932000
-14.072000
-7.262000
-1.692000
1.048000
4.368000
8.108000
15.017000
22.207000
27.197000
30.857000
32.417000
31.927000
30.367000
26.207000
20.667000
10.377000
0.087000
-10.204000
-17.894000
-24.674000
-31.454000
-36.084000
-35.714000
-35.374000
-35.054000
-32.034000
-28.574000
-25.014000
-21.545000
-18.205000
-4.795000
12.775000
19.925000
25.875000
28.885000
32.595000
36.855000
41.335000
45.485000
46.735000
45.014000
38.744000
26.524000
11.454000
7.214000
3.144000
-1.876000
-13.426000
-31.006000
-48.576000
-64.966000
-68.227000
-70.177000
-69.847000
-67.567000
-64.217000
-56.217000
-47.627000
-38.217000
-27.567000
-15.647000
4.422000
26.912000
49.402000
71.892000
94.382000
104.962000
108.102000
105.892000
102.902000
99.132000
94.792000
89.771000
71.541000
48.691000
25.851000
3.001000
-19.839000
-42.689000
-65.539000
-88.379000
-109.959000
-124.179000
-133.020000
-134.700000
-134.140000
-132.680000
-120.840000
-105.250000
-79.890000
-54.540000
-29.180000
-3.820000
21.530000
46.889000
72.239000
97.599000
109.129000
114.149000
116.759000
118.259000
116.579000
112.719000
106.859000
86.849000
63.418000
39.988000
16.548000
-6.882000
-30.312000
-53.742000
-77.172000
-96.662000
-101.522000
-103.022000
-101.103000
-84.943000
-64.853000
-48.153000
-33.393000
-22.143000
-7.193000
9.677000
26.537000
42.347000
55.287000
63.766000
68.966000
71.166000
72.126000
69.366000
58.126000
38.076000
18.026000
-1.104000
-12.134000
-21.444000
-28.235000
-37.895000
-48.655000
-56.425000
-61.995000
-62.925000
-58.225000
-50.165000
-38.345000
-25.455000
-9.985000
5.475000
20.944000
28.914000
34.914000
37.464000
39.234000
40.074000
40.604000
40.774000
37.374000
31.134000
20.104000
9.073000
-1.957000
-11.837000
-20.787000
-27.467000
-31.137000
-32.727000
-32.887000
-32.047000
-27.917000
-21.997000
-14.358000
1.352000
17.662000
24.592000
28.592000
28.592000
25.272000
20.602000
12.752000
4.762000
-3.508000
-14.239000
-26.339000
-34.559000
-41.149000
-43.529000
-43.739000
-42.259000
-36.739000
-29.199000
-14.829000
-0.459000
13.920000
28.290000
42.660000
57.030000
69.280000
78.190000
83.780000
87.920000
88.240000
87.110000
82.649000
69.039000
49.569000
30.089000
10.619000
-8.851000
-28.331000
-47.801000
-67.281000
-85.451000
-95.271000
-101.341000
-102.662000
-102.602000
-101.882000
-97.622000
-93.362000
-89.102000
-75.952000
-58.482000
-34.502000
-10.432000
13.648000
37.717000
61.797000
75.457000
86.837000
93.607000
97.517000
99.057000
97.077000
94.307000
90.467000
79.176000
59.896000
40.616000
21.336000
2.056000
-17.224000
-36.494000
-55.774000
-75.054000
-94.334000
-109.854000
-118.585000
-122.055000
-122.905000
-116.645000
-104.635000
-79.065000
-53.505000
-27.935000
-9.405000
8.195000
24.815000
43.395000
63.634000
83.874000
101.624000
106.904000
107.644000
103.424000
93.944000
83.214000
73.624000
61.524000
45.863000
30.203000
14.453000
-3.437000
-19.527000
-32.307000
-41.907000
-49.897000
-58.197000
-65.817000
-71.757000
-75.357000
-77.408000
-72.328000
-65.128000
-52.988000
-37.058000
-17.888000
-4.688000
8.292000
25.542000
36.932000
41.841000
42.291000
41.141000
36.221000
32.581000
30.791000
29.381000
27.671000
14.411000
1.151000
-12.109000
-19.080000
-22.800000
-23.730000
-24.830000
-26.530000
-26.200000
-24.490000
-16.780000
-9.000000
-3.080000
0.670000
2.529000
1.679000
0.609000
0.999000
1.979000
3.639000
5.989000
8.539000
11.079000
11.649000
9.099000
7.178000
5.518000
3.298000
1.648000
1.328000
0.238000
-1.352000
-5.662000
-10.902000
-18.532000
-21.772000
-21.032000
-15.893000
-9.373000
0.177000
7.617000
12.397000
14.797000
16.297000
16.077000
16.697000
18.817000
21.056000
23.346000
20.286000
16.106000
9.426000
4.766000
1.576000
-0.764000
-2.874000
-4.464000
-11.834000
-25.205000
-32.995000
-39.035000
-42.215000
-43.595000
-42.325000
-41.805000
-41.525000
-37.285000
-28.875000
-11.695000
5.484000
22.674000
26.804000
29.384000
30.024000
30.454000
30.704000
31.874000
32.334000
27.874000
24.294000
21.753000
18.473000
14.863000
9.773000
2.073000
-10.017000
-20.817000
-30.997000
-36.807000
-41.027000
-41.537000
-39.938000
-36.878000
-26.288000
-14.828000
-3.378000
9.372000
23.372000
36.342000
48.462000
56.102000
60.242000
59.601000
57.111000
53.821000
47.461000
41.311000
35.581000
29.441000
23.081000
8.861000
-6.139000
-22.209000
-38.280000
-54.350000
-69.890000
-83.820000
-90.190000
-94.100000
-95.290000
-92.210000
-86.070000
-61.940000
-37.811000
-13.691000
10.439000
34.559000
58.689000
75.729000
79.239000
81.499000
83.099000
82.529000
80.629000
75.519000
69.268000
62.238000
56.368000
48.388000
32.408000
16.428000
0.458000
-22.522000
-44.162000
-51.322000
-56.722000
-60.113000
-61.113000
-61.283000
-60.013000
-59.333000
-59.543000
-57.173000
-53.473000
-39.413000
-25.353000
-11.293000
10.106000
35.406000
41.496000
45.826000
47.416000
45.446000
40.966000
38.506000
35.656000
30.546000
24.756000
18.365000
12.515000
6.995000
2.845000
-0.575000
-3.135000
-5.685000
-8.095000
-8.925000
-9.835000
-10.856000
-10.976000
-10.656000
-7.776000
-5.546000
-4.586000
-4.916000
-5.936000
-6.226000
-6.476000
-6.736000
-7.446000
-8.467000
-15.637000
-22.167000
-23.547000
-23.377000
-21.787000
-18.747000
-15.837000
-15.327000
-14.317000
-12.717000
-7.928000
-1.728000
9.462000
17.742000
21.582000
22.922000
23.262000
24.222000
27.322000
34.782000
38.542000
40.241000
35.841000
28.411000
13.501000
5.501000
2.521000
0.781000
-1.079000
-3.939000
-9.019000
-16.229000
-22.170000
-27.390000
-29.490000
-32.080000
-35.320000
-36.620000
-37.140000
-36.060000
-34.090000
-30.410000
-25.131000
-18.981000
-11.821000
-2.561000
12.709000
24.289000
32.939000
36.319000
37.689000
33.269000
30.269000
28.829000
27.648000
26.278000
22.038000
16.968000
10.598000
2.468000
-6.442000
-18.742000
-28.832000
-33.832000
-36.103000
-36.613000
-31.993000
-27.183000
-23.363000
-20.663000
-18.963000
-14.803000
-8.533000
8.017000
20.267000
27.056000
28.936000
28.966000
25.466000
22.606000
20.886000
21.226000
22.626000
22.556000
21.526000
18.046000
12.415000
5.205000
-6.415000
-16.755000
-18.845000
-19.445000
-18.495000
-16.775000
-14.995000
-14.355000
-12.295000
-8.166000
-3.476000
1.384000
4.124000
7.234000
11.114000
14.484000
17.534000
17.984000
17.094000
12.514000
9.173000
6.883000
5.453000
3.763000
-0.317000
-5.197000
-11.057000
-13.217000
-14.037000
-11.997000
-10.357000
-9.408000
-11.038000
-13.898000
-11.318000
-9.198000
-8.428000
-7.328000
-5.988000
-5.188000
-4.548000
-4.338000
-3.459000
-1.879000
-1.379000
-1.189000
-1.069000
-0.029000
2.621000
3.461000
3.341000
3.691000
4.161000
4.920000
5.510000
5.950000
6.550000
7.060000
6.490000
5.850000
5.090000
2.610000
-0.670000
-3.210000
-5.351000
-6.421000
-6.361000
-5.421000
-5.591000
-5.601000
-3.331000
0.499000
6.389000
12.889000
19.588000
24.008000
26.718000
25.458000
25.068000
25.278000
22.708000
19.318000
13.858000
6.928000
-1.702000
-6.832000
-10.643000
-10.643000
-10.323000
-9.373000
-7.243000
-4.403000
-2.083000
-0.223000
0.027000
0.467000
1.107000
-1.084000
-4.034000
-7.024000
-9.554000
-11.324000
-12.464000
-13.284000
-13.254000
-13.224000
-13.284000
-13.014000
-12.445000
-10.265000
-7.835000
-6.195000
-4.455000
-2.555000
-2.635000
-3.585000
-2.035000
0.155000
3.935000
11.084000
20.804000
27.384000
32.614000
33.034000
33.784000
34.934000
33.184000
30.264000
23.534000
16.944000
10.633000
6.093000
2.723000
-5.887000
-15.107000
-24.147000
-29.807000
-31.697000
-32.147000
-32.267000
-34.588000
-37.058000
-39.808000
-38.468000
-34.918000
-29.288000
-23.918000
-19.688000
-13.638000
-6.028000
4.412000
15.311000
25.661000
33.441000
37.881000
40.301000
41.841000
38.461000
33.971000
27.211000
20.191000
13.011000
8.951000
4.400000
-2.780000
-8.370000
-12.480000
-15.880000
-18.810000
-19.480000
-19.600000
-18.920000
-17.820000
-16.531000
-12.341000
-8.471000
-5.301000
-3.661000
-3.031000
0.749000
5.839000
14.779000
21.119000
24.859000
23.348000
20.438000
16.958000
12.578000
6.808000
1.878000
-2.682000
-4.422000
-5.832000
-6.462000
-7.032000
-7.562000
-8.663000
-9.633000
-9.633000
-8.293000
-5.503000
-3.303000
-1.273000
0.757000
0.947000
-1.963000
-2.503000
-1.874000
-0.624000
1.246000
4.796000
7.776000
10.316000
9.256000
7.966000
8.606000
8.946000
8.946000
10.095000
11.475000
10.205000
7.435000
1.855000
-2.235000
-5.535000
-6.185000
-6.505000
-6.255000
-7.856000
-11.016000
-15.036000
-18.726000
-19.296000
-18.926000
-17.336000
-16.916000
-16.886000
-16.036000
-14.806000
-12.807000
-9.077000
-4.317000
-1.027000
1.583000
2.213000
2.523000
2.523000
4.083000
5.833000
6.473000
7.152000
7.922000
10.122000
12.922000
16.342000
19.142000
20.542000
20.632000
19.872000
18.652000
17.342000
15.821000
11.771000
5.181000
0.211000
-4.159000
-6.699000
-8.609000
-9.559000
-10.509000
-11.449000
-12.089000
-12.250000
-11.240000
-9.740000
-7.900000
-5.050000
-2.350000
-0.890000
0.630000
2.220000
5.520000
9.190000
11.090000
12.639000
13.589000
13.869000
13.809000
11.349000
8.749000
5.969000
4.319000
3.559000
1.059000
-1.682000
-4.152000
-5.402000
-5.212000
-5.362000
-5.412000
-1.862000
1.108000
3.018000
4.368000
5.428000
3.587000
0.997000
-3.443000
-10.593000
-20.033000
-26.433000
-31.633000
-32.833000
-32.653000
-30.693000
-28.433000
-26.003000
-21.784000
-17.554000
-13.324000
-7.054000
0.446000
6.586000
11.686000
13.596000
15.166000
16.436000
18.435000
20.605000
22.885000
24.745000
26.015000
24.575000
22.065000
21.045000
19.625000
17.255000
16.225000
16.055000
16.664000
16.704000
14.074000
10.774000
6.784000
0.494000
-6.186000
-9.466000
-13.796000
-19.976000
-23.037000
-24.417000
-25.207000
-25.727000
-25.477000
-25.127000
-24.707000
-20.517000
-15.317000
-8.927000
-2.507000
3.922000
9.192000
13.932000
16.202000
18.072000
19.022000
20.322000
21.902000
22.502000
22.572000
20.472000
16.741000
10.861000
2.851000
-5.929000
-9.709000
-12.829000
-14.399000
-15.419000
-16.049000
-18.179000
-19.920000
-18.850000
-17.950000
-17.250000
-13.790000
-9.470000
-6.000000
-1.680000
4.320000
9.130000
13.230000
15.309000
17.079000
18.339000
17.399000
14.249000
10.929000
7.519000
3.569000
0.209000
-2.141000
-4.051000
-5.731000
-9.612000
-13.582000
-17.472000
-18.312000
-16.482000
-16.622000
-16.622000
-12.202000
-8.542000
-6.022000
-1.782000
3.207000
7.507000
10.897000
11.907000
12.057000
11.557000
9.537000
7.527000
6.957000
6.227000
5.287000
3.556000
1.576000
1.386000
0.376000
-2.454000
-3.594000
-3.584000
-7.184000
-11.084000
-14.364000
-16.924000
-18.695000
-20.065000
-21.225000
-20.545000
-18.785000
-15.075000
-10.025000
-4.295000
-0.505000
3.435000
7.995000
12.684000
17.454000
20.834000
23.904000
26.444000
28.994000
31.544000
32.574000
32.844000
29.884000
26.223000
21.553000
16.133000
10.383000
2.743000
-5.257000
-14.037000
-21.377000
-27.867000
-30.087000
-31.997000
-33.908000
-35.298000
-36.248000
-34.778000
-32.578000
-28.758000
-23.338000
-16.018000
-8.458000
-0.798000
7.162000
14.571000
21.041000
25.001000
27.751000
27.181000
26.001000
23.451000
20.911000
18.361000
14.681000
10.431000
4.490000
-1.620000
-7.900000
-11.810000
-14.600000
-13.000000
-12.620000
-13.900000
-14.240000
-14.170000
-12.040000
-9.531000
-6.241000
-1.991000
2.789000
5.749000
8.129000
9.089000
10.399000
11.989000
11.049000
9.959000
10.018000
9.598000
8.648000
7.948000
6.878000
1.158000
-3.912000
-7.942000
-9.642000
-10.322000
-8.792000
-6.723000
-3.413000
-1.413000
-0.273000
1.107000
2.317000
2.827000
3.907000
5.497000
4.657000
3.517000
3.576000
3.706000
3.896000
2.856000
1.396000
0.056000
-1.714000
-4.274000
-6.314000
-8.094000
-9.884000
-11.375000
-12.135000
-13.055000
-14.075000
-14.395000
-14.075000
-11.905000
-10.105000
-8.605000
-5.565000
-2.115000
2.044000
6.664000
11.774000
15.164000
17.924000
19.134000
19.574000
18.934000
20.214000
21.974000
18.824000
15.733000
12.753000
8.063000
2.523000
-0.427000
-3.087000
-5.197000
-7.187000
-9.107000
-10.727000
-12.547000
-15.097000
-16.958000
-18.238000
-19.078000
-19.658000
-19.318000
-17.408000
-13.778000
-8.268000
-2.548000
0.712000
3.151000
4.421000
6.871000
9.741000
12.621000
15.271000
17.511000
18.051000
17.731000
15.541000
13.211000
10.651000
7.070000
2.810000
-3.590000
-9.860000
-14.970000
-19.050000
-22.250000
-24.900000
-27.090000
-27.410000
-27.121000
-26.161000
-25.201000
-23.671000
-16.961000
-10.121000
-3.091000
1.319000
4.719000
7.959000
12.099000
17.908000
22.208000
25.728000
26.128000
25.728000
23.488000
20.048000
15.788000
11.138000
6.498000
2.028000
-0.403000
-1.043000
-2.223000
-4.143000
-9.513000
-13.793000
-16.853000
-16.943000
-16.193000
-15.563000
-13.983000
-10.814000
-7.504000
-4.124000
3.016000
9.486000
13.726000
17.186000
20.046000
18.986000
17.506000
17.176000
16.375000
15.025000
12.455000
9.365000
3.875000
-1.225000
-5.625000
-7.825000
-8.845000
-8.775000
-8.465000
-7.576000
-6.966000
-6.586000
-5.456000
-4.346000
-4.216000
-4.066000
-3.876000
-2.666000
-1.036000
1.814000
3.873000
4.323000
5.593000
7.373000
7.503000
7.793000
9.053000
9.173000
8.223000
7.443000
6.763000
6.552000
6.172000
5.532000
4.632000
3.632000
4.652000
4.672000
2.452000
1.512000
1.412000
-1.938000
-4.739000
-4.009000
-4.289000
-5.599000
-5.669000
-5.319000
-4.049000
-3.909000
-5.489000
-5.769000
-5.449000
-4.830000
-4.560000
-5.190000
-4.350000
-2.450000
-1.110000
0.500000
3.660000
7.740000
12.810000
15.910000
18.239000
17.979000
16.619000
13.389000
10.409000
7.549000
4.519000
1.319000
-2.291000
-4.271000
-4.971000
-6.922000
-8.512000
-7.122000
-6.602000
-7.112000
-7.612000
-8.092000
-7.832000
-7.332000
-6.382000
-5.012000
-3.423000
-2.143000
-1.213000
-1.213000
0.837000
4.397000
5.717000
6.737000
7.747000
7.387000
5.607000
4.636000
3.716000
1.416000
-0.514000
-1.914000
-3.314000
-4.694000
-4.564000
-4.414000
-4.204000
-3.865000
-3.445000
-2.815000
-2.245000
-1.865000
-1.965000
-2.485000
-2.995000
-3.195000
-1.665000
1.175000
5.584000
10.644000
15.584000
16.154000
15.444000
12.584000
9.074000
5.254000
2.364000
0.124000
-0.576000
-2.527000
-5.327000
-5.907000
-6.347000
-7.307000
-6.807000
-4.907000
-4.377000
-4.067000
-3.007000
-2.847000
-3.908000
-4.448000
-4.768000
-4.318000
-4.208000
-4.738000
-1.228000
4.532000
8.922000
11.982000
11.342000
11.592000
12.551000
12.121000
11.591000
11.591000
10.831000
9.241000
6.661000
3.701000
-0.249000
-3.549000
-5.850000
-8.150000
-10.440000
-11.150000
-11.350000
-10.400000
-9.450000
-8.500000
-4.880000
-1.240000
1.550000
3.039000
3.359000
3.489000
3.409000
2.129000
1.599000
2.019000
3.139000
4.459000
4.779000
4.789000
4.268000
2.688000
0.638000
-0.912000
-2.602000
-4.602000
-5.192000
-5.002000
-6.422000
-6.782000
-4.292000
-1.603000
1.217000
4.217000
6.887000
8.487000
9.007000
8.677000
9.197000
9.337000
7.467000
6.697000
6.946000
4.626000
2.226000
2.156000
0.926000
-1.584000
-2.154000
-2.364000
-3.584000
-4.614000
-5.394000
-6.265000
-7.055000
-6.425000
-5.785000
-5.155000
-5.125000
-5.265000
-2.705000
-0.515000
0.975000
2.065000
2.964000
4.934000
6.504000
7.134000
7.174000
6.844000
5.914000
4.774000
3.164000
0.234000
-3.626000
-4.867000
-5.907000
-7.197000
-6.987000
-5.517000
-5.487000
-5.477000
-4.517000
-4.687000
-5.977000
-4.747000
-3.368000
-4.528000
-4.128000
-1.888000
-0.478000
0.742000
2.452000
4.882000
8.342000
9.062000
8.822000
8.811000
8.901000
9.151000
7.261000
4.441000
2.131000
0.061000
-1.479000
-4.119000
-7.329000
-8.049000
-8.330000
-7.690000
-8.040000
-9.000000
-9.020000
-8.660000
-7.380000
-5.770000
-3.920000
-1.950000
-0.580000
-1.611000
-1.611000
-0.661000
-1.301000
-2.171000
-2.491000
-2.141000
-0.981000
0.599000
2.199000
2.619000
2.538000
1.678000
1.008000
0.388000
-1.412000
-2.952000
-3.982000
-3.702000
-2.682000
-0.692000
1.818000
5.647000
8.077000
9.477000
10.767000
11.787000
11.777000
10.787000
8.867000
7.047000
4.827000
-0.103000
-3.244000
-4.214000
-6.144000
-8.204000
-7.884000
-7.544000
-7.164000
-7.994000
-9.324000
-8.754000
-8.864000
-10.405000
-9.345000
-6.795000
-4.245000
-1.685000
0.865000
3.415000
5.965000
8.795000
11.665000
14.545000
16.594000
17.874000
17.574000
16.904000
16.044000
14.944000
13.554000
10.074000
5.864000
1.074000
-3.846000
-8.967000
-12.007000
-14.127000
-17.457000
-19.397000
-18.377000
-18.247000
-18.637000
-17.257000
-15.147000
-11.208000
-8.608000
-7.018000
-0.458000
6.152000
10.082000
12.842000
14.432000
15.142000
15.682000
16.442000
17.001000
17.321000
16.511000
15.091000
10.191000
4.231000
-3.439000
-8.559000
-12.519000
-14.059000
-16.269000
-19.940000
-19.980000
-17.860000
-15.830000
-13.190000
-8.620000
-5.050000
-2.340000
-0.130000
1.900000
3.490000
4.779000
5.729000
5.959000
6.019000
7.029000
7.759000
8.009000
6.029000
2.969000
1.229000
-0.311000
-1.392000
-1.382000
-0.612000
-2.372000
-3.472000
-0.932000
1.358000
3.388000
4.808000
5.978000
6.398000
6.897000
7.487000
8.207000
8.917000
7.977000
7.217000
6.797000
5.547000
3.857000
0.867000
-1.473000
-1.734000
-3.554000
-6.604000
-6.584000
-5.764000
-3.414000
-1.824000
-1.074000
1.236000
3.866000
5.136000
5.585000
4.735000
4.885000
5.485000
5.415000
5.085000
4.125000
2.975000
1.705000
-0.265000
-2.525000
-5.586000
-7.166000
-7.426000
-9.366000
-11.286000
-10.776000
-11.056000
-12.326000
-12.076000
-11.306000
-10.356000
-8.717000
-5.857000
-2.367000
1.453000
3.433000
4.903000
5.223000
5.393000
5.463000
3.733000
2.113000
2.042000
0.952000
-1.218000
-2.368000
-3.178000
-3.238000
-3.868000
-5.338000
-4.718000
-3.288000
-3.988000
-3.829000
-1.859000
0.031000
1.881000
4.731000
7.291000
8.691000
10.131000
11.591000
11.011000
10.101000
9.460000
8.360000
6.710000
3.010000
-1.190000
-3.740000
-5.960000
-7.610000
-8.360000
-8.680000
-8.060000
-7.881000
-8.841000
-7.721000
-5.171000
-3.541000
-1.151000
4.639000
8.949000
11.809000
13.899000
15.839000
18.069000
19.438000
19.628000
19.068000
18.198000
15.978000
13.638000
11.098000
6.908000
1.818000
-3.992000
-9.383000
-13.383000
-16.333000
-18.433000
-19.003000
-19.313000
-19.483000
-17.883000
-14.313000
-12.533000
-11.083000
-7.694000
-4.364000
-1.134000
3.656000
9.126000
13.076000
16.366000
18.146000
18.066000
16.796000
14.356000
12.305000
11.985000
10.665000
8.445000
4.895000
1.045000
-2.985000
