EVENT_NAME: UMBRIA-MARCHE 3RD SHOCK
EVENT_DATE_YYYYMMDD: 19971014
EVENT_TIME_HHMMSS: 152309
EVENT_LATITUDE_DEGREE: 42.8982
EVENT_LONGITUDE_DEGREE: 12.8987
EVENT_DEPTH_KM: 7
MAGNITUDE_L: 5.5
MAGNITUDE_S: 5.6
MAGNITUDE_W: 5.6
FOCAL_MECHANISM: NF
STATION_CODE: NCR
STATION_NAME: NOCERA UMBRA
STATION_LATITUDE_DEGREE: 43.111583
STATION_LONGITUDE_DEGREE: 12.784666
STATION_ELEVATION_M: 478
SITE_CLASSIFICATION_EC8: E
MORPHOLOGIC_CLASSIFICATION: SL
EPICENTRAL_DISTANCE_KM: 25.5
EARTHQUAKE_BACKAZIMUTH_DEGREE: 158.5
TIME_FIRST_SAMPLE_S: 0.000000
SAMPLING_INTERVAL_S: 0.005000
NDATA: 6560
DURATION_S: 32.795000
COMPONENT: NS
UNITS: cm/s^2
INSTRUMENT: SMA 1
INSTRUMENTAL_FREQUENCY_HZ: 19.000
INSTRUMENTAL_DAMPING: 0.570
SENSITIVITY_V/G:  
FULL_SCALE_G:  
N_BIT_DIGITAL_CONVERTER:  
PGA_CM/S^2: -130.573000
TIME_PGA_S: 1.650000
OWNER_RECORD: DPC-USSN
INSTRUMENT_ANALOG/DIGITAL: A
BASELINE_CORRECTION: BASELINE NOT REMOVED
FILTER_TYPE:  
FILTER_ORDER:  
LOW_CUT_FREQUENCY_HZ:  
HIGH_CUT_FREQUENCY_HZ:  
LATE/NORMAL_TRIGGERED: LT
DATA_VERSION: ITACA 1.1
DATA_TYPE: UNPROCESSED ACCELERATION
60.191000
46.661000
33.141000
19.611000
6.091000
-7.429000
-20.959000
-33.699000
-36.409000
-38.879000
-40.909000
-41.699000
-41.689000
-40.299000
-38.689000
-36.879000
-33.839000
-29.109000
-22.029000
-13.919000
-2.549000
7.721000
13.941000
17.311000
17.851000
16.401000
14.181000
7.711000
1.911000
-2.439000
-5.119000
-6.609000
-1.509000
4.981000
13.361000
19.401000
21.841000
23.201000
24.011000
22.361000
20.341000
17.571000
15.021000
12.721000
9.281000
5.401000
-1.579000
-9.529000
-19.899000
-26.889000
-31.179000
-31.179000
-30.099000
-27.309000
-24.739000
-22.579000
-20.929000
-19.569000
-16.999000
-13.460000
-6.019000
3.221000
14.720000
21.381000
26.111000
27.851000
29.120000
29.190000
30.080000
31.700000
31.820000
31.730000
34.160000
34.820000
31.980000
28.410000
24.350000
12.590000
-0.410000
-14.270000
-26.870000
-37.680000
-44.870000
-50.390000
-54.400000
-56.610000
-52.890000
-48.670000
-43.930000
-29.060000
-11.100000
6.860000
24.820000
42.780000
53.940000
60.110000
58.690000
55.370000
48.160000
39.420000
28.260000
14.880000
0.340000
-12.420000
-24.190000
-32.530000
-38.930000
-43.120000
-44.620000
-45.060000
-40.070000
-33.580000
-23.600000
-13.880000
-4.350000
0.090000
3.460000
5.280000
7.480000
10.200000
14.370000
19.130000
22.280000
25.380000
28.370000
29.120000
28.030000
27.900000
27.389000
22.279000
16.059000
8.120000
-2.201000
-13.660000
-22.621000
-31.031000
-38.041000
-43.241000
-46.781000
-46.391000
-44.881000
-41.701000
-36.871000
-29.161000
-13.451000
6.629000
26.709000
43.919000
50.279000
54.909000
57.739000
57.779000
56.759000
51.769000
41.739000
21.659000
1.579000
-18.501000
-30.331000
-39.811000
-42.761000
-44.251000
-44.021000
-41.781000
-38.611000
-25.901000
-11.681000
6.019000
17.739000
25.229000
28.939000
31.919000
34.009000
34.889000
34.159000
31.249000
27.439000
21.099000
14.129000
5.509000
-13.051000
-39.601000
-53.301000
-63.701000
-68.171000
-66.251000
-54.681000
-39.401000
-22.391000
-4.391000
13.649000
31.689000
47.329000
60.809000
66.499000
69.789000
67.469000
60.079000
43.968000
25.938000
6.879000
1.929000
-1.282000
-1.912000
-2.052000
-1.692000
-5.762000
-11.832000
-29.862000
-47.882000
-65.912000
-74.622000
-78.532000
-66.892000
-51.502000
-27.522000
-3.542000
20.448000
25.228000
26.538000
24.008000
21.368000
18.598000
15.838000
13.278000
12.448000
11.508000
10.398000
9.098000
7.748000
7.958000
8.278000
8.858000
7.838000
5.888000
2.858000
-1.062000
-7.622000
-18.412000
-32.792000
-39.282000
-42.452000
-35.092000
-27.312000
-19.032000
-10.742000
-2.462000
5.818000
12.048000
14.808000
19.808000
25.888000
31.418000
36.138000
38.908000
40.248000
40.618000
35.278000
28.318000
17.508000
3.768000
-12.792000
-25.992000
-37.452000
-41.732000
-42.882000
-39.752000
-35.552000
-30.913000
-25.392000
-19.642000
-13.432000
-5.883000
2.397000
18.977000
32.347000
34.997000
32.187000
25.077000
14.577000
4.327000
-2.023000
-3.793000
-0.483000
4.117000
9.107000
14.357000
16.867000
15.067000
13.717000
12.567000
8.887000
5.387000
2.277000
0.857000
0.507000
2.377000
3.757000
2.727000
-0.123000
-4.603000
-19.123000
-35.093000
-47.293000
-55.633000
-59.093000
-59.113000
-57.563000
-48.563000
-34.813000
-12.633000
9.547000
31.727000
53.897000
71.137000
76.677000
78.417000
77.717000
73.517000
68.357000
61.077000
50.577000
37.407000
15.277000
-8.333000
-31.953000
-55.563000
-79.173000
-102.783000
-124.503000
-130.573000
-125.513000
-105.083000
-84.663000
-64.243000
-43.813000
-23.393000
-2.963000
17.456000
37.887000
58.306000
78.737000
99.157000
111.576000
118.766000
112.996000
103.406000
84.926000
67.936000
52.226000
36.516000
20.806000
5.096000
-10.234000
-25.134000
-38.834000
-51.744000
-60.614000
-67.644000
-72.084000
-70.774000
-67.254000
-62.404000
-53.274000
-36.294000
-19.314000
-2.334000
4.826000
12.096000
20.176000
31.246000
44.306000
51.316000
56.496000
57.326000
55.326000
50.886000
47.506000
43.526000
35.436000
23.406000
6.996000
-9.404000
-24.984000
-33.024000
-38.904000
-41.674000
-41.634000
-40.434000
-36.624000
-31.364000
-23.394000
-16.564000
-10.334000
-0.054000
10.816000
22.876000
29.886000
33.496000
29.656000
22.466000
6.056000
-5.934000
-14.064000
-14.504000
-12.154000
-2.444000
5.726000
12.186000
14.936000
16.355000
14.766000
13.766000
13.695000
13.485000
13.205000
12.175000
11.035000
9.655000
5.535000
-0.335000
-9.415000
-18.015000
-23.815000
-27.655000
-29.725000
-28.645000
-26.795000
-24.145000
-19.225000
-11.405000
-4.815000
1.265000
5.685000
9.395000
11.805000
11.765000
10.445000
9.875000
9.845000
11.225000
15.335000
21.455000
24.335000
26.545000
27.785000
26.555000
22.765000
15.675000
7.025000
-7.935000
-19.595000
-26.455000
-24.695000
-19.435000
-13.365000
-8.535000
-6.325000
-6.705000
-8.645000
-12.545000
-14.875000
-11.655000
-7.185000
-1.665000
10.205000
21.785000
25.335000
25.995000
23.235000
16.275000
7.815000
-2.995000
-11.535000
-16.255000
-19.975000
-23.215000
-24.836000
-24.875000
-21.076000
-13.806000
-4.136000
3.044000
11.064000
23.494000
35.914000
48.344000
53.134000
55.884000
56.534000
53.594000
45.774000
35.264000
23.844000
14.634000
4.584000
-7.156000
-18.886000
-30.616000
-51.906000
-70.186000
-78.046000
-81.906000
-82.596000
-76.726000
-68.666000
-54.856000
-41.466000
-28.546000
-15.616000
-3.176000
4.684000
12.254000
19.414000
30.154000
42.094000
48.124000
52.654000
54.314000
55.524000
56.494000
55.854000
55.094000
54.174000
50.504000
44.964000
35.864000
25.884000
14.104000
-3.186000
-25.366000
-40.536000
-53.296000
-59.946000
-63.626000
-63.906000
-60.186000
-55.336000
-50.486000
-41.106000
-25.026000
-8.946000
7.144000
23.214000
35.064000
38.664000
39.333000
38.433000
35.523000
32.664000
30.104000
27.204000
24.094000
21.493000
18.703000
15.013000
3.063000
-16.347000
-32.277000
-45.757000
-49.217000
-47.887000
-40.947000
-29.187000
-16.377000
-7.367000
0.543000
6.773000
12.323000
17.533000
20.023000
21.403000
20.573000
20.463000
20.743000
22.143000
22.923000
21.883000
20.443000
18.713000
14.803000
9.603000
0.483000
-9.547000
-20.407000
-25.487000
-28.797000
-28.447000
-27.277000
-25.127000
-22.707000
-20.287000
-18.697000
-17.457000
-16.757000
-15.167000
-13.137000
-7.587000
-1.667000
5.043000
8.983000
11.413000
12.183000
14.273000
20.163000
24.083000
26.583000
28.333000
28.953000
25.503000
21.003000
15.483000
6.033000
-3.937000
-11.117000
-18.177000
-25.077000
-30.378000
-34.857000
-33.107000
-30.628000
-26.718000
-16.658000
-3.198000
2.932000
7.412000
8.242000
6.552000
2.872000
1.672000
1.362000
3.432000
9.802000
20.962000
28.452000
34.202000
32.482000
27.982000
19.122000
8.432000
-3.078000
-6.668000
-9.328000
-9.888000
-9.258000
-7.878000
-9.778000
-13.008000
-19.868000
-25.328000
-29.508000
-26.858000
-22.628000
-17.218000
-12.118000
-7.398000
-4.058000
-1.048000
4.472000
10.602000
17.852000
21.452000
23.172000
19.282000
15.672000
13.342000
10.602000
7.562000
7.932000
8.792000
9.832000
10.412000
10.522000
8.802000
6.222000
0.122000
-4.978000
-8.608000
-9.528000
-9.378000
-11.228000
-13.098000
-15.028000
-20.598000
-28.328000
-31.108000
-30.749000
-21.428000
-6.688000
12.632000
21.632000
27.712000
27.941000
25.961000
21.361000
16.401000
11.051000
1.761000
-7.259000
-15.819000
-20.129000
-22.409000
-26.179000
-29.479000
-31.549000
-32.189000
-31.849000
-30.679000
-28.899000
-25.019000
-16.119000
-1.979000
12.171000
25.671000
30.921000
33.081000
29.791000
27.221000
25.031000
19.101000
12.191000
2.841000
-3.529000
-7.179000
-10.369000
-13.089000
-12.749000
-10.699000
-6.049000
-2.149000
1.411000
3.161000
4.691000
5.711000
4.441000
1.361000
0.031000
-1.659000
-7.409000
-12.929000
-18.129000
-21.229000
-23.429000
-18.869000
-13.489000
-6.189000
7.061000
24.391000
33.831000
40.991000
42.291000
43.991000
46.161000
45.051000
42.721000
36.901000
26.951000
8.841000
-9.280000
-27.389000
-45.500000
-60.650000
-64.480000
-67.940000
-71.020000
-69.250000
-64.450000
-39.820000
-15.180000
9.450000
34.090000
58.720000
60.350000
61.030000
62.400000
62.310000
60.940000
48.370000
33.410000
18.440000
3.480000
-11.490000
-26.460000
-41.420000
-45.820000
-48.890000
-48.900000
-44.240000
-36.030000
-26.060000
-15.090000
-0.030000
12.020000
20.230000
25.690000
30.080000
31.380000
32.470000
33.110000
30.020000
24.450000
21.280000
17.560000
10.030000
-2.350000
-20.150000
-37.940000
-55.020000
-59.480000
-59.860000
-52.640000
-42.980000
-31.990000
-24.890000
-17.020000
-6.020000
4.970000
15.970000
26.960000
37.160000
42.310000
44.920000
44.230000
41.530000
37.930000
29.199000
21.569000
16.209000
11.880000
8.169000
4.329000
0.419000
-3.711000
-8.401000
-13.631000
-19.871000
-26.021000
-29.801000
-28.921000
-21.431000
-16.721000
-13.161000
-10.131000
-8.631000
-10.561000
-12.441000
-14.301000
-8.581000
-0.551000
13.489000
27.529000
41.569000
46.959000
49.619000
47.209000
44.939000
42.879000
38.279000
32.559000
25.239000
14.979000
-2.601000
-20.171000
-37.751000
-44.391000
-47.071000
-38.361000
-29.061000
-19.091000
-14.991000
-12.561000
-9.821000
-6.731000
-3.061000
2.749000
9.619000
19.859000
27.939000
29.729000
28.829000
25.849000
17.939000
8.579000
-4.251000
-16.751000
-28.861000
-34.801000
-38.551000
-38.891000
-39.001000
-38.651000
-34.971000
-29.471000
-10.981000
8.259000
27.508000
40.539000
48.328000
51.988000
54.249000
52.758000
49.318000
43.368000
34.388000
24.298000
14.218000
3.448000
-8.742000
-17.262000
-23.582000
-28.132000
-31.022000
-28.612000
-27.642000
-27.982000
-26.082000
-23.752000
-22.042000
-18.252000
-11.512000
-3.512000
4.948000
7.218000
7.718000
4.228000
0.588000
-3.142000
-6.732000
-9.152000
-6.952000
-2.692000
3.628000
12.798000
21.808000
22.358000
22.708000
22.778000
20.478000
17.108000
14.168000
11.018000
7.358000
1.618000
-5.602000
-14.032000
-21.622000
-24.602000
-26.042000
-25.822000
-23.462000
-20.062000
-11.362000
-4.362000
-0.232000
2.968000
5.718000
8.908000
13.328000
21.108000
26.258000
29.348000
30.368000
29.688000
21.788000
11.837000
-0.532000
-15.602000
-31.073000
-37.943000
-43.092000
-45.013000
-45.253000
-44.563000
-43.013000
-40.353000
-34.393000
-19.013000
4.347000
27.717000
49.437000
60.827000
68.437000
71.127000
67.567000
61.397000
44.897000
29.987000
18.297000
7.477000
-2.833000
-19.623000
-35.173000
-44.523000
-49.793000
-51.313000
-45.963000
-38.533000
-26.853000
-17.593000
-11.753000
-8.843000
-7.143000
-7.383000
-6.303000
-2.303000
5.317000
15.277000
18.847000
21.127000
20.987000
19.507000
16.627000
14.857000
13.447000
12.647000
12.647000
14.087000
14.407000
14.127000
12.047000
9.277000
4.617000
-0.753000
-6.783000
-10.913000
-14.573000
-18.003000
-20.833000
-22.753000
-24.853000
-27.053000
-27.553000
-26.783000
-22.684000
-18.833000
-15.193000
-8.444000
-1.194000
5.756000
13.986000
23.906000
31.116000
37.186000
35.126000
32.726000
29.526000
21.526000
10.206000
3.566000
-1.894000
-4.634000
-6.734000
-8.114000
-9.274000
-10.284000
-9.464000
-8.834000
-8.564000
-7.604000
-6.234000
-5.624000
-5.134000
-4.864000
-4.184000
-3.094000
-3.734000
-4.644000
-3.414000
-2.134000
-0.764000
2.186000
5.946000
11.436000
16.496000
19.866000
19.546000
15.986000
11.746000
7.556000
4.806000
3.596000
4.616000
4.786000
4.576000
3.216000
0.486000
-5.814000
-10.554000
-14.124000
-18.144000
-21.174000
-17.964000
-13.724000
-8.184000
-2.334000
3.586000
6.436000
8.286000
7.946000
6.566000
4.516000
-0.384000
-5.044000
-7.054000
-7.474000
-6.104000
-3.905000
-1.315000
3.645000
7.645000
9.925000
10.015000
8.975000
7.825000
6.435000
4.405000
2.595000
0.935000
-0.785000
-2.285000
-2.775000
-3.565000
-4.665000
-5.285000
-5.615000
-4.585000
-4.415000
-5.525000
-4.325000
-2.185000
-0.195000
2.675000
7.365000
11.015000
14.055000
15.545000
15.895000
12.955000
9.485000
5.565000
3.405000
1.685000
0.655000
0.115000
0.185000
0.415000
0.535000
-1.395000
-3.865000
-7.225000
-10.495000
-13.715000
-12.185000
-9.375000
-3.585000
2.375000
8.455000
9.075000
9.255000
10.145000
10.265000
9.645000
9.195000
8.635000
7.025000
4.335000
0.195000
-6.095000
-13.025000
-15.365000
-17.435000
-18.955000
-17.855000
-15.306000
-13.866000
-12.295000
-10.156000
-8.096000
-6.096000
-3.026000
0.324000
4.184000
6.604000
7.434000
7.074000
6.294000
4.494000
2.754000
1.094000
-0.566000
-2.216000
-1.946000
-2.806000
-6.256000
-8.036000
-8.726000
-9.546000
-9.156000
-4.466000
-0.786000
1.974000
2.894000
3.384000
3.444000
3.734000
4.314000
6.084000
8.224000
9.494000
9.414000
6.964000
6.914000
8.014000
3.664000
0.434000
0.094000
-0.676000
-1.726000
-3.086000
-4.986000
-8.596000
-12.056000
-15.376000
-19.186000
-21.806000
-18.266000
-14.936000
-11.816000
-5.886000
0.484000
4.574000
7.964000
10.384000
10.734000
10.394000
11.774000
14.424000
19.344000
20.644000
20.154000
22.864000
23.544000
19.174000
11.573000
1.873000
-7.517000
-15.526000
-18.986000
-21.327000
-22.717000
-23.517000
-23.867000
-22.477000
-19.767000
-15.607000
-8.337000
-0.337000
6.963000
12.613000
15.943000
17.853000
19.063000
16.013000
14.233000
14.783000
14.173000
12.973000
12.763000
12.153000
10.483000
8.153000
5.383000
1.973000
-1.487000
-4.957000
-6.807000
-7.267000
-9.307000
-12.087000
-17.287000
-22.677000
-28.297000
-32.707000
-36.217000
-34.487000
-30.907000
-24.667000
-16.587000
-7.557000
8.143000
20.363000
26.023000
27.993000
28.053000
30.353000
32.393000
33.643000
34.633000
35.473000
32.073000
27.493000
20.223000
7.943000
-8.687000
-23.687000
-36.707000
-40.867000
-42.037000
-39.827000
-34.357000
-27.997000
-22.388000
-16.347000
-9.597000
-4.988000
-1.438000
6.992000
15.672000
24.602000
28.902000
29.592000
25.542000
20.322000
12.892000
7.072000
3.152000
0.372000
-1.998000
-3.718000
-4.908000
-5.108000
-5.498000
-5.978000
-4.378000
-2.378000
0.512000
3.622000
6.912000
8.832000
10.292000
10.562000
10.332000
9.442000
5.282000
-0.018000
-3.608000
-6.238000
-6.928000
-7.138000
-7.068000
-7.448000
-7.858000
-8.278000
-8.078000
-7.318000
-8.028000
-8.618000
-5.868000
-4.378000
-4.648000
-4.538000
-4.248000
-2.178000
-0.378000
0.862000
3.512000
7.082000
6.442000
5.282000
3.912000
2.262000
0.342000
-3.118000
-6.828000
-9.308000
-10.918000
-11.188000
-11.458000
-11.728000
-12.138000
-12.158000
-11.189000
-10.948000
-11.219000
-6.649000
-1.129000
5.751000
10.261000
12.191000
11.551000
9.981000
5.811000
1.981000
-1.269000
-4.919000
-8.759000
-8.889000
-8.889000
-8.879000
-9.269000
-9.959000
-11.349000
-12.329000
-10.469000
-9.139000
-8.449000
-4.599000
0.371000
6.991000
11.261000
11.261000
12.721000
14.931000
13.751000
12.621000
12.001000
10.151000
7.401000
4.881000
2.401000
-0.079000
-4.529000
-11.019000
-15.359000
-18.739000
-18.389000
-17.059000
-14.299000
-9.569000
-4.029000
2.641000
8.491000
12.591000
15.161000
16.821000
13.931000
10.471000
6.241000
1.741000
-2.999000
-4.389000
-4.749000
-2.819000
0.121000
4.271000
8.151000
11.671000
11.331000
11.501000
12.541000
12.641000
12.290000
9.921000
7.780000
6.330000
4.110000
1.350000
-1.040000
-3.390000
-5.810000
-8.780000
-12.300000
-15.420000
-18.530000
-22.110000
-24.120000
-23.980000
-22.770000
-20.990000
-14.310000
-4.920000
9.770000
18.660000
24.330000
19.710000
14.970000
11.530000
7.690000
3.550000
2.690000
2.560000
3.460000
2.760000
0.270000
-1.460000
-3.000000
-4.790000
-4.820000
-2.100000
-0.090000
1.620000
4.660000
7.270000
8.860000
8.180000
6.050000
6.880000
7.450000
6.070000
4.260000
2.060000
-0.370000
-3.060000
-7.100000
-9.010000
-8.200000
-7.420000
-6.580000
-4.350000
-2.880000
-2.740000
-2.020000
-1.040000
-1.320000
-1.720000
-2.410000
-1.850000
-0.590000
1.610000
3.450000
4.290000
6.470000
9.540000
10.049000
9.869000
8.199000
7.009000
6.179000
3.589000
0.799000
-1.861000
-3.181000
-3.241000
-4.061000
-4.851000
-4.711000
-3.841000
-2.161000
-1.591000
-0.981000
2.079000
4.159000
4.929000
6.779000
8.849000
9.089000
8.529000
6.729000
5.219000
3.779000
0.449000
-2.721000
-5.571000
-8.131000
-10.571000
-13.341000
-15.401000
-15.861000
-15.741000
-15.271000
-13.651000
-11.571000
-8.361000
-4.181000
0.699000
5.269000
10.449000
17.899000
22.369000
24.329000
26.279000
27.529000
25.589000
21.319000
14.709000
9.129000
4.059000
0.719000
-1.971000
-3.911000
-8.021000
-12.701000
-16.871000
-20.721000
-24.121000
-24.251000
-23.081000
-19.941000
-15.501000
-8.881000
-4.191000
-0.381000
2.068000
4.348000
6.298000
8.438000
10.668000
11.638000
12.038000
11.118000
7.788000
2.928000
0.318000
-1.762000
-2.802000
-4.032000
-5.422000
-3.722000
-2.202000
-2.882000
-4.072000
-5.732000
-5.322000
-4.342000
-2.462000
-1.152000
-0.522000
0.268000
1.058000
1.348000
1.518000
1.518000
1.528000
1.498000
-1.272000
-2.682000
-1.292000
-3.092000
-6.682000
-7.642000
-8.182000
-7.902000
-7.292000
-6.462000
-4.022000
-1.632000
-0.242000
0.918000
1.848000
2.198000
2.248000
1.098000
0.778000
1.478000
1.858000
1.958000
-0.252000
-1.292000
-0.452000
-2.132000
-4.872000
-5.142000
-5.322000
-5.322000
-5.092000
-4.742000
-4.262000
-3.092000
0.008000
3.218000
6.508000
9.337000
11.717000
12.488000
11.917000
10.057000
6.987000
3.257000
-3.213000
-8.083000
-10.963000
-13.493000
-15.673000
-14.633000
-14.113000
-14.453000
-12.873000
-10.433000
-6.193000
-1.633000
3.637000
5.597000
5.597000
6.907000
7.667000
6.567000
5.067000
3.267000
4.157000
4.927000
3.687000
2.867000
2.457000
2.157000
1.887000
1.617000
0.667000
-1.123000
-1.673000
-1.973000
-4.743000
-6.673000
-7.223000
-7.863000
-8.553000
-8.683000
-8.293000
-6.763000
-5.763000
-5.063000
-4.753000
-4.083000
-2.143000
-0.953000
-0.393000
0.867000
1.997000
1.727000
2.967000
6.017000
7.267000
8.057000
10.127000
11.227000
10.677000
9.947000
9.117000
8.017000
6.957000
5.987000
5.187000
4.496000
3.806000
3.116000
2.426000
1.036000
-1.034000
-2.734000
-4.264000
-5.184000
-5.374000
-4.564000
-4.844000
-5.544000
-6.344000
-7.074000
-7.644000
-5.494000
-1.844000
1.236000
4.266000
7.306000
9.186000
10.156000
11.596000
12.716000
11.896000
12.116000
13.496000
10.926000
7.076000
1.376000
-2.894000
-4.894000
-6.794000
-8.664000
-7.144000
-6.214000
-6.624000
-6.954000
-7.234000
-7.504000
-7.504000
-6.544000
-5.434000
-4.184000
-1.684000
0.726000
0.866000
1.976000
4.316000
4.716000
4.496000
5.316000
5.956000
6.226000
4.686000
2.196000
-0.994000
-3.964000
-6.264000
-7.844000
-8.874000
-7.844000
-7.284000
-10.044000
-11.584000
-11.865000
-12.465000
-12.905000
-11.115000
-7.505000
-1.245000
4.165000
9.155000
10.265000
11.325000
12.295000
12.395000
11.975000
11.175000
10.355000
9.525000
8.395000
7.015000
4.705000
1.925000
-2.495000
-6.465000
-9.915000
-12.315000
-14.215000
-13.755000
-13.015000
-11.825000
-9.945000
-7.735000
-4.035000
-0.115000
4.255000
8.355000
12.265000
13.035000
13.365000
13.365000
13.155000
12.745000
11.205000
9.595000
9.315000
8.345000
6.405000
5.615000
5.115000
0.785000
-4.035000
-9.835000
-13.975000
-17.195000
-19.105000
-19.905000
-17.605000
-14.855000
-11.745000
-7.805000
-3.635000
1.055000
4.445000
6.375000
7.655000
8.755000
9.715000
9.825000
8.575000
8.345000
8.545000
5.025000
1.315000
-2.825000
-6.505000
-9.885000
-9.866000
-9.446000
-8.756000
-8.216000
-7.796000
-7.496000
-7.226000
-6.956000
-6.796000
