EVENT_NAME: UMBRIA-MARCHE 3RD SHOCK
EVENT_DATE_YYYYMMDD: 19971014
EVENT_TIME_HHMMSS: 152309
EVENT_LATITUDE_DEGREE: 42.8982
EVENT_LONGITUDE_DEGREE: 12.8987
EVENT_DEPTH_KM: 7
MAGNITUDE_L: 5.5
MAGNITUDE_S: 5.6
MAGNITUDE_W: 5.6
FOCAL_MECHANISM: NF
STATION_CODE: NCR
STATION_NAME: NOCERA UMBRA
STATION_LATITUDE_DEGREE: 43.111583
STATION_LONGITUDE_DEGREE: 12.784666
STATION_ELEVATION_M: 478
SITE_CLASSIFICATION_EC8: E
MORPHOLOGIC_CLASSIFICATION: SL
EPICENTRAL_DISTANCE_KM: 25.5
EARTHQUAKE_BACKAZIMUTH_DEGREE: 158.5
TIME_FIRST_SAMPLE_S: 0.000000
SAMPLING_INTERVAL_S: 0.005000
NDATA: 6560
DURATION_S: 32.795000
COMPONENT: UP
UNITS: cm/s^2
INSTRUMENT: SMA 1
INSTRUMENTAL_FREQUENCY_HZ: 17.900
INSTRUMENTAL_DAMPING: 0.570
SENSITIVITY_V/G:  
FULL_SCALE_G:  
N_BIT_DIGITAL_CONVERTER:  
PGA_CM/S^2: 29.615000
TIME_PGA_S: 1.780000
OWNER_RECORD: DPC-USSN
INSTRUMENT_ANALOG/DIGITAL: A
BASELINE_CORRECTION: BASELINE NOT REMOVED
FILTER_TYPE:  
FILTER_ORDER:  
LOW_CUT_FREQUENCY_HZ:  
HIGH_CUT_FREQUENCY_HZ:  
LATE/NORMAL_TRIGGERED: LT
DATA_VERSION: ITACA 1.1
DATA_TYPE: UNPROCESSED ACCELERATION
-8.239000
-6.429000
-5.089000
-5.089000
-5.729000
-6.939000
-6.209000
-4.789000
-0.549000
3.681000
7.911000
10.291000
11.501000
12.181000
12.631000
12.221000
11.141000
9.121000
6.831000
4.411000
1.411000
-0.839000
-0.539000
-0.089000
0.521000
2.101000
3.881000
3.521000
3.331000
3.530000
4.210000
5.210000
5.360000
5.370000
5.490000
5.920000
6.800000
6.030000
4.420000
2.620000
0.740000
-1.380000
-3.490000
-5.610000
-6.150000
-6.170000
-7.070000
-7.460000
-6.560000
-5.820000
-5.210000
-2.420000
0.860000
4.250000
7.060000
8.870000
9.530000
9.530000
8.710000
7.940000
7.840000
7.430000
6.620000
3.360000
-0.870000
-4.150000
-7.370000
-10.450000
-11.690000
-11.270000
-11.040000
-10.730000
-8.620000
-7.010000
-6.400000
-6.170000
-6.170000
-5.960000
-5.340000
-2.560000
-0.690000
-0.080000
0.520000
1.130000
0.280000
-0.020000
1.730000
3.100000
4.060000
4.980000
5.830000
5.230000
4.620000
4.019000
3.239000
2.329000
1.369000
0.529000
0.589000
0.129000
-1.141000
-1.471000
-1.311000
0.009000
1.559000
3.679000
5.679000
7.559000
7.629000
7.059000
6.659000
6.459000
6.769000
5.299000
2.559000
-0.181000
-2.331000
-1.011000
-0.041000
0.469000
-0.031000
-0.941000
0.849000
1.939000
1.019000
0.449000
0.139000
1.099000
2.179000
2.179000
2.419000
3.029000
4.189000
5.599000
7.219000
8.259000
7.449000
6.849000
6.439000
6.359000
6.309000
5.699000
5.309000
5.309000
5.709000
6.309000
5.229000
4.179000
3.769000
3.879000
4.529000
4.309000
3.859000
4.099000
3.279000
0.359000
-1.581000
-2.921000
-3.062000
-3.282000
-4.502000
-5.022000
-4.712000
-5.992000
-7.812000
-9.332000
-11.012000
-13.032000
-14.262000
-14.912000
-15.312000
-15.982000
-18.422000
-19.542000
-18.942000
-16.812000
-14.082000
-12.182000
-9.642000
-5.342000
-1.622000
1.628000
6.568000
11.508000
13.938000
14.638000
12.708000
9.408000
5.448000
2.368000
-0.522000
-2.962000
-4.282000
-4.582000
-5.132000
-5.612000
-4.692000
-4.122000
-4.122000
-5.062000
-6.522000
-7.252000
-7.382000
-5.492000
-3.662000
-1.902000
-0.482000
0.898000
3.188000
7.068000
13.818000
18.008000
20.888000
20.688000
19.988000
18.248000
16.788000
15.558000
11.788000
6.278000
-5.362000
-13.002000
-16.483000
-15.373000
-13.182000
-11.762000
-10.543000
-9.613000
-8.033000
-6.183000
-4.643000
-2.993000
-1.143000
2.577000
7.407000
9.847000
11.817000
12.847000
11.357000
7.737000
5.717000
3.787000
0.697000
-1.113000
-1.423000
-3.613000
-6.373000
-8.843000
-11.083000
-12.933000
-14.503000
-15.943000
-16.133000
-16.053000
-15.373000
-14.913000
-14.603000
-11.803000
-8.963000
-7.113000
-4.633000
-1.553000
1.037000
3.317000
4.247000
4.647000
4.347000
3.807000
3.157000
1.617000
0.157000
-1.133000
-2.873000
-4.843000
-6.823000
-7.983000
-6.743000
-4.653000
-1.873000
0.587000
3.167000
6.627000
9.617000
12.087000
13.106000
13.597000
12.667000
12.326000
12.877000
13.446000
14.026000
13.816000
13.576000
13.276000
12.216000
10.666000
9.406000
7.836000
5.056000
1.566000
-2.564000
-5.044000
-7.004000
-7.824000
-9.194000
-11.244000
-12.264000
-13.024000
-15.874000
-17.024000
-15.164000
-14.004000
-13.174000
-9.904000
-6.044000
-0.874000
3.786000
8.126000
7.896000
6.916000
4.746000
3.256000
2.326000
3.526000
4.966000
5.896000
6.086000
5.466000
6.326000
7.296000
6.056000
4.296000
1.826000
-2.744000
-7.924000
-9.824000
-10.714000
-9.804000
-9.424000
-9.294000
-10.304000
-11.064000
-11.144000
-12.374000
-14.354000
-15.654000
-16.044000
-13.564000
-9.734000
-4.774000
2.836000
10.785000
18.226000
23.885000
27.605000
29.115000
29.615000
26.415000
21.455000
14.015000
8.465000
3.735000
2.195000
0.535000
-1.325000
-3.595000
-6.075000
-7.645000
-8.925000
-9.545000
-8.785000
-7.105000
-8.205000
-8.985000
-7.735000
-6.165000
-4.305000
-2.125000
-0.215000
0.035000
0.605000
1.535000
2.955000
4.595000
7.075000
8.665000
8.975000
8.615000
7.935000
5.765000
3.495000
1.015000
0.995000
2.235000
1.965000
2.185000
3.735000
4.545000
4.865000
2.635000
0.565000
-0.045000
-1.495000
-3.665000
-4.175000
-4.455000
-5.185000
-5.125000
-4.195000
-4.475000
-5.045000
-5.175000
-5.915000
-7.645000
-7.955000
-7.645000
-7.335000
-6.706000
-5.346000
-6.326000
-8.796000
-10.246000
-10.896000
-9.046000
-7.526000
-6.286000
-2.746000
1.144000
4.294000
6.164000
6.414000
7.854000
9.724000
11.984000
13.124000
12.214000
8.774000
4.014000
0.574000
-2.066000
-2.686000
-3.126000
-3.436000
-2.926000
-2.596000
-3.526000
-3.086000
-1.236000
-1.346000
-1.976000
-2.716000
-3.556000
-4.546000
-4.256000
-3.446000
-1.906000
-0.066000
2.404000
4.294000
5.834000
7.954000
9.924000
11.284000
12.844000
14.564000
12.534000
9.894000
7.664000
6.234000
5.744000
5.054000
4.264000
2.784000
1.144000
-0.766000
-3.096000
-5.636000
-6.326000
-6.676000
-6.266000
-5.846000
-5.437000
-5.547000
-5.417000
-4.117000
-2.637000
-0.967000
0.243000
1.153000
0.533000
0.443000
1.053000
2.573000
4.463000
7.553000
9.383000
8.763000
6.953000
4.483000
2.013000
-0.217000
-1.757000
-2.957000
-3.887000
-2.947000
-1.817000
-1.197000
-0.577000
0.033000
0.653000
1.203000
1.083000
1.313000
2.053000
2.263000
2.283000
2.903000
3.943000
5.803000
6.653000
6.953000
4.263000
0.523000
-5.677000
-9.487000
-11.657000
-13.267000
-14.157000
-12.667000
-11.887000
-11.717000
-9.607000
-6.807000
-2.267000
2.243000
6.703000
8.803000
10.183000
11.113000
10.753000
8.483000
6.533000
4.733000
3.663000
2.393000
0.733000
-1.658000
-4.448000
-5.448000
-5.918000
-5.168000
-2.528000
1.432000
5.032000
8.042000
9.082000
10.222000
11.462000
12.182000
12.702000
12.702000
12.422000
11.802000
11.182000
10.472000
8.812000
6.752000
4.062000
0.492000
-3.438000
-7.568000
-11.148000
-13.628000
-13.898000
-12.968000
-12.338000
-11.718000
-11.098000
-9.568000
-7.408000
-5.508000
-3.458000
-0.668000
0.342000
-0.278000
-0.898000
-1.368000
-0.938000
-0.588000
-0.338000
2.582000
6.072000
7.072000
7.212000
6.052000
5.792000
5.882000
5.262000
3.922000
1.132000
-1.458000
-3.938000
-5.528000
-6.748000
-7.058000
-5.758000
-3.278000
-3.558000
-4.468000
-6.528000
-6.499000
-4.439000
-4.729000
-5.139000
-2.459000
0.211000
2.881000
5.531000
8.071000
8.011000
8.491000
10.031000
9.951000
8.961000
8.381000
7.731000
6.801000
6.741000
7.361000
9.311000
10.801000
9.011000
6.431000
2.971000
0.771000
-0.979000
-1.599000
-1.819000
-1.409000
-1.389000
-1.559000
0.911000
3.111000
4.721000
5.341000
5.341000
5.911000
5.981000
4.131000
3.731000
4.661000
5.581000
6.051000
3.581000
1.771000
0.781000
-1.129000
-3.319000
-5.049000
-6.159000
-6.159000
-5.509000
-4.519000
-3.049000
-1.749000
-0.919000
-2.109000
-4.789000
-5.379000
-5.859000
-7.089000
-8.469000
-10.019000
-10.129000
-9.929000
-10.180000
-9.570000
-7.720000
-6.040000
-4.430000
-2.640000
-1.130000
-0.200000
0.340000
0.650000
1.250000
2.080000
3.630000
4.340000
4.340000
2.250000
0.090000
-0.320000
-0.690000
-1.020000
-1.000000
-0.840000
-0.220000
0.620000
1.860000
3.100000
4.330000
5.570000
5.920000
4.070000
2.400000
0.860000
-0.900000
-2.890000
-5.710000
-6.600000
-5.500000
-5.880000
-6.640000
-6.940000
-6.120000
-3.300000
-1.760000
-0.900000
0.010000
0.300000
-1.470000
-2.510000
-2.870000
-4.180000
-5.560000
-5.620000
-5.590000
-5.430000
-4.250000
-2.620000
-0.990000
0.860000
3.310000
5.080000
6.300000
6.490000
6.530000
6.840000
6.620000
5.709000
4.569000
3.349000
2.739000
1.579000
-0.871000
-1.861000
-1.861000
-2.941000
-4.061000
-4.671000
-4.851000
-4.551000
-4.011000
-3.481000
-4.701000
-5.531000
-5.591000
-5.511000
-5.351000
-3.461000
-1.391000
0.819000
2.959000
5.039000
5.719000
5.809000
3.369000
0.759000
-2.111000
-4.871000
-7.561000
-9.081000
-10.591000
-12.221000
-12.331000
-11.111000
-9.881000
-8.471000
-5.611000
-3.421000
-2.191000
-0.541000
1.299000
2.229000
3.149000
4.069000
4.699000
5.109000
6.389000
7.429000
6.209000
5.919000
6.839000
5.529000
3.379000
0.729000
-2.361000
-6.441000
-10.131000
-13.551000
-15.962000
-17.572000
-16.142000
-14.231000
-11.781000
-7.232000
-2.042000
2.938000
7.008000
9.408000
11.248000
12.788000
12.408000
11.158000
7.548000
3.958000
0.378000
-3.032000
-6.072000
-6.992000
-8.452000
-10.602000
-9.282000
-6.722000
-5.002000
-3.442000
-2.212000
-1.242000
-0.422000
0.478000
1.208000
1.328000
0.918000
-0.012000
-0.422000
-0.712000
-0.832000
-0.472000
0.578000
1.098000
1.428000
3.888000
5.588000
5.588000
5.778000
6.088000
5.838000
5.478000
4.858000
4.248000
3.638000
3.508000
3.478000
3.108000
3.118000
3.688000
4.148000
4.558000
5.378000
5.728000
4.908000
3.318000
1.168000
-0.982000
-2.752000
-2.742000
-2.742000
-2.743000
-3.223000
-3.743000
-3.123000
-3.193000
-4.423000
-3.593000
-1.743000
0.687000
2.657000
3.277000
4.067000
4.987000
5.647000
6.317000
7.237000
8.157000
9.087000
8.527000
7.447000
5.727000
4.287000
3.367000
2.247000
1.017000
0.957000
0.097000
-3.403000
-6.763000
-10.023000
-12.353000
-14.333000
-15.253000
-15.903000
-16.213000
-16.293000
-16.233000
-14.263000
-12.373000
-10.653000
-7.543000
-3.603000
0.157000
3.827000
7.207000
9.467000
10.697000
12.267000
13.527000
11.887000
10.547000
9.627000
7.837000
5.697000
5.087000
4.287000
3.057000
2.017000
1.097000
0.177000
-0.563000
-0.563000
-1.323000
-2.863000
-2.683000
-2.154000
-2.454000
-2.164000
-0.934000
-0.764000
-1.064000
-0.154000
0.596000
0.896000
1.206000
1.516000
1.826000
1.916000
0.996000
1.396000
3.236000
3.366000
2.946000
1.886000
0.606000
-1.024000
-2.384000
-3.614000
-4.844000
-5.914000
-6.524000
-7.484000
-8.704000
-8.354000
-7.834000
-7.824000
-7.264000
-6.034000
-3.414000
-0.404000
1.436000
3.076000
4.306000
4.936000
5.246000
3.806000
1.756000
-1.934000
-6.124000
-10.724000
-11.984000
-12.804000
-14.954000
-15.994000
-15.584000
-13.964000
-11.844000
-7.544000
-2.834000
2.696000
7.456000
11.766000
11.806000
11.366000
10.446000
9.046000
7.196000
5.526000
4.056000
3.855000
3.355000
2.425000
1.515000
0.605000
1.845000
2.885000
3.495000
2.995000
1.775000
1.375000
0.685000
-1.585000
-2.825000
-3.005000
-4.005000
-5.175000
-5.785000
-5.735000
-4.505000
-5.275000
-7.105000
-6.345000
-5.545000
-5.135000
-4.675000
-4.155000
-2.315000
-0.365000
0.005000
0.815000
2.285000
2.745000
2.755000
2.755000
3.085000
4.315000
4.625000
4.225000
3.815000
3.185000
1.145000
-0.105000
-0.305000
-0.625000
-0.995000
-1.845000
-1.795000
0.345000
0.675000
-0.235000
-1.425000
-2.275000
-1.355000
-1.145000
-1.755000
-1.205000
-0.355000
-0.965000
-1.065000
-0.135000
0.395000
0.705000
3.255000
5.175000
3.895000
2.364000
0.594000
-1.466000
-3.536000
-4.756000
-5.526000
-5.526000
-5.356000
-5.106000
-5.326000
-5.216000
-3.986000
-2.436000
-0.596000
0.234000
0.544000
-1.496000
-1.876000
0.164000
1.214000
1.824000
2.744000
3.244000
2.634000
2.884000
3.804000
3.414000
2.764000
1.844000
1.304000
1.244000
0.614000
-0.226000
-0.226000
-0.036000
0.584000
1.934000
3.774000
4.514000
4.974000
4.734000
3.704000
1.814000
0.204000
-1.296000
-2.216000
-3.266000
-4.566000
-3.736000
-1.826000
-1.456000
-1.056000
-0.436000
0.534000
1.774000
1.374000
1.224000
3.074000
3.564000
2.644000
3.194000
3.874000
2.334000
1.293000
0.983000
0.193000
-0.777000
-1.017000
-1.107000
-0.857000
-0.527000
-0.157000
1.013000
1.523000
-0.327000
-0.667000
0.253000
1.183000
1.783000
0.553000
0.023000
0.333000
1.113000
2.103000
3.953000
4.893000
4.273000
3.863000
3.563000
2.953000
2.773000
3.703000
4.263000
4.573000
4.053000
3.883000
5.423000
5.873000
5.253000
5.143000
4.853000
2.383000
0.443000
-0.797000
-0.767000
-0.287000
-0.157000
0.343000
1.573000
3.213000
5.063000
6.103000
6.903000
7.143000
6.053000
3.893000
3.063000
2.193000
0.033000
-0.807000
-0.187000
-1.107000
-2.287000
-1.547000
-1.097000
-1.087000
0.053000
1.703000
1.293000
0.822000
0.202000
-0.598000
-1.528000
-2.448000
-2.988000
-2.168000
-1.228000
-0.198000
0.492000
0.942000
0.322000
0.522000
1.762000
1.432000
0.522000
-1.298000
-2.248000
-1.668000
-2.138000
-3.128000
-3.148000
-2.588000
-0.728000
-0.378000
-0.998000
-1.048000
-0.988000
-0.738000
-1.438000
-2.918000
-2.328000
-1.608000
-1.918000
-1.778000
-1.158000
0.452000
2.182000
2.802000
3.422000
4.042000
2.852000
0.982000
-1.188000
-2.918000
-3.838000
-6.218000
-9.318000
-9.988000
-10.148000
-9.218000
-8.288000
-7.358000
-4.998000
-2.658000
-0.798000
0.052000
0.052000
-0.118000
-0.258000
-0.048000
-0.088000
-0.398000
-0.708000
-0.989000
-0.989000
-0.989000
-0.989000
0.141000
1.621000
1.311000
1.111000
1.111000
0.901000
0.591000
-0.019000
-0.369000
-0.059000
-0.809000
-2.249000
-1.059000
-0.219000
-1.459000
-1.359000
-0.119000
0.591000
0.961000
0.031000
-0.599000
-0.909000
0.001000
1.181000
1.801000
2.081000
1.871000
2.861000
4.241000
3.931000
4.061000
4.991000
5.711000
6.331000
5.141000
4.011000
3.141000
1.461000
-0.769000
-0.409000
0.311000
1.341000
1.271000
0.241000
0.861000
1.301000
-0.859000
-0.849000
1.621000
1.221000
0.041000
-0.579000
-0.279000
1.561000
2.591000
3.201000
4.171000
4.471000
2.881000
2.011000
1.701000
-0.460000
-2.430000
-1.820000
-1.230000
-0.670000
-0.110000
0.460000
0.870000
1.670000
3.210000
2.360000
0.210000
-1.190000
-2.630000
-4.350000
-5.470000
-6.080000
-5.670000
-5.220000
-5.830000
-5.650000
-4.420000
-3.860000
-3.500000
-1.350000
1.310000
5.000000
5.600000
4.380000
5.990000
7.290000
6.670000
6.700000
7.310000
6.670000
5.750000
4.830000
4.540000
5.160000
4.170000
2.550000
2.960000
3.060000
2.440000
1.830000
1.210000
-0.330000
-1.430000
-0.410000
-0.200000
-0.820000
-1.270000
-1.600000
-1.200000
-1.190000
-1.810000
-1.790000
-1.480000
-2.090000
-2.440000
-2.140000
-1.650000
-1.040000
-0.970000
-1.011000
-1.261000
-0.981000
-0.121000
0.069000
0.109000
0.719000
0.959000
0.539000
0.519000
0.679000
-1.461000
-3.411000
-4.641000
-4.661000
-3.741000
-3.141000
-2.621000
-2.251000
-1.771000
-1.161000
-1.381000
-1.841000
-1.661000
-1.761000
-2.381000
-3.001000
-3.621000
-4.061000
-4.011000
-2.651000
-1.371000
-0.131000
0.549000
1.399000
3.249000
4.489000
5.109000
4.499000
3.539000
2.299000
0.439000
-2.341000
-3.851000
-4.831000
-5.391000
-6.461000
-8.621000
-8.851000
-7.931000
-7.001000
-5.571000
-2.491000
-0.181000
1.459000
2.929000
3.919000
2.369000
2.099000
3.329000
1.969000
-0.061000
-0.371000
-0.911000
-1.842000
-1.312000
-0.072000
0.548000
0.518000
-1.132000
-1.202000
-0.172000
-0.062000
0.308000
2.158000
3.068000
3.068000
2.858000
2.708000
3.258000
2.668000
0.498000
-0.982000
-2.182000
-2.182000
-1.892000
-1.032000
-0.352000
0.218000
1.228000
1.828000
1.218000
1.288000
1.898000
0.918000
-0.212000
-0.832000
-1.602000
-2.532000
-3.452000
-4.282000
-3.972000
-4.032000
-4.652000
-4.772000
-4.672000
-4.472000
-3.962000
-2.732000
-1.882000
-1.272000
0.468000
2.118000
3.038000
3.958000
4.878000
3.228000
1.488000
2.408000
2.098000
0.248000
0.228000
0.838000
1.448000
1.958000
2.258000
3.418000
4.958000
5.368000
5.507000
5.087000
4.737000
4.417000
2.547000
0.847000
-0.233000
-0.473000
-0.143000
-1.383000
-2.063000
-0.513000
-0.173000
-0.803000
-0.883000
-0.953000
-1.273000
-2.073000
-3.323000
-2.493000
-1.643000
-2.893000
-3.403000
-3.093000
-2.793000
-2.543000
-2.753000
-2.923000
-3.033000
-2.593000
-1.933000
-0.703000
-0.063000
-0.383000
1.067000
3.137000
1.887000
1.397000
2.327000
1.167000
-1.013000
-1.663000
-2.003000
-1.693000
-1.743000
-1.993000
-2.073000
-2.153000
-2.263000
-2.613000
-3.143000
-4.043000
-4.493000
-3.253000
-2.803000
-3.013000
-2.553000
-2.263000
-3.263000
-3.453000
-2.833000
-2.983000
-3.133000
-2.203000
-1.704000
-1.714000
-0.744000
0.456000
1.276000
2.966000
5.866000
6.856000
7.116000
6.546000
5.656000
4.246000
3.406000
2.806000
1.306000
-0.014000
-0.954000
-0.874000
-0.254000
-0.544000
-0.864000
-1.184000
-1.244000
-1.144000
0.206000
1.286000
1.286000
1.276000
1.276000
2.366000
3.356000
3.346000
2.386000
0.516000
-0.064000
-0.554000
-2.104000
-2.954000
-2.964000
-2.734000
-2.374000
-1.454000
-0.644000
-0.034000
1.306000
2.926000
2.826000
2.246000
0.686000
0.386000
0.796000
-0.464000
-1.154000
0.026000
0.616000
0.776000
2.346000
3.686000
3.366000
3.846000
5.086000
4.106000
2.876000
3.076000
2.496000
0.935000
1.035000
1.535000
0.605000
0.025000
0.025000
0.595000
1.405000
1.815000
2.225000
2.635000
1.925000
0.585000
1.385000
1.745000
0.505000
1.025000
2.885000
1.995000
1.245000
2.475000
3.705000
4.945000
4.145000
3.065000
3.065000
2.505000
1.265000
0.245000
-0.665000
-1.285000
-1.915000
-2.535000
-2.515000
-2.215000
-2.845000
-3.075000
-2.455000
-1.845000
-1.225000
-0.615000
-0.345000
-1.095000
-0.995000
-0.255000
-1.265000
-2.115000
-1.295000
-1.055000
-1.385000
-1.855000
-1.975000
0.495000
1.875000
1.875000
2.335000
2.965000
3.895000
4.235000
3.615000
2.985000
2.365000
1.635000
1.065000
0.855000
0.774000
0.764000
0.764000
0.534000
-0.396000
-0.486000
0.124000
-0.566000
-1.126000
0.414000
0.484000
-1.186000
-1.026000
-0.296000
0.314000
0.474000
-0.146000
0.074000
0.684000
1.304000
1.384000
0.154000
-0.716000
-1.336000
-2.226000
-3.036000
-3.336000
-3.646000
-3.956000
-3.266000
-2.446000
-2.446000
-1.926000
-0.696000
-0.806000
-1.406000
-1.406000
-1.476000
-1.686000
-0.826000
0.614000
-0.836000
-1.886000
-1.316000
-1.866000
-3.306000
-2.706000
-2.036000
-2.656000
-2.546000
-1.616000
-0.206000
1.074000
-0.466000
-0.456000
2.014000
2.344000
1.724000
1.724000
1.444000
0.514000
0.524000
1.144000
0.914000
0.354000
-1.087000
-1.657000
-1.457000
-1.117000
-0.867000
-1.447000
-2.227000
-3.257000
-1.677000
0.603000
-0.627000
-0.987000
0.243000
0.663000
0.663000
-0.527000
-0.927000
0.923000
1.353000
0.733000
1.203000
1.933000
3.173000
2.993000
1.343000
1.823000
2.633000
1.393000
0.663000
0.663000
0.223000
-0.377000
0.553000
0.583000
-1.267000
-1.377000
-0.457000
-0.007000
0.283000
0.183000
0.463000
1.083000
0.913000
0.933000
2.783000
3.223000
1.993000
2.013000
2.383000
2.213000
1.873000
1.213000
1.273000
1.683000
2.093000
2.003000
0.663000
0.303000
0.613000
1.473000
2.093000
1.473000
0.853000
0.233000
0.372000
0.532000
-0.398000
-0.798000
-0.488000
0.312000
1.252000
0.882000
0.572000
0.372000
0.822000
1.652000
2.082000
2.052000
0.712000
0.302000
0.612000
1.182000
1.592000
0.982000
0.512000
0.202000
-0.348000
-0.888000
-0.578000
-0.098000
0.642000
0.792000
0.662000
1.282000
1.942000
2.682000
3.272000
3.762000
3.242000
2.852000
3.222000
2.712000
1.422000
1.452000
1.642000
1.022000
-0.138000
-1.988000
-2.148000
-1.808000
-2.838000
-3.168000
-2.238000
-1.718000
-1.408000
-1.098000
-0.958000
-1.268000
-0.688000
0.552000
0.422000
0.062000
-0.558000
-1.018000
-1.328000
-0.898000
-0.298000
0.112000
0.692000
1.521000
1.101000
0.191000
0.501000
0.311000
-0.919000
-1.379000
-1.379000
-1.949000
-2.129000
-0.889000
0.181000
1.101000
2.031000
2.861000
3.171000
3.061000
2.441000
1.831000
1.131000
-0.719000
-1.649000
-1.039000
-1.299000
-1.969000
-2.229000
-2.219000
-1.609000
-1.899000
-2.829000
-2.089000
-1.559000
-2.589000
-2.259000
-0.609000
-1.299000
-2.239000
-1.009000
-0.289000
-0.289000
-0.289000
-0.309000
-0.929000
-1.439000
-1.749000
-1.459000
-0.839000
-1.099000
-1.569000
-2.489000
-2.379000
-1.449000
-1.589000
-1.949000
-2.569000
-2.739000
-2.429000
-2.939000
-3.609000
-3.489000
-3.409000
-3.409000
-2.979000
-2.359000
-2.980000
-3.310000
-3.000000
-2.690000
-2.390000
-0.330000
1.520000
2.010000
