EVENT_NAME: NONAME
EVENT_ID: IT-2014-0003
EVENT_DATE_YYYYMMDD: 20140120
EVENT_TIME_HHMMSS: 071240
EVENT_LATITUDE_DEGREE: 41.3620
EVENT_LONGITUDE_DEGREE: 14.4490
EVENT_DEPTH_KM: 11.1
HYPOCENTER_REFERENCE: ISIDe
MAGNITUDE_W: 
MAGNITUDE_W_REFERENCE: 
MAGNITUDE_L: 4.2
MAGNITUDE_L_REFERENCE: ISIDe
FOCAL_MECHANISM: 
NETWORK: IT
STATION_CODE: ARL
STATION_NAME: AIROLA
STATION_LATITUDE_DEGREE: 41.057068
STATION_LONGITUDE_DEGREE: 14.542928
STATION_ELEVATION_M: 504
LOCATION: 
VS30_M/S: 
SITE_CLASSIFICATION_EC8: B*
MORPHOLOGIC_CLASSIFICATION: 
EPICENTRAL_DISTANCE_KM: 34.8
EARTHQUAKE_BACKAZIMUTH_DEGREE: 346.9
DATE_TIME_FIRST_SAMPLE_YYYYMMDD_HHMMSS: 20140120_071230.000
DATE_TIME_FIRST_SAMPLE_PRECISION: milliseconds
SAMPLING_INTERVAL_S: 0.005000
NDATA: 8997
DURATION_S: 44.985000
STREAM: HGE
UNITS: cm/s^2
INSTRUMENT: sensor = Unknown [Unknown] | digitizer = Unknown [Unknown]
INSTRUMENT_ANALOG/DIGITAL: D
INSTRUMENTAL_FREQUENCY_HZ: 
INSTRUMENTAL_DAMPING: 
FULL_SCALE_G: 
N_BIT_DIGITAL_CONVERTER: 
PGA_CM/S^2: -1.137432
TIME_PGA_S: 23.360000
BASELINE_CORRECTION: BASELINE NOT REMOVED
FILTER_TYPE: 
FILTER_ORDER: 
LOW_CUT_FREQUENCY_HZ: 
HIGH_CUT_FREQUENCY_HZ: 
LATE/NORMAL_TRIGGERED: 
DATABASE_VERSION: ITACA 2.0
HEADER_FORMAT: DYNA 1.0
DATA_TYPE: ACCELERATION
PROCESSING: none
DATA_TIMESTAMP_YYYYMMDD_HHMMSS: 20140127_124152.174
USER1: MEAN REMOVED (-3.49498661012 cm/s^2)
USER2: 
USER3: 
USER4: 
[...]
-0.011443
-0.001148
0.003064
0.004235
-0.008869
0.001894
0.015233
-0.003721
-0.005125
-0.003019
0.009382
0.005171
-0.006061
0.001661
0.010319
0.005171
-0.011443
-0.000679
0.007042
0.000022
-0.004891
0.001193
0.013127
0.003064
-0.005593
0.005872
0.015934
0.006341
-0.008167
-0.003721
0.006809
-0.003487
-0.011443
-0.002785
0.006341
0.007978
-0.005359
-0.001849
0.006341
-0.003253
-0.005827
-0.003253
0.007978
0.001661
-0.011443
0.000490
0.013127
0.000022
-0.003955
0.017807
0.015701
0.017104
0.014297
0.001894
0.013361
0.011488
0.005404
0.011255
0.022720
0.018275
0.010552
0.022720
0.013594
0.002596
-0.018463
-0.034609
-0.026887
-0.036949
-0.042331
-0.041161
-0.031099
-0.023377
-0.015655
-0.001148
0.002129
-0.005125
-0.011209
0.007277
0.022954
0.031846
0.042610
0.040972
0.040270
0.028102
0.009851
0.010787
0.012191
0.001894
-0.013315
-0.012613
0.004936
0.010084
0.009616
0.021784
0.027634
0.015233
-0.002083
-0.009571
-0.007699
-0.027823
-0.050052
-0.062220
-0.080472
-0.089130
-0.088428
-0.067134
-0.036481
-0.031333
-0.034609
-0.021037
-0.003253
0.007277
0.028336
0.043780
0.048226
0.054544
0.052906
0.064840
0.080283
0.073029
0.051970
0.015701
-0.020803
-0.047011
-0.048181
-0.014017
0.014297
0.034186
0.051502
0.069285
0.090813
0.066712
0.032314
0.025294
0.007042
-0.019867
-0.030163
-0.015889
0.007510
0.017104
0.013127
0.003064
-0.022675
-0.054732
-0.081876
-0.102233
-0.100830
-0.095213
-0.093342
-0.044905
0.008681
0.023890
0.032548
0.032548
0.017339
-0.020335
-0.028291
-0.000446
0.027166
0.040504
0.028336
0.021784
0.004235
0.004235
0.018508
0.025528
0.032782
0.012191
-0.004657
-0.005359
0.026932
0.038164
0.024358
0.026698
0.018976
0.023188
-0.006295
-0.023377
-0.014251
-0.028057
-0.028291
-0.033907
-0.032737
-0.024079
0.004468
0.039100
0.044248
0.023890
-0.020335
-0.020803
-0.014017
-0.043501
-0.044671
-0.018697
0.027634
0.088941
0.151886
0.169436
0.125679
0.068115
0.015466
0.007277
0.018976
0.031144
0.061798
0.087771
0.083325
0.021550
-0.048181
-0.076026
-0.090066
-0.129377
-0.172900
-0.166582
-0.129611
-0.098490
-0.068070
-0.043969
-0.032503
-0.024079
-0.004657
0.030676
0.047290
0.044014
0.050800
0.077007
0.106023
0.080517
-0.005359
-0.093342
-0.147863
-0.166114
-0.125633
-0.037417
0.063436
0.142292
0.153524
0.126147
0.067180
-0.011209
-0.062220
-0.062922
-0.021271
0.012191
0.063202
0.119828
0.134804
0.103917
0.022486
-0.042799
-0.097553
-0.142247
-0.143183
-0.115338
-0.034375
0.032314
0.059224
0.034420
-0.047947
-0.113231
-0.164944
-0.147161
-0.089598
-0.047479
0.033016
0.117021
0.175052
0.187922
0.136442
0.062500
-0.016357
-0.098022
-0.122123
-0.084918
-0.005593
0.075603
0.066478
0.004703
-0.044203
-0.083046
-0.112062
-0.125867
-0.106211
-0.069708
-0.017527
0.078177
0.135506
0.122169
0.107661
0.095961
0.065308
0.003767
-0.031099
-0.009337
0.036994
0.074901
0.048460
-0.021037
-0.086790
-0.140609
-0.156287
-0.112062
-0.036481
0.023656
0.095259
0.168968
0.172946
0.104619
-0.007465
-0.104105
-0.157223
-0.191386
-0.184132
-0.148799
-0.086088
0.036994
0.128018
0.122637
0.044716
-0.067134
-0.117677
-0.089832
-0.033439
0.034888
0.105789
0.180199
0.243378
0.258588
0.203365
0.103917
0.006106
-0.076728
-0.135695
-0.171028
-0.176410
-0.152075
-0.116976
-0.048882
0.004235
0.003299
-0.028993
-0.056604
-0.045373
-0.021973
0.034420
0.099939
0.154226
0.186752
0.153524
0.094089
0.000257
-0.079770
-0.099426
-0.086790
-0.062922
-0.076728
-0.071580
-0.028993
0.020380
0.043546
0.013127
-0.000914
-0.001616
0.001661
-0.002551
-0.010741
0.025294
0.063202
0.094557
0.111873
0.070455
-0.030865
-0.112062
-0.117912
-0.115338
-0.128675
-0.184132
-0.220635
-0.187876
-0.151841
-0.105743
-0.058710
0.035122
0.159608
0.245953
0.291582
0.280350
0.236593
0.198919
0.163820
0.084729
-0.000211
-0.016591
0.041440
0.097833
0.121701
0.124508
0.095961
0.051034
-0.053328
-0.191854
-0.292706
-0.306746
-0.227187
-0.099191
0.025294
0.082857
0.103683
0.099939
0.078645
0.042376
-0.068304
-0.173134
-0.203788
-0.171496
-0.085854
0.020147
0.141824
0.216235
0.207811
0.123806
-0.006061
-0.116976
-0.228358
-0.302534
-0.307682
-0.280772
-0.186004
-0.041863
0.087771
0.178094
0.177392
0.092685
-0.004423
-0.102701
-0.189514
-0.206362
-0.142247
-0.028291
0.093621
0.199153
0.273096
0.292986
0.246420
0.129890
0.001193
-0.099659
-0.171496
-0.178048
-0.107147
-0.034141
0.008914
0.072795
0.134804
0.172244
0.176924
0.151652
0.120531
0.078411
0.041908
0.012892
-0.007699
-0.010975
-0.014485
-0.011911
-0.001381
-0.001849
-0.019165
-0.046543
-0.074856
-0.115571
-0.146225
-0.149501
-0.137567
-0.116040
-0.126335
-0.153479
-0.136397
-0.064092
0.005872
0.021317
0.021784
0.046120
0.081453
0.134336
0.201961
0.226297
0.213427
0.215299
0.218341
0.188623
0.120296
0.070455
0.084261
0.124274
0.136677
0.102045
0.068115
0.037462
-0.039991
-0.126569
-0.199108
-0.256905
-0.302534
-0.304874
-0.230464
-0.130313
-0.029695
0.072795
0.165458
0.217639
0.199387
0.125211
0.041206
-0.035779
-0.103872
-0.128207
-0.079068
-0.003253
0.059224
0.114446
0.140888
0.150716
0.119595
0.013127
-0.142715
-0.307214
-0.374605
-0.321020
-0.230464
-0.112062
0.005404
0.111873
0.225595
0.256482
0.172478
0.008681
-0.143651
-0.198874
-0.184600
-0.121655
-0.034375
0.059458
0.157736
0.232147
0.242910
0.148142
0.000725
-0.125633
-0.191386
-0.195598
-0.195832
-0.162605
-0.086556
0.013127
0.124041
0.168500
0.174116
0.184177
0.214129
0.263034
0.278244
0.250866
0.197749
0.148376
0.079347
-0.027355
-0.165646
-0.284282
-0.306980
-0.263925
-0.186940
-0.115338
-0.022207
0.096195
0.167330
0.210385
0.211789
0.151184
0.055948
-0.035311
-0.098255
-0.136865
-0.163073
-0.181090
-0.161435
-0.125399
-0.128909
-0.134759
-0.134993
-0.156989
-0.210574
-0.278433
-0.275391
-0.220870
-0.135929
0.010787
0.188858
0.334403
0.408814
0.418174
0.355228
0.244782
0.086133
-0.091002
-0.193960
-0.222507
-0.186706
-0.063624
0.103449
0.226999
0.262098
0.208045
0.091281
-0.032971
-0.155351
-0.211041
-0.154649
-0.073218
0.017104
0.085899
0.134336
0.157970
0.133868
0.089877
0.003532
-0.065964
-0.108083
-0.109488
-0.050988
0.014297
0.043078
0.012659
-0.004891
-0.036013
-0.067836
-0.037885
0.014998
0.069285
0.076539
0.057820
0.050332
0.021784
-0.026185
-0.076494
-0.127505
-0.156053
-0.199576
-0.247311
-0.223912
-0.155585
-0.051456
0.059458
0.191431
0.313109
0.316853
0.247824
0.122169
-0.041395
-0.178750
-0.269541
-0.294578
-0.247311
-0.154181
-0.025717
0.104853
0.167798
0.141356
0.042142
-0.022675
-0.046543
-0.079302
-0.083514
-0.071112
-0.021973
0.038398
0.094323
0.119595
0.031612
-0.120485
-0.262521
-0.311894
-0.251055
-0.148799
-0.000446
0.147440
0.248058
0.298134
0.272862
0.223723
0.141356
0.035824
-0.019633
-0.024781
0.030208
0.091515
0.134336
0.180199
0.174584
0.106257
-0.008167
-0.117444
-0.175942
-0.220167
-0.222274
-0.165880
-0.094044
-0.034609
-0.014485
-0.024547
-0.038353
-0.019399
0.063904
0.176690
0.252504
0.284094
0.277074
0.253908
0.215299
0.116786
-0.000446
-0.066432
-0.079068
-0.082110
-0.073686
-0.046777
-0.032503
-0.030865
-0.055902
-0.090534
-0.137099
-0.192088
-0.207298
-0.170794
-0.084918
-0.008401
0.058054
0.125912
0.138782
0.106959
0.049162
-0.001849
-0.038821
-0.103169
-0.149033
-0.139205
-0.094044
-0.021505
0.088941
0.189559
0.230743
0.237997
0.216703
0.209449
0.195643
0.142994
0.069519
0.016870
-0.000914
-0.056838
-0.105042
-0.127037
-0.129143
-0.124931
-0.139907
-0.158393
-0.202150
-0.253161
-0.310724
-0.305810
-0.229059
-0.150437
-0.056838
0.022954
0.063436
0.068817
0.045418
0.009616
-0.025951
-0.053094
-0.041161
0.029506
0.103917
0.159842
0.195877
0.184412
0.113511
-0.024781
-0.179452
-0.288026
-0.324062
-0.308618
-0.240759
-0.125399
-0.041629
-0.014485
-0.027355
-0.064326
-0.133355
-0.240291
-0.313532
-0.305342
-0.248481
-0.152777
-0.045841
0.049162
0.121934
0.154226
0.190495
0.218107
0.230743
0.262566
0.331595
0.419811
0.470355
0.442977
0.326213
0.208279
0.101577
-0.002785
-0.070410
-0.129611
-0.159563
-0.148799
-0.092874
-0.006997
0.063436
0.068349
0.003064
-0.059646
-0.100127
-0.110892
-0.077430
-0.024313
0.039802
0.076773
0.071859
0.092451
0.123573
0.168266
0.240336
0.307259
0.358973
0.344933
0.299772
0.257418
0.196111
0.099939
0.003299
-0.038119
-0.043501
-0.026653
-0.006529
0.025294
0.044014
0.018743
-0.027589
-0.115338
-0.228591
-0.331549
-0.385369
-0.368287
-0.320786
-0.258777
-0.185302
-0.104340
-0.021271
0.031612
0.052438
0.059926
0.025762
-0.035545
-0.061752
-0.036013
0.028336
0.078177
0.110469
0.125444
0.096195
0.059224
0.022486
-0.021973
-0.083514
-0.155117
-0.204724
-0.212914
-0.157223
-0.052392
0.074901
0.175052
0.216001
0.218341
0.192835
0.169202
0.118191
0.009616
-0.115806
-0.207532
-0.226485
-0.168922
-0.042799
0.078645
0.129189
0.110235
0.079815
0.067881
0.033250
-0.007933
-0.024313
0.009616
0.075837
0.112575
0.087069
0.000725
-0.122123
-0.244737
-0.331549
-0.392389
-0.439656
-0.463524
-0.415554
-0.290600
-0.176878
-0.097085
-0.021271
0.056416
0.123105
0.157034
0.178561
0.228637
0.296027
0.338381
0.336275
0.267246
0.166394
0.084495
0.036292
0.011020
-0.048414
-0.115103
-0.164477
-0.145289
-0.065964
-0.037183
-0.062454
-0.110892
-0.121421
-0.121421
-0.124463
-0.093576
-0.061518
-0.019867
0.030442
0.102747
0.165692
0.187922
0.190495
0.188623
0.201259
0.195877
0.203365
0.245250
0.260694
0.273096
0.292050
0.299772
0.288072
0.220447
0.144866
0.081921
0.008213
-0.055434
-0.084918
-0.093810
-0.092406
-0.070176
-0.045841
0.003767
0.031378
0.000022
-0.048181
-0.094044
-0.123527
-0.169156
-0.225549
-0.288494
-0.365479
-0.398004
-0.366181
-0.249885
-0.104808
0.000725
0.110001
0.160544
0.140186
0.060628
-0.076026
-0.190684
-0.288026
-0.324062
-0.276327
-0.163073
-0.019165
0.088707
0.180902
0.237529
0.257184
0.236593
0.193069
0.181135
0.140186
0.093153
0.055480
0.034420
0.020614
-0.061284
-0.153479
-0.236781
-0.286388
-0.279603
-0.224380
-0.087960
0.053140
0.124274
0.120063
0.058990
-0.028525
-0.103637
-0.152543
-0.155117
-0.093108
-0.009103
0.116085
0.270522
0.357335
0.325979
0.175988
-0.016357
-0.192790
-0.348866
-0.436380
-0.410640
-0.281006
-0.110892
0.052672
0.172712
0.223489
0.204535
0.145100
0.089175
0.005639
-0.090066
-0.148565
-0.116508
-0.021505
0.056884
0.154460
0.250632
0.300005
0.227233
0.049162
-0.112530
-0.218061
-0.224848
-0.191152
-0.170794
-0.185770
-0.222742
-0.235377
-0.271413
-0.333421
-0.415788
-0.454397
-0.386071
-0.285218
-0.220635
-0.189514
-0.150671
-0.106446
-0.098958
-0.145055
-0.203086
-0.229762
-0.211509
-0.106679
0.040972
0.144866
0.217639
0.274500
0.325979
0.346805
0.294156
0.227467
0.201259
0.244081
0.348443
0.449529
0.518324
0.543361
0.512006
0.430341
0.348443
0.243613
0.098769
-0.033673
-0.121187
-0.127037
-0.112062
-0.075792
-0.030631
-0.024313
-0.015187
-0.024079
-0.027823
-0.043033
-0.076260
-0.063858
-0.029461
0.027166
0.104385
0.211087
0.352889
0.459825
0.516218
0.550615
0.555997
0.520196
0.425427
0.289008
0.167564
0.040738
-0.067134
-0.123995
-0.143183
-0.129845
-0.127973
-0.117444
-0.114635
-0.180856
-0.327104
-0.524830
-0.717643
-0.865528
-0.947661
-0.997035
-1.013882
-0.973635
-0.883312
-0.732151
-0.532786
-0.332017
-0.153947
0.014062
0.159842
0.242676
0.238698
0.168734
0.078411
0.028570
0.050332
0.122169
0.272628
0.458889
0.626898
0.759808
0.802863
0.767998
0.629706
0.443445
0.307025
0.219979
0.196111
0.226297
0.311939
0.403900
0.462633
0.518558
0.526280
0.438297
0.250398
0.004000
-0.208234
-0.360799
-0.419532
-0.360097
-0.248013
-0.109020
0.036526
0.153992
0.214363
0.184645
0.047056
-0.141311
-0.326168
-0.501899
-0.655166
-0.769590
-0.759295
-0.623343
-0.413448
-0.195832
-0.060582
-0.012379
-0.052392
-0.107850
-0.150437
-0.201448
-0.231868
-0.218997
-0.117444
0.025762
0.169436
0.305621
0.436425
0.523940
0.477375
0.356164
0.208513
0.073263
-0.010975
-0.057306
-0.070410
-0.111125
-0.186706
-0.262287
-0.287792
-0.260181
-0.235143
-0.210574
-0.193726
-0.166114
-0.138035
-0.118145
-0.080706
-0.070176
-0.084918
-0.106914
-0.119549
-0.118613
-0.116741
-0.061986
0.044482
0.175052
0.333467
0.493988
0.616836
0.650765
0.588990
0.464505
0.303750
0.158438
0.054544
0.000725
0.033718
0.140186
0.303750
0.506390
0.656147
0.708095
0.675569
0.592735
0.493754
0.386818
0.274500
0.193771
0.172010
0.146270
0.088941
0.013829
-0.087258
-0.246375
-0.456971
-0.674354
-0.862954
-0.954447
-0.947895
-0.869740
-0.738937
-0.583329
-0.456971
-0.379519
-0.339973
-0.365947
-0.398706
-0.400344
-0.346292
-0.235377
-0.089130
0.097833
0.277542
0.435021
0.529321
0.573313
0.584077
0.535172
0.452571
0.343997
0.291348
0.305621
0.307025
0.313343
0.318959
0.290646
0.258120
0.266778
0.317087
0.338849
0.306557
0.222553
0.114914
-0.040459
-0.294344
-0.570928
-0.826919
-0.977379
-0.994694
-0.912561
-0.733321
-0.517108
-0.317276
-0.206362
-0.188110
-0.294344
-0.487859
-0.617727
-0.613047
-0.470777
-0.271413
-0.045841
0.167096
0.303983
0.357569
0.331595
0.266544
0.161948
0.058288
0.030910
0.106257
0.282690
0.486968
0.654743
0.740620
0.709733
0.559039
0.348209
0.200323
0.141122
0.167564
0.288540
0.456783
0.629706
0.751618
0.797481
0.742258
0.560443
0.323873
0.110703
-0.032269
-0.125867
-0.199108
-0.258309
-0.307682
-0.328742
-0.354715
-0.404088
-0.493241
-0.650720
-0.850319
-1.038452
-1.137432
-1.107481
-0.951873
-0.697286
-0.393325
-0.087024
0.158906
0.346337
0.450231
0.400390
0.258354
0.080049
-0.056136
-0.082344
-0.016591
0.151652
0.401560
0.671123
0.849428
0.900439
0.815031
0.604434
0.353825
0.099471
-0.088194
-0.235611
-0.350503
-0.374137
-0.342079
-0.250821
-0.179686
-0.182026
-0.236079
-0.365713
-0.507281
-0.590115
-0.591987
-0.508217
-0.373435
-0.192322
0.010319
0.183944
0.346805
0.455847
0.502880
0.530492
0.518090
0.508028
0.515516
0.541489
0.611454
0.707159
0.805203
0.863468
0.852236
0.764721
0.602562
0.357569
0.054544
-0.226485
-0.459078
-0.610707
-0.650720
-0.575374
-0.414150
-0.293174
-0.264627
-0.332720
-0.474755
-0.626619
-0.780822
-0.907414
-0.958893
-0.965913
-0.930111
-0.797904
-0.618896
-0.424680
-0.252927
-0.149267
-0.080472
-0.048414
-0.025015
0.025294
0.121934
0.237294
0.346805
0.471992
0.597882
0.711605
0.772443
0.793971
0.814329
0.809883
0.780633
0.752788
0.782271
0.854108
0.895525
0.846386
0.689843
0.454677
0.161948
-0.113466
-0.345122
-0.554548
-0.710155
-0.779418
-0.771696
-0.754614
-0.779886
-0.832301
-0.898288
-0.970125
-1.045003
-1.096482
-1.066297
-0.948129
-0.745956
-0.485519
-0.233272
-0.031333
0.118424
0.241039
0.332765
0.389626
0.417706
0.423321
0.427299
0.415132
0.376054
0.366694
0.391966
0.432915
0.493052
0.512942
0.486500
0.430107
0.336275
0.237762
0.165224
0.133400
0.142292
0.194473
0.300005
0.452571
0.603732
0.730558
0.791865
0.722602
0.534002
0.270756
0.007978
-0.209404
-0.366415
-0.433104
-0.429360
-0.398472
-0.380455
-0.412278
-0.461885
-0.519448
-0.601347
-0.633873
-0.592455
-0.477095
-0.313298
-0.158393
-0.041161
-0.010273
-0.033205
-0.038119
-0.012379
0.058054
0.181603
0.372544
0.642810
0.893419
1.061428
1.102612
0.982104
0.723538
0.350315
-0.015655
-0.308384
-0.492305
-0.515938
-0.416490
-0.235611
-0.058242
0.020380
0.011488
-0.112763
-0.359161
-0.623343
-0.804222
-0.817793
-0.698222
-0.481541
-0.207064
0.043312
0.237061
0.301644
0.255780
0.160544
0.020380
-0.100595
-0.159797
-0.116508
0.040036
0.237061
0.433149
0.559507
0.553423
0.436659
0.252270
0.084261
-0.043735
-0.131951
-0.137801
-0.099894
-0.073218
-0.109253
-0.218061
-0.383497
-0.602985
-0.830663
-0.992120
-1.031432
-0.946959
-0.727471
-0.386539
0.008681
0.367864
0.604902
0.699905
0.636258
0.440403
0.174584
-0.096384
-0.281240
-0.378115
-0.394729
-0.325934
-0.204724
-0.058242
0.058756
0.127784
0.174818
0.201259
0.194473
0.178561
0.194005
0.200557
0.205003
0.241507
0.252270
0.242910
0.212023
0.183475
0.232849
0.336977
0.468249
0.563017
0.577291
0.522068
0.409516
0.270522
0.104619
-0.084918
-0.306512
-0.496985
-0.582160
-0.586137
-0.514066
-0.369457
-0.156287
0.067648
0.255780
0.422151
0.519728
0.541255
0.502412
0.388924
0.227701
0.013594
-0.205660
-0.350035
-0.407130
-0.395665
-0.370861
-0.323828
-0.237483
-0.150905
-0.125633
-0.161201
-0.227187
-0.300662
-0.308618
-0.231400
-0.103637
-0.003253
0.055714
0.091983
0.070923
-0.000211
-0.113466
-0.192088
-0.159095
-0.043033
0.101811
0.239868
0.350783
0.403900
0.395710
0.330191
0.234487
0.101109
-0.047011
-0.120719
-0.107615
-0.025717
0.066478
0.140654
0.157268
0.085665
-0.040927
-0.180388
-0.274689
-0.332485
-0.322892
-0.240759
-0.144587
-0.069474
-0.049818
-0.051456
-0.071112
-0.108083
-0.095448
-0.031801
0.093621
0.280116
0.440637
0.557167
0.605136
0.513410
0.311939
0.057352
-0.186706
-0.364777
-0.465863
-0.452058
-0.326870
-0.150671
0.010552
0.127083
0.190027
0.183242
0.118424
0.053374
0.044950
0.078411
0.139718
0.226063
0.312407
0.363419
0.357569
0.336041
0.315449
0.277776
0.232615
0.183242
0.128253
0.072561
0.033484
0.030910
0.040270
0.023422
-0.008869
-0.027121
-0.039757
-0.087726
-0.180622
-0.282410
-0.330848
-0.333421
-0.332485
-0.301130
-0.274221
-0.260883
-0.234441
-0.193960
-0.120251
-0.066900
-0.033439
-0.022909
-0.058944
-0.107615
-0.180388
-0.206128
-0.156521
-0.108785
-0.080940
-0.076962
-0.066900
-0.065028
-0.088194
-0.116741
-0.149735
-0.139439
-0.091704
0.022486
0.190963
0.331127
0.430809
0.462165
0.437829
0.332765
0.156098
-0.011443
-0.156287
-0.248481
-0.291302
-0.273285
-0.194896
-0.100830
-0.015421
0.022018
0.031378
0.012191
-0.060348
-0.154415
-0.244971
-0.333889
-0.428892
-0.470543
-0.450186
-0.412278
-0.365479
-0.327806
-0.264159
-0.161201
-0.055200
0.043312
0.132464
0.170372
0.144632
0.120998
0.110937
0.126615
0.188155
0.300941
0.433851
0.512240
0.530024
0.508262
0.475737
0.440403
0.388924
0.317087
0.240336
0.184645
0.157034
0.196813
0.269586
0.278478
0.199621
0.050098
-0.113934
-0.274689
-0.420000
-0.510089
-0.553378
-0.549166
-0.511259
-0.448781
-0.349567
-0.268137
-0.248481
-0.269073
-0.315404
-0.373669
-0.425148
-0.417660
-0.329911
-0.200278
-0.042799
0.130358
0.320597
0.483458
0.590863
0.658253
0.694289
0.698501
0.674633
0.663869
0.679079
0.707392
0.707392
0.681653
0.594606
0.419811
0.218575
0.007510
-0.129611
-0.222742
-0.309320
-0.330379
-0.334826
-0.319616
-0.310256
-0.333188
-0.377647
-0.464226
-0.537934
-0.552442
-0.487625
-0.362203
-0.234207
-0.122825
-0.037651
-0.003019
-0.038353
-0.097788
-0.134525
-0.138269
-0.068538
0.072795
0.285732
0.510602
0.651936
0.698501
0.635556
0.489542
0.291348
0.104385
-0.021739
-0.107850
-0.128441
-0.089364
-0.049584
-0.046543
-0.105510
-0.226954
-0.376477
-0.538402
-0.665930
-0.712729
-0.617961
-0.408768
-0.187876
0.045886
0.232849
0.330425
0.357335
0.343061
0.320831
0.292986
0.305387
0.353357
0.412558
0.443679
0.387988
0.293220
0.200557
0.088473
-0.029695
-0.112998
-0.146693
-0.122357
-0.054498
0.021550
0.096195
0.113511
0.029974
-0.114402
-0.280305
-0.461417
-0.596667
-0.627087
-0.570928
-0.463056
-0.376945
-0.329210
-0.310724
-0.356587
-0.467735
