EVENT_NAME: NONAME
EVENT_ID: IT-2014-0003
EVENT_DATE_YYYYMMDD: 20140120
EVENT_TIME_HHMMSS: 071240
EVENT_LATITUDE_DEGREE: 41.3620
EVENT_LONGITUDE_DEGREE: 14.4490
EVENT_DEPTH_KM: 11.1
HYPOCENTER_REFERENCE: ISIDe
MAGNITUDE_W: 
MAGNITUDE_W_REFERENCE: 
MAGNITUDE_L: 4.2
MAGNITUDE_L_REFERENCE: ISIDe
FOCAL_MECHANISM: 
NETWORK: IT
STATION_CODE: ARL
STATION_NAME: AIROLA
STATION_LATITUDE_DEGREE: 41.057068
STATION_LONGITUDE_DEGREE: 14.542928
STATION_ELEVATION_M: 504
LOCATION: 
VS30_M/S: 
SITE_CLASSIFICATION_EC8: B*
MORPHOLOGIC_CLASSIFICATION: 
EPICENTRAL_DISTANCE_KM: 34.8
EARTHQUAKE_BACKAZIMUTH_DEGREE: 346.9
DATE_TIME_FIRST_SAMPLE_YYYYMMDD_HHMMSS: 20140120_071230.000
DATE_TIME_FIRST_SAMPLE_PRECISION: milliseconds
SAMPLING_INTERVAL_S: 0.005000
NDATA: 105
DURATION_S: 44.980000
STREAM: HGE
UNITS: cm
INSTRUMENT: sensor = Unknown [Unknown] | digitizer = Unknown [Unknown]
INSTRUMENT_ANALOG/DIGITAL: D
INSTRUMENTAL_FREQUENCY_HZ: 
INSTRUMENTAL_DAMPING: 
FULL_SCALE_G: 
N_BIT_DIGITAL_CONVERTER: 
PGD_CM: 0.003511
TIME_PGD_S: 26.925000
BASELINE_CORRECTION: BASELINE REMOVED
FILTER_TYPE: BUTTERWORTH
FILTER_ORDER: 2
LOW_CUT_FREQUENCY_HZ: 0.150
HIGH_CUT_FREQUENCY_HZ: 40.000
LATE/NORMAL_TRIGGERED: NT
DATABASE_VERSION: ITACA 2.0
HEADER_FORMAT: DYNA 1.0
DATA_TYPE: DISPLACEMENT RESPONSE SPECTRUM
PROCESSING: manual (Paolucci et al., 2011)
DATA_TIMESTAMP_YYYYMMDD_HHMMSS: 20140128_230134.743
USER1: /home/dyna/processing-itaca/processing.py /var/www/processing/tmp/Lucia//IT.ARL..HGE.D.20140120.071240.X.ACC.ASC /var/www/processing/tmp/Lucia//IT.ARL..HGN.D.20140120.071240.X.ACC.ASC /var/www/processing/tmp/Lucia//IT.ARL..HGZ.D.20140120.071240.X.ACC.ASC --tmp /var/www/processing/tmp/Lucia/ --le 0.150 --he 40.000 --ln 0.150 --hn 40.000 --lz 0.150 --hz 40.000 --fo 2 --ca 0 --cz 0 --ta 5 --tz 5 --mf 1 --tr NT
USER2: 
USER3: 
USER4: 
    0.010000     0.000003
    0.020000     0.000012
    0.022000     0.000015
    0.025000     0.000020
    0.029000     0.000028
    0.030000     0.000032
    0.032000     0.000037
    0.035001     0.000042
    0.036000     0.000046
    0.040000     0.000060
    0.041999     0.000074
    0.044001     0.000088
    0.045000     0.000098
    0.046000     0.000110
    0.048001     0.000135
    0.050000     0.000171
    0.054999     0.000279
    0.059999     0.000306
    0.064998     0.000323
    0.067002     0.000298
    0.069999     0.000317
    0.075002     0.000454
    0.080000     0.000465
    0.084998     0.000424
    0.090001     0.000453
    0.095003     0.000468
    0.100000     0.000480
    0.109999     0.000716
    0.120005     0.000885
    0.130005     0.001304
    0.132996     0.001394
    0.139997     0.001452
    0.149993     0.001865
    0.160000     0.002364
    0.170010     0.002674
    0.179986     0.003527
    0.190006     0.004524
    0.200000     0.005651
    0.220022     0.005057
    0.239981     0.004477
    0.250000     0.004746
    0.260010     0.004995
    0.280034     0.005522
    0.290023     0.005392
    0.300030     0.005127
    0.320000     0.004286
    0.340020     0.005539
    0.350017     0.006002
    0.359971     0.005922
    0.379939     0.005483
    0.400000     0.005203
    0.419992     0.004892
    0.439947     0.005613
    0.450045     0.005463
    0.459982     0.005361
    0.480077     0.004995
    0.500000     0.004708
    0.550055     0.003895
    0.599880     0.005232
    0.650195     0.006194
    0.667111     0.005752
    0.699790     0.006080
    0.750188     0.007857
    0.800000     0.009108
    0.850340     0.007300
    0.900090     0.005491
    0.949668     0.004752
    1.000000     0.005419
    1.100110     0.004882
    1.200480     0.005061
    1.300390     0.006471
    1.400560     0.005350
    1.499250     0.004111
    1.600000     0.004487
    1.700680     0.005958
    1.798561     0.006581
    1.901141     0.005418
    2.000000     0.005115
    2.197802     0.006910
    2.398082     0.008324
    2.500000     0.007809
    2.597403     0.006846
    2.801121     0.006230
    3.003003     0.007241
    3.205128     0.006840
    3.401361     0.006346
    3.496503     0.006160
    3.597122     0.006156
    3.802281     0.005305
    4.000000     0.004699
    4.201681     0.004506
    4.405286     0.004507
    4.608295     0.004483
    4.807692     0.005162
    5.000000     0.005276
    5.494505     0.004856
    5.988024     0.004986
    6.493506     0.005913
    6.993007     0.005911
    7.518797     0.005866
    8.000000     0.006017
    8.474576     0.005951
    9.009009     0.005791
    9.523809     0.005586
   10.000000     0.005344
