EVENT_NAME: NONAME
EVENT_ID: IT-2014-0003
EVENT_DATE_YYYYMMDD: 20140120
EVENT_TIME_HHMMSS: 071240
EVENT_LATITUDE_DEGREE: 41.3620
EVENT_LONGITUDE_DEGREE: 14.4490
EVENT_DEPTH_KM: 11.1
HYPOCENTER_REFERENCE: ISIDe
MAGNITUDE_W: 
MAGNITUDE_W_REFERENCE: 
MAGNITUDE_L: 4.2
MAGNITUDE_L_REFERENCE: ISIDe
FOCAL_MECHANISM: 
NETWORK: IT
STATION_CODE: ARL
STATION_NAME: AIROLA
STATION_LATITUDE_DEGREE: 41.057068
STATION_LONGITUDE_DEGREE: 14.542928
STATION_ELEVATION_M: 504
LOCATION: 
VS30_M/S: 
SITE_CLASSIFICATION_EC8: B*
MORPHOLOGIC_CLASSIFICATION: 
EPICENTRAL_DISTANCE_KM: 34.8
EARTHQUAKE_BACKAZIMUTH_DEGREE: 346.9
DATE_TIME_FIRST_SAMPLE_YYYYMMDD_HHMMSS: 20140120_071230.000
DATE_TIME_FIRST_SAMPLE_PRECISION: milliseconds
SAMPLING_INTERVAL_S: 0.005000
NDATA: 8997
DURATION_S: 44.980000
STREAM: HGE
UNITS: cm/s^2
INSTRUMENT: sensor = Unknown [Unknown] | digitizer = Unknown [Unknown]
INSTRUMENT_ANALOG/DIGITAL: D
INSTRUMENTAL_FREQUENCY_HZ: 
INSTRUMENTAL_DAMPING: 
FULL_SCALE_G: 
N_BIT_DIGITAL_CONVERTER: 
PGA_CM/S^2: -1.127591
TIME_PGA_S: 23.360000
BASELINE_CORRECTION: BASELINE REMOVED
FILTER_TYPE: BUTTERWORTH
FILTER_ORDER: 2
LOW_CUT_FREQUENCY_HZ: 0.150
HIGH_CUT_FREQUENCY_HZ: 40.000
LATE/NORMAL_TRIGGERED: NT
DATABASE_VERSION: ITACA 2.0
HEADER_FORMAT: DYNA 1.0
DATA_TYPE: ACCELERATION
PROCESSING: manual (Paolucci et al., 2011)
DATA_TIMESTAMP_YYYYMMDD_HHMMSS: 20140128_230134.743
USER1: /home/dyna/processing-itaca/processing.py /var/www/processing/tmp/Lucia//IT.ARL..HGE.D.20140120.071240.X.ACC.ASC /var/www/processing/tmp/Lucia//IT.ARL..HGN.D.20140120.071240.X.ACC.ASC /var/www/processing/tmp/Lucia//IT.ARL..HGZ.D.20140120.071240.X.ACC.ASC --tmp /var/www/processing/tmp/Lucia/ --le 0.150 --he 40.000 --ln 0.150 --hn 40.000 --lz 0.150 --hz 40.000 --fo 2 --ca 0 --cz 0 --ta 5 --tz 5 --mf 1 --tr NT
USER2: 
USER3: 
USER4: 
[...]
-0.001274
-0.003444
-0.005237
-0.002101
0.002783
0.003557
0.001121
0.000015
-0.000139
-0.001786
-0.002747
-0.000578
0.001317
-0.000512
-0.002186
0.000415
0.003318
0.003224
0.004881
0.010949
0.016258
0.016252
0.012394
0.009248
0.008750
0.009009
0.009915
0.013246
0.016971
0.018147
0.018247
0.017928
0.012731
-0.000174
-0.016148
-0.027750
-0.033534
-0.037474
-0.040426
-0.039262
-0.032919
-0.023211
-0.012368
-0.003911
-0.001878
-0.004617
-0.003838
0.005719
0.020345
0.033383
0.041276
0.042742
0.037206
0.026596
0.016645
0.011272
0.006961
-0.000755
-0.008128
-0.007971
-0.000577
0.008064
0.015542
0.021605
0.022206
0.014456
0.003100
-0.005915
-0.014494
-0.027995
-0.046237
-0.065051
-0.080738
-0.088482
-0.082849
-0.064889
-0.045238
-0.033715
-0.028115
-0.019989
-0.006312
0.010661
0.027757
0.041252
0.048831
0.052666
0.058200
0.067944
0.075942
0.071684
0.049952
0.015125
-0.020790
-0.042733
-0.040836
-0.018759
0.009729
0.034814
0.056199
0.073417
0.078547
0.066200
0.043906
0.021661
0.000810
-0.017084
-0.023569
-0.014140
0.003208
0.015417
0.015046
0.001225
-0.023586
-0.053687
-0.080823
-0.098365
-0.104810
-0.100136
-0.079971
-0.043170
-0.002424
0.025876
0.036110
0.029437
0.009085
-0.012782
-0.018094
-0.001598
0.022233
0.035223
0.031850
0.019241
0.008695
0.008261
0.017205
0.026064
0.024590
0.012242
0.001336
0.004653
0.019195
0.030356
0.031422
0.027600
0.022463
0.012721
-0.002026
-0.014808
-0.021464
-0.025501
-0.030285
-0.034328
-0.032211
-0.017641
0.008544
0.032689
0.037425
0.019958
-0.003812
-0.019365
-0.029428
-0.039263
-0.039674
-0.016881
0.031828
0.094164
0.144782
0.157372
0.125876
0.071663
0.026068
0.007226
0.014007
0.037250
0.066167
0.083130
0.068788
0.022759
-0.031298
-0.072361
-0.103632
-0.135422
-0.159878
-0.160110
-0.135000
-0.099594
-0.068233
-0.046749
-0.033044
-0.019027
0.001651
0.024556
0.039770
0.048021
0.061714
0.084124
0.094905
0.066815
-0.002962
-0.086363
-0.147086
-0.160485
-0.119032
-0.034883
0.061040
0.131765
0.153532
0.125047
0.062637
-0.006434
-0.052297
-0.058578
-0.030651
0.016691
0.070811
0.115271
0.127735
0.096244
0.032059
-0.040448
-0.101687
-0.139101
-0.141290
-0.102734
-0.035903
0.027297
0.052477
0.024647
-0.041882
-0.112044
-0.151225
-0.145154
-0.102846
-0.038827
0.038555
0.116410
0.170722
0.179632
0.139053
0.063537
-0.022851
-0.090897
-0.111703
-0.074665
-0.003549
0.052852
0.057977
0.016919
-0.038570
-0.084539
-0.113448
-0.122549
-0.108214
-0.067299
-0.002057
0.069534
0.118193
0.130607
0.118103
0.091949
0.052267
0.007732
-0.016176
-0.001851
0.036270
0.060406
0.041926
-0.016122
-0.086172
-0.136760
-0.146224
-0.111263
-0.046484
0.030663
0.106689
0.159696
0.160552
0.099544
0.001383
-0.093948
-0.160090
-0.191008
-0.187530
-0.146248
-0.064978
0.036337
0.109053
0.109358
0.039713
-0.049743
-0.101456
-0.092784
-0.039581
0.033116
0.111460
0.186431
0.239985
0.247821
0.199372
0.110310
0.010833
-0.074923
-0.136162
-0.169878
-0.175297
-0.152732
-0.105911
-0.049106
-0.008310
-0.002689
-0.024703
-0.047149
-0.047116
-0.017537
0.036436
0.101138
0.155817
0.177910
0.153544
0.087054
0.002754
-0.064798
-0.093272
-0.089913
-0.079345
-0.072546
-0.057441
-0.024241
0.012732
0.029588
0.022028
0.007171
-0.001125
-0.004447
-0.006151
0.001112
0.026420
0.065483
0.098935
0.100483
0.054367
-0.022507
-0.087727
-0.116370
-0.125234
-0.144913
-0.178664
-0.200820
-0.192105
-0.158668
-0.111545
-0.045942
0.046460
0.152909
0.240934
0.284105
0.280646
0.248842
0.204734
0.147387
0.076398
0.016474
0.001774
0.035918
0.087112
0.122136
0.128298
0.103117
0.039540
-0.065513
-0.188546
-0.279214
-0.292526
-0.221849
-0.103329
0.009576
0.081343
0.109556
0.108197
0.081631
0.021041
-0.070069
-0.157198
-0.196728
-0.169703
-0.086146
0.028605
0.139541
0.206156
0.200039
0.123261
0.004951
-0.120396
-0.226861
-0.295584
-0.313230
-0.272748
-0.175794
-0.042256
0.086966
0.165898
0.168053
0.101163
-0.002749
-0.108077
-0.181588
-0.194725
-0.138493
-0.031795
0.091788
0.201438
0.273326
0.288248
0.237206
0.132563
0.007162
-0.101291
-0.162880
-0.163473
-0.114890
-0.047529
0.017806
0.078897
0.133089
0.168286
0.174953
0.155575
0.120552
0.080428
0.043077
0.013875
-0.004549
-0.012714
-0.012934
-0.007830
-0.002298
-0.003979
-0.018069
-0.044264
-0.078909
-0.114656
-0.139469
-0.144408
-0.134705
-0.128105
-0.135094
-0.140733
-0.118468
-0.065900
-0.011835
0.018595
0.031142
0.049051
0.086928
0.140592
0.190680
0.218953
0.226188
0.223846
0.210403
0.174867
0.124639
0.090077
0.091558
0.113978
0.125269
0.111040
0.077103
0.027177
-0.040725
-0.120494
-0.198582
-0.262845
-0.299253
-0.290539
-0.231162
-0.136066
-0.027021
0.079377
0.165475
0.208476
0.194187
0.131173
0.044423
-0.040310
-0.099833
-0.113691
-0.077459
-0.010689
0.058919
0.114455
0.149326
0.153840
0.108932
0.001453
-0.149565
-0.287691
-0.353005
-0.326722
-0.235552
-0.116535
0.009271
0.130081
0.220011
0.236813
0.158031
0.015318
-0.120592
-0.191770
-0.186195
-0.125489
-0.035430
0.066919
0.164746
0.228859
0.224516
0.140880
0.010615
-0.110173
-0.183564
-0.207892
-0.197057
-0.154877
-0.078832
0.019078
0.107843
0.160654
0.180776
0.195364
0.223439
0.256267
0.269792
0.251751
0.209646
0.151771
0.071562
-0.039457
-0.165443
-0.263963
-0.298301
-0.267580
-0.197631
-0.109637
-0.010838
0.088786
0.169409
0.211806
0.204408
0.147942
0.061146
-0.026822
-0.095212
-0.140254
-0.165455
-0.170526
-0.156984
-0.137469
-0.125874
-0.125063
-0.136137
-0.167029
-0.217143
-0.262642
-0.271321
-0.226116
-0.125766
0.020429
0.185178
0.326253
0.408539
0.418283
0.357936
0.237875
0.079689
-0.077506
-0.188608
-0.223610
-0.173741
-0.052518
0.097522
0.215525
0.254943
0.206686
0.095223
-0.038085
-0.146266
-0.189438
-0.157650
-0.077461
0.012899
0.088230
0.137644
0.155067
0.136041
0.082296
0.007437
-0.063443
-0.103125
-0.095681
-0.048958
0.004853
0.032036
0.023332
-0.007525
-0.039978
-0.052496
-0.031110
0.014904
0.057328
0.075182
0.069451
0.049687
0.018314
-0.024669
-0.073127
-0.119858
-0.164711
-0.207378
-0.232860
-0.218466
-0.155951
-0.054456
0.071727
0.200770
0.294229
0.313494
0.248151
0.119300
-0.035251
-0.174377
-0.265083
-0.289655
-0.246231
-0.146754
-0.017913
0.097075
0.152262
0.130728
0.061206
-0.008984
-0.055143
-0.078926
-0.083642
-0.064371
-0.017787
0.046352
0.099055
0.098254
0.018149
-0.117857
-0.243402
-0.295943
-0.256017
-0.144621
0.001279
0.142868
0.246352
0.292345
0.280122
0.221302
0.133808
0.045127
-0.011176
-0.015122
0.026006
0.087353
0.144769
0.177778
0.165741
0.099879
-0.002019
-0.104979
-0.181276
-0.218370
-0.210808
-0.162641
-0.095748
-0.041464
-0.020022
-0.026368
-0.031827
-0.002858
0.071452
0.167056
0.245233
0.284262
0.286660
0.259752
0.200892
0.111101
0.014578
-0.054784
-0.084015
-0.083665
-0.067969
-0.047224
-0.032090
-0.032470
-0.052935
-0.092261
-0.142769
-0.186140
-0.197344
-0.162642
-0.092005
-0.008664
0.067314
0.119406
0.133160
0.107497
0.058721
0.004384
-0.050428
-0.103025
-0.138442
-0.137647
-0.093092
-0.010757
0.089970
0.177946
0.227913
0.239140
0.229884
0.213556
0.185654
0.138444
0.080675
0.028920
-0.014636
-0.057699
-0.097125
-0.121182
-0.127780
-0.128100
-0.136037
-0.160878
-0.205280
-0.259615
-0.297803
-0.291630
-0.235266
-0.147869
-0.055561
0.019509
0.062363
0.069310
0.047518
0.009732
-0.028232
-0.046620
-0.027994
0.027837
0.100600
0.164361
0.197524
0.180951
0.102666
-0.026788
-0.169161
-0.277919
-0.324253
-0.303571
-0.229349
-0.132067
-0.051186
-0.012775
-0.019938
-0.066674
-0.145560
-0.235198
-0.297421
-0.301824
-0.246630
-0.152582
-0.046786
0.047438
0.117022
0.162376
0.191439
0.211640
0.233640
0.274725
0.343104
0.418500
0.458074
0.429176
0.337262
0.217168
0.101043
0.002905
-0.074755
-0.130353
-0.156100
-0.140700
-0.083229
-0.005745
0.051366
0.055920
0.010386
-0.052330
-0.096972
-0.104650
-0.074406
-0.020464
0.033157
0.066941
0.081681
0.095332
0.124714
0.175934
0.243403
0.308578
0.346901
0.345685
0.312332
0.258460
0.185619
0.097999
0.016983
-0.032537
-0.044093
-0.028769
-0.000702
0.027160
0.039737
0.022863
-0.031176
-0.120536
-0.228427
-0.322949
-0.373079
-0.369180
-0.324742
-0.258543
-0.181334
-0.099736
-0.024504
0.031259
0.058624
0.053139
0.017726
-0.027181
-0.048897
-0.028727
0.022306
0.076779
0.112333
0.119353
0.100347
0.066128
0.024790
-0.025440
-0.087863
-0.154002
-0.201394
-0.204428
-0.149752
-0.047264
0.070686
0.165380
0.214612
0.222488
0.205784
0.170431
0.105282
0.003965
-0.111897
-0.198383
-0.216217
-0.155047
-0.043784
0.062089
0.117730
0.119635
0.094256
0.061855
0.026155
-0.004993
-0.010906
0.020838
0.072573
0.103757
0.080723
-0.000881
-0.117016
-0.233781
-0.329207
-0.399944
-0.445174
-0.450013
-0.397986
-0.299421
-0.189350
-0.093395
-0.012451
0.058300
0.114577
0.154254
0.190366
0.239034
0.296043
0.334221
0.325179
0.264064
0.176240
0.097308
0.042581
-0.002144
-0.056443
-0.114499
-0.145174
-0.127359
-0.081416
-0.052685
-0.063156
-0.094728
-0.119370
-0.126361
-0.117530
-0.095499
-0.062243
-0.017698
0.039609
0.103518
0.157134
0.186762
0.195138
0.194906
0.194882
0.199773
0.214274
0.237031
0.260195
0.280028
0.296013
0.299784
0.277245
0.224430
0.153140
0.077934
0.007873
-0.048362
-0.083122
-0.095944
-0.090756
-0.069478
-0.034359
0.002311
0.018185
0.000273
-0.040904
-0.085353
-0.125731
-0.169751
-0.227089
-0.297238
-0.362178
-0.389146
-0.350955
-0.249857
-0.117285
0.010880
0.108929
0.155937
0.136879
0.054298
-0.067681
-0.192714
-0.284494
-0.313845
-0.268063
-0.161516
-0.030145
0.090877
0.182299
0.236705
0.252473
0.237421
0.207740
0.174110
0.136512
0.097327
0.065521
0.040470
0.003533
-0.062518
-0.150763
-0.234213
-0.283848
-0.277630
-0.205875
-0.084504
0.039895
0.115157
0.117821
0.060723
-0.023763
-0.102183
-0.149047
-0.149347
-0.098879
-0.000691
0.133005
0.266335
0.340820
0.311303
0.180762
-0.006273
-0.197268
-0.348865
-0.423661
-0.397977
-0.280803
-0.114079
0.049192
0.166555
0.217626
0.207492
0.156980
0.083160
-0.004738
-0.087247
-0.129729
-0.109558
-0.037088
0.061953
0.167823
0.254743
0.278608
0.206340
0.057790
-0.098872
-0.198171
-0.221927
-0.201386
-0.182097
-0.186126
-0.207069
-0.236391
-0.281037
-0.346164
-0.408978
-0.427222
-0.382448
-0.302885
-0.230554
-0.179123
-0.139093
-0.110948
-0.111632
-0.148267
-0.199532
-0.225921
-0.194065
-0.100023
0.024281
0.137563
0.222894
0.285805
0.326067
0.328687
0.288975
0.235381
0.214646
0.254668
0.344057
0.444087
0.516081
0.538493
0.509635
0.442167
0.348374
0.230963
0.097051
-0.026631
-0.106930
-0.130956
-0.112048
-0.074554
-0.040151
-0.020523
-0.015326
-0.019603
-0.031837
-0.050666
-0.065951
-0.062338
-0.032094
0.024876
0.109974
0.222106
0.344790
0.450238
0.521000
0.556282
0.555840
0.511810
0.421356
0.298037
0.164055
0.038937
-0.060194
-0.120400
-0.141800
-0.137291
-0.121490
-0.108469
-0.122197
-0.193386
-0.334171
-0.521167
-0.708362
-0.856607
-0.952838
-1.003230
-1.012122
-0.973105
-0.877417
-0.726434
-0.538100
-0.339180
-0.149072
0.021837
0.157319
0.231810
0.229993
0.167034
0.086263
0.036080
0.047835
0.131007
0.276148
0.455299
0.628189
0.754184
0.801054
0.753140
0.623579
0.457880
0.311778
0.221502
0.197410
0.232783
0.307768
0.395350
0.473403
0.523205
0.516551
0.423650
0.242431
0.012295
-0.204982
-0.354768
-0.407145
-0.363759
-0.252196
-0.107622
0.038505
0.154741
0.207069
0.170330
0.047012
-0.130715
-0.324559
-0.509831
-0.665741
-0.756869
-0.743268
-0.615596
-0.414188
-0.211162
-0.071692
-0.021897
-0.043598
-0.098298
-0.157466
-0.207231
-0.230691
-0.203916
-0.116261
0.016595
0.167931
0.317087
0.440390
0.500585
0.469463
0.358375
0.212858
0.081885
-0.005926
-0.051502
-0.081026
-0.124925
-0.189517
-0.250022
-0.277289
-0.267618
-0.240451
-0.213597
-0.190419
-0.166769
-0.139925
-0.110889
-0.086257
-0.076445
-0.084996
-0.103548
-0.120519
-0.126916
-0.110816
-0.057147
0.041167
0.178326
0.338691
0.494676
0.607074
0.640992
0.586366
0.462815
0.307688
0.160172
0.051698
0.005291
0.035883
0.145197
0.314171
0.498461
0.640435
0.700387
0.677503
0.598627
0.492667
0.379832
0.278896
0.207834
0.167526
0.136713
0.091514
0.018246
-0.094358
-0.256361
-0.461216
-0.676070
-0.851978
-0.947577
-0.948739
-0.868829
-0.736918
-0.589371
-0.462001
-0.379981
-0.352155
-0.367360
-0.394204
-0.394779
-0.344183
-0.237447
-0.084169
0.096172
0.275899
0.426113
0.528446
0.578712
0.578018
0.528355
0.443660
0.357612
0.305383
0.294630
0.305354
0.314015
0.306995
0.285665
0.269760
0.279965
0.309816
0.326878
0.303587
0.233871
0.116355
-0.060817
-0.301364
-0.573818
-0.815977
-0.966917
-0.995767
-0.907150
-0.731520
-0.517667
-0.324951
-0.209241
-0.207079
-0.315882
-0.476998
-0.595354
-0.598397
-0.477379
-0.274203
-0.045276
0.158019
0.296806
0.353804
0.334660
0.258347
0.153557
0.064274
0.042192
0.118882
0.282598
0.481903
0.650228
0.730295
0.691995
0.549364
0.363033
0.209773
0.141767
0.173282
0.289620
0.455875
0.625409
0.750763
0.791521
0.723137
0.554028
0.333327
0.125674
-0.029501
-0.132866
-0.205114
-0.260637
-0.301188
-0.328269
-0.355052
-0.405599
-0.504713
-0.661982
-0.855552
-1.031701
-1.127591
-1.101553
-0.948920
-0.698131
-0.396821
-0.095730
0.163860
0.349263
0.429823
0.390213
0.254617
0.085738
-0.044239
-0.083959
-0.013128
0.162227
0.408005
0.658977
0.838175
0.890597
0.803541
0.606742
0.357142
0.112433
-0.092551
-0.246658
-0.342895
-0.370601
-0.331690
-0.255778
-0.192386
-0.185038
-0.250085
-0.370115
-0.498863
-0.582592
-0.588077
-0.512478
-0.372515
-0.191963
0.003071
0.187620
0.340841
0.448113
0.506228
0.524376
0.518761
0.508632
0.512900
0.546364
0.614976
0.708891
0.801151
0.857578
0.850382
0.763996
0.593509
0.348230
0.059255
-0.226207
-0.461046
-0.606666
-0.638190
-0.561060
-0.425653
-0.310094
-0.275779
-0.337249
-0.468485
-0.628782
-0.781533
-0.899046
-0.965272
-0.973850
-0.918146
-0.794624
-0.619342
-0.429402
-0.265111
-0.150362
-0.085223
-0.051330
-0.020518
0.033295
0.119307
0.228513
0.349176
0.475388
0.598256
0.700389
0.767956
0.802218
0.811142
0.798770
0.775200
0.766796
0.796610
0.851982
0.882495
0.834305
0.684488
0.449210
0.170522
-0.106947
-0.355113
-0.558655
-0.700179
-0.767590
-0.776791
-0.769980
-0.784380
-0.830118
-0.898550
-0.977815
-1.051583
-1.090979
-1.061420
-0.942159
-0.740413
-0.491890
-0.245558
-0.037800
0.122190
0.242287
0.329619
0.386495
0.416845
0.427659
0.422947
0.403981
0.380394
0.371968
0.392721
0.437756
0.484683
0.506198
0.485809
0.423840
0.334268
0.240492
0.167204
0.130884
0.139305
0.197178
0.305052
0.450954
0.606763
0.731296
0.777137
0.708993
0.527938
0.275811
0.012693
-0.209698
-0.359511
-0.427525
-0.430360
-0.405494
-0.392132
-0.411134
-0.462093
-0.532606
-0.599163
-0.626704
-0.585553
-0.472659
-0.316190
-0.163272
-0.058416
-0.019162
-0.024984
-0.034853
-0.015104
0.053763
0.186349
0.389259
0.641324
0.886445
1.055149
1.092361
0.972783
0.709180
0.354996
-0.009830
-0.306958
-0.480909
-0.509331
-0.410116
-0.239653
-0.073871
0.020714
0.003927
-0.135016
-0.366555
-0.614014
-0.783235
-0.813022
-0.698981
-0.479171
-0.211150
0.041357
0.220465
0.292360
0.259939
0.154301
0.018150
-0.100104
-0.151594
-0.103922
0.039935
0.238726
0.427877
0.541915
0.541131
0.432034
0.261647
0.087602
-0.047597
-0.121289
-0.131372
-0.103318
-0.083730
-0.115654
-0.219670
-0.392764
-0.610822
-0.827587
-0.984358
-1.031794
-0.943402
-0.717162
-0.380610
0.004318
0.355154
0.598308
0.691042
0.627062
0.435239
0.174426
-0.082911
-0.277390
-0.380858
-0.391910
-0.324107
-0.203603
-0.067491
0.049289
0.129967
0.175843
0.193794
0.192953
0.187191
0.187604
0.197039
0.215077
0.236293
0.246058
0.232573
0.205329
0.197298
0.241767
0.341510
0.461265
0.549875
0.571415
0.520815
0.415055
0.272445
0.099783
-0.100289
-0.308327
-0.482255
-0.581546
-0.590536
-0.513382
-0.362181
-0.159890
0.058638
0.259281
0.417130
0.514781
0.542711
0.499490
0.387841
0.215710
0.006644
-0.194265
-0.338485
-0.405400
-0.409520
-0.374827
-0.312790
-0.233126
-0.162918
-0.136474
-0.167025
-0.233832
-0.291261
-0.293548
-0.226281
-0.117366
-0.011459
0.061564
0.088779
0.062063
-0.015715
-0.112645
-0.172137
-0.150257
-0.048293
0.095754
0.237951
0.345687
0.399697
0.393856
0.332501
0.225034
0.089489
-0.037296
-0.109188
-0.101794
-0.029844
0.064924
0.135195
0.143967
0.078694
-0.040806
-0.173272
-0.278225
-0.328416
-0.312656
-0.242344
-0.152127
-0.080847
-0.048725
-0.053560
-0.080040
-0.103683
-0.093977
-0.026552
0.103006
0.272509
0.440234
0.559663
0.588417
0.501183
0.309244
0.060919
-0.182110
-0.367456
-0.459135
-0.440899
-0.326339
-0.159807
0.004493
0.125591
0.182034
0.172184
0.119193
0.065295
0.046936
0.075603
0.142187
0.227428
0.305268
0.351490
0.359521
0.341823
0.312556
0.276181
0.231930
0.179882
0.123687
0.073373
0.041809
0.031511
0.028530
0.017673
-0.000787
-0.020150
-0.047949
-0.102342
-0.185074
-0.269781
-0.324996
-0.341201
-0.329454
-0.305729
-0.282188
-0.260924
-0.232263
-0.186204
-0.126375
-0.069477
-0.033383
-0.029809
-0.061874
-0.118602
-0.171458
-0.188488
-0.163018
-0.119997
-0.086981
-0.070672
-0.065587
-0.071270
-0.091565
-0.122519
-0.147215
-0.141227
-0.083152
0.031923
0.181870
0.325755
0.427008
0.464817
0.429143
0.320931
0.161839
-0.008866
-0.154058
-0.251147
-0.289341
-0.266908
-0.196100
-0.104750
-0.024743
0.023352
0.033000
0.003542
-0.061304
-0.149838
-0.248084
-0.344391
-0.421948
-0.460202
-0.453728
-0.418950
-0.375164
-0.324815
-0.256423
-0.163875
-0.056428
0.047020
0.124047
0.157065
0.148520
0.122579
0.108562
0.129398
0.197808
0.306163
0.420721
0.500539
0.527538
0.513676
0.480512
0.437906
0.382643
0.312633
0.238583
0.183684
0.172314
0.208014
0.256319
0.262022
0.191900
0.055557
-0.112314
-0.277663
-0.415486
-0.509450
-0.553943
-0.552654
-0.511877
-0.439117
-0.351996
-0.280930
-0.251777
-0.269039
-0.319251
-0.379540
-0.419135
-0.407617
-0.332801
-0.205366
-0.043748
0.136508
0.317164
0.474236
0.589597
0.659952
0.690955
0.691558
0.677793
0.670861
0.682203
0.703109
0.710449
0.676778
0.579634
0.416911
0.216694
0.023862
-0.128845
-0.235283
-0.301663
-0.332009
-0.333103
-0.320455
-0.314897
-0.335439
-0.390370
-0.467280
-0.531060
-0.541772
-0.482356
-0.369472
-0.238235
-0.121002
-0.041489
-0.015343
-0.041074
-0.093893
-0.136821
-0.135349
-0.064158
0.084904
0.289919
0.497230
0.644565
0.691386
0.630618
0.484353
0.295508
0.113190
-0.025792
-0.103790
-0.119506
-0.090955
-0.055593
-0.054278
-0.111366
-0.227107
-0.382287
-0.543615
-0.664514
-0.694517
-0.606957
-0.420514
-0.185940
0.042403
0.220676
0.324624
0.357922
0.345193
0.316399
0.299079
0.313029
0.358319
0.408462
0.424882
0.386622
0.303443
0.196729
0.081205
-0.028393
-0.109746
-0.142387
-0.120363
-0.055285
0.027341
0.091330
0.098191
