EVENT_NAME: NONAME
EVENT_ID: IT-2014-0003
EVENT_DATE_YYYYMMDD: 20140120
EVENT_TIME_HHMMSS: 071240
EVENT_LATITUDE_DEGREE: 41.3620
EVENT_LONGITUDE_DEGREE: 14.4490
EVENT_DEPTH_KM: 11.1
HYPOCENTER_REFERENCE: ISIDe
MAGNITUDE_W: 
MAGNITUDE_W_REFERENCE: 
MAGNITUDE_L: 4.2
MAGNITUDE_L_REFERENCE: ISIDe
FOCAL_MECHANISM: 
NETWORK: IT
STATION_CODE: ARL
STATION_NAME: AIROLA
STATION_LATITUDE_DEGREE: 41.057068
STATION_LONGITUDE_DEGREE: 14.542928
STATION_ELEVATION_M: 504
LOCATION: 
VS30_M/S: 
SITE_CLASSIFICATION_EC8: B*
MORPHOLOGIC_CLASSIFICATION: 
EPICENTRAL_DISTANCE_KM: 34.8
EARTHQUAKE_BACKAZIMUTH_DEGREE: 346.9
DATE_TIME_FIRST_SAMPLE_YYYYMMDD_HHMMSS: 20140120_071230.000
DATE_TIME_FIRST_SAMPLE_PRECISION: milliseconds
SAMPLING_INTERVAL_S: 0.005000
NDATA: 8997
DURATION_S: 44.980000
STREAM: HGE
UNITS: cm
INSTRUMENT: sensor = Unknown [Unknown] | digitizer = Unknown [Unknown]
INSTRUMENT_ANALOG/DIGITAL: D
INSTRUMENTAL_FREQUENCY_HZ: 
INSTRUMENTAL_DAMPING: 
FULL_SCALE_G: 
N_BIT_DIGITAL_CONVERTER: 
PGD_CM: 0.003511
TIME_PGD_S: 26.925000
BASELINE_CORRECTION: BASELINE REMOVED
FILTER_TYPE: BUTTERWORTH
FILTER_ORDER: 2
LOW_CUT_FREQUENCY_HZ: 0.150
HIGH_CUT_FREQUENCY_HZ: 40.000
LATE/NORMAL_TRIGGERED: NT
DATABASE_VERSION: ITACA 2.0
HEADER_FORMAT: DYNA 1.0
DATA_TYPE: DISPLACEMENT
PROCESSING: manual (Paolucci et al., 2011)
DATA_TIMESTAMP_YYYYMMDD_HHMMSS: 20140128_230134.743
USER1: /home/dyna/processing-itaca/processing.py /var/www/processing/tmp/Lucia//IT.ARL..HGE.D.20140120.071240.X.ACC.ASC /var/www/processing/tmp/Lucia//IT.ARL..HGN.D.20140120.071240.X.ACC.ASC /var/www/processing/tmp/Lucia//IT.ARL..HGZ.D.20140120.071240.X.ACC.ASC --tmp /var/www/processing/tmp/Lucia/ --le 0.150 --he 40.000 --ln 0.150 --hn 40.000 --lz 0.150 --hz 40.000 --fo 2 --ca 0 --cz 0 --ta 5 --tz 5 --mf 1 --tr NT
USER2: 
USER3: 
USER4: 
[...]
-7.138942e-04
-8.383293e-04
-9.618624e-04
-1.084200e-03
-1.203262e-03
-1.315420e-03
-1.416196e-03
-1.501267e-03
-1.567484e-03
-1.613674e-03
-1.641035e-03
-1.652808e-03
-1.653133e-03
-1.645664e-03
-1.632657e-03
-1.614715e-03
-1.590953e-03
-1.559497e-03
-1.518158e-03
-1.464983e-03
-1.398729e-03
-1.319560e-03
-1.229800e-03
-1.133980e-03
-1.037852e-03
-9.468485e-04
-8.647144e-04
-7.927588e-04
-7.298973e-04
-6.733406e-04
-6.194746e-04
-5.646458e-04
-5.059486e-04
-4.420746e-04
-3.739423e-04
-3.046348e-04
-2.385951e-04
-1.806694e-04
-1.354895e-04
-1.069531e-04
-9.733842e-05
-1.063055e-04
-1.306624e-04
-1.653740e-04
-2.053647e-04
-2.471477e-04
-2.894781e-04
-3.328984e-04
-3.787762e-04
-4.285907e-04
-4.835859e-04
-5.443483e-04
-6.102087e-04
-6.789756e-04
-7.473277e-04
-8.114815e-04
-8.677081e-04
-9.129249e-04
-9.456271e-04
-9.665928e-04
-9.785991e-04
-9.852839e-04
-9.899217e-04
-9.947075e-04
-1.000781e-03
-1.008880e-03
-1.020102e-03
-1.036062e-03
-1.058273e-03
-1.087416e-03
-1.123249e-03
-1.165094e-03
-1.212278e-03
-1.264223e-03
-1.320338e-03
-1.379950e-03
-1.442334e-03
-1.506875e-03
-1.573327e-03
-1.641904e-03
-1.713070e-03
-1.787249e-03
-1.864600e-03
-1.944722e-03
-2.026273e-03
-2.106795e-03
-2.182858e-03
-2.250454e-03
-2.305683e-03
-2.345735e-03
-2.369763e-03
-2.379131e-03
-2.376929e-03
-2.367035e-03
-2.353137e-03
-2.337946e-03
-2.322622e-03
-2.306402e-03
-2.286552e-03
-2.258847e-03
-2.218681e-03
-2.162504e-03
-2.088818e-03
-1.998194e-03
-1.892604e-03
-1.774697e-03
-1.647295e-03
-1.512920e-03
-1.373350e-03
-1.229591e-03
-1.082414e-03
-9.329498e-04
-7.830292e-04
-6.354676e-04
-4.943150e-04
-3.646928e-04
-2.519723e-04
-1.605513e-04
-9.281977e-05
-4.880668e-05
-2.651432e-05
-2.264492e-05
-3.350980e-05
-5.592471e-05
-8.783916e-05
-1.285575e-04
-1.784598e-04
-2.382172e-04
-3.078441e-04
-3.860755e-04
-4.702432e-04
-5.565150e-04
-6.403826e-04
-7.173527e-04
-7.836699e-04
-8.367760e-04
-8.754143e-04
-8.996021e-04
-9.105811e-04
-9.104685e-04
-9.014157e-04
-8.847283e-04
-8.606751e-04
-8.289881e-04
-7.894506e-04
-7.422383e-04
-6.878844e-04
-6.267865e-04
-5.586895e-04
-4.828470e-04
-3.988326e-04
-3.072285e-04
-2.097777e-04
-1.094180e-04
-1.057866e-05
8.072656e-05
1.576863e-04
2.142467e-04
2.466341e-04
2.541273e-04
2.389418e-04
2.054682e-04
1.590530e-04
1.045141e-04
4.474407e-05
-2.020290e-05
-9.304694e-05
-1.778159e-04
-2.774688e-04
-3.920815e-04
-5.186287e-04
-6.520310e-04
-7.865652e-04
-9.171489e-04
-1.040312e-03
-1.154631e-03
-1.260583e-03
-1.360076e-03
-1.455731e-03
-1.549778e-03
-1.642771e-03
-1.732791e-03
-1.815747e-03
-1.886655e-03
-1.941308e-03
-1.977703e-03
-1.996798e-03
-2.002159e-03
-1.998444e-03
-1.989485e-03
-1.976982e-03
-1.960147e-03
-1.936071e-03
-1.900598e-03
-1.849490e-03
-1.779613e-03
-1.689948e-03
-1.582205e-03
-1.460611e-03
-1.330683e-03
-1.197614e-03
-1.065283e-03
-9.362727e-04
-8.123905e-04
-6.950243e-04
-5.851878e-04
-4.835580e-04
-3.908045e-04
-3.081910e-04
-2.381953e-04
-1.847491e-04
-1.526918e-04
-1.464269e-04
-1.683519e-04
-2.178156e-04
-2.910024e-04
-3.816424e-04
-4.822030e-04
-5.851568e-04
-6.840142e-04
-7.741399e-04
-8.535201e-04
-9.231450e-04
-9.864045e-04
-1.047520e-03
-1.109742e-03
-1.174063e-03
-1.238713e-03
-1.299306e-03
-1.349699e-03
-1.383618e-03
-1.396583e-03
-1.387283e-03
-1.357894e-03
-1.313336e-03
-1.259850e-03
-1.203553e-03
-1.149570e-03
-1.101754e-03
-1.062510e-03
-1.032531e-03
-1.010844e-03
-9.955511e-04
-9.850683e-04
-9.792114e-04
-9.796066e-04
-9.892548e-04
-1.011374e-03
-1.048059e-03
-1.099445e-03
-1.163644e-03
-1.237155e-03
-1.315465e-03
-1.393699e-03
-1.467242e-03
-1.532264e-03
-1.586083e-03
-1.627247e-03
-1.655301e-03
-1.670386e-03
-1.672755e-03
-1.662302e-03
-1.638190e-03
-1.598703e-03
-1.541494e-03
-1.464256e-03
-1.365579e-03
-1.245642e-03
-1.106605e-03
-9.527310e-04
-7.901508e-04
-6.260893e-04
-4.676829e-04
-3.208027e-04
-1.890891e-04
-7.333032e-05
2.840199e-05
1.194930e-04
2.028316e-04
2.792758e-04
3.472888e-04
4.035896e-04
4.441708e-04
4.652138e-04
4.637806e-04
4.382156e-04
3.883043e-04
3.154394e-04
2.227089e-04
1.144948e-04
-4.454299e-06
-1.300312e-04
-2.593671e-04
-3.908336e-04
-5.235833e-04
-6.568460e-04
-7.892763e-04
-9.187239e-04
-1.042459e-03
-1.157464e-03
-1.260585e-03
-1.348749e-03
-1.419404e-03
-1.470859e-03
-1.502260e-03
-1.513381e-03
-1.504534e-03
-1.476306e-03
-1.428908e-03
-1.361596e-03
-1.272983e-03
-1.162309e-03
-1.030776e-03
-8.821319e-04
-7.222571e-04
-5.581193e-04
-3.966552e-04
-2.440688e-04
-1.054489e-04
1.566659e-05
1.175923e-04
2.000983e-04
2.633547e-04
3.070017e-04
3.298957e-04
3.303259e-04
3.063108e-04
2.560060e-04
1.784269e-04
7.431215e-05
-5.335652e-05
-1.995355e-04
-3.580118e-04
-5.226270e-04
-6.881871e-04
-8.506926e-04
-1.007141e-03
-1.155349e-03
-1.293894e-03
-1.422018e-03
-1.539451e-03
-1.646310e-03
-1.743070e-03
-1.830320e-03
-1.908270e-03
-1.976403e-03
-2.033591e-03
-2.078663e-03
-2.111080e-03
-2.131351e-03
-2.141026e-03
-2.142345e-03
-2.137652e-03
-2.128778e-03
-2.116632e-03
-2.101004e-03
-2.080446e-03
-2.052262e-03
-2.012804e-03
-1.958177e-03
-1.885267e-03
-1.792929e-03
-1.682867e-03
-1.559605e-03
-1.429449e-03
-1.298975e-03
-1.173744e-03
-1.057500e-03
-9.519447e-04
-8.571483e-04
-7.724892e-04
-6.976335e-04
-6.330560e-04
-5.800310e-04
-5.403210e-04
-5.155901e-04
-5.065269e-04
-5.121024e-04
-5.294945e-04
-5.547913e-04
-5.841699e-04
-6.150089e-04
-6.463270e-04
-6.782696e-04
-7.110836e-04
-7.442752e-04
-7.761227e-04
-8.033114e-04
-8.207687e-04
-8.221929e-04
-8.014560e-04
-7.543403e-04
-6.799156e-04
-5.811714e-04
-4.646976e-04
-3.393490e-04
-2.142461e-04
-9.681721e-05
8.588993e-06
1.012619e-04
1.836820e-04
2.601107e-04
3.346926e-04
4.097923e-04
4.849903e-04
5.568129e-04
6.194715e-04
6.667799e-04
6.945073e-04
7.019092e-04
6.918366e-04
6.697847e-04
6.424540e-04
6.161573e-04
5.953721e-04
5.818960e-04
5.749184e-04
5.717983e-04
5.691319e-04
5.639630e-04
5.550042e-04
5.434474e-04
5.328889e-04
5.282986e-04
5.344052e-04
5.540597e-04
5.872424e-04
6.312260e-04
6.817508e-04
7.344657e-04
7.859906e-04
8.344833e-04
8.796916e-04
9.223171e-04
9.628492e-04
1.000490e-03
1.032639e-03
1.054969e-03
1.062029e-03
1.048398e-03
1.010159e-03
9.461250e-04
8.585059e-04
7.529578e-04
6.378944e-04
5.229389e-04
4.168623e-04
3.257434e-04
2.519006e-04
1.937343e-04
1.464489e-04
1.035243e-04
5.852683e-05
6.594654e-06
-5.485897e-05
-1.261103e-04
-2.054644e-04
-2.899085e-04
-3.760399e-04
-4.609391e-04
-5.425891e-04
-6.198431e-04
-6.922522e-04
-7.598375e-04
-8.227430e-04
-8.809584e-04
-9.342478e-04
-9.821603e-04
-1.024165e-03
-1.060019e-03
-1.090059e-03
-1.114965e-03
-1.134939e-03
-1.148868e-03
-1.154260e-03
-1.148120e-03
-1.128233e-03
-1.094061e-03
-1.046869e-03
-9.893000e-04
-9.249200e-04
-8.580455e-04
-7.936782e-04
-7.370191e-04
-6.924164e-04
-6.623523e-04
-6.470516e-04
-6.445854e-04
-6.511738e-04
-6.617595e-04
-6.708792e-04
-6.735168e-04
-6.657262e-04
-6.450662e-04
-6.108383e-04
-5.641232e-04
-5.077120e-04
-4.459081e-04
-3.839381e-04
-3.268247e-04
-2.781735e-04
-2.396572e-04
-2.113790e-04
-1.924714e-04
-1.813835e-04
-1.761238e-04
-1.749371e-04
-1.771622e-04
-1.835629e-04
-1.958094e-04
-2.153374e-04
-2.422042e-04
-2.747280e-04
-3.101859e-04
-3.459303e-04
-3.801356e-04
-4.121214e-04
-4.425557e-04
-4.733828e-04
-5.070261e-04
-5.449728e-04
-5.866759e-04
-6.295863e-04
-6.701028e-04
-7.046706e-04
-7.305962e-04
-7.465294e-04
-7.526162e-04
-7.503905e-04
-7.425389e-04
-7.324501e-04
-7.232937e-04
-7.168670e-04
-7.129852e-04
-7.098494e-04
-7.050906e-04
-6.969519e-04
-6.852140e-04
-6.715088e-04
-6.588237e-04
-6.504705e-04
-6.490728e-04
-6.558855e-04
-6.705147e-04
-6.912024e-04
-7.156933e-04
-7.422054e-04
-7.699356e-04
-7.990048e-04
-8.300750e-04
-8.637373e-04
-8.997490e-04
-9.364246e-04
-9.705249e-04
-9.978126e-04
-1.014094e-03
-1.016385e-03
-1.003964e-03
-9.790146e-04
-9.463337e-04
-9.121299e-04
-8.824788e-04
-8.620140e-04
-8.530277e-04
-8.550638e-04
-8.652584e-04
-8.794482e-04
-8.935256e-04
-9.044632e-04
-9.108500e-04
-9.129322e-04
-9.120346e-04
-9.095046e-04
-9.058013e-04
-9.002078e-04
-8.910597e-04
-8.762258e-04
-8.537603e-04
-8.225075e-04
-7.822667e-04
-7.334803e-04
-6.768800e-04
-6.133752e-04
-5.440721e-04
-4.702720e-04
-3.933797e-04
-3.146530e-04
-2.348812e-04
-1.543215e-04
-7.304864e-05
8.666075e-06
9.036111e-05
1.715524e-04
2.515450e-04
3.289790e-04
4.017862e-04
4.678489e-04
5.257867e-04
5.751944e-04
6.163658e-04
6.498940e-04
6.763675e-04
6.963178e-04
7.104616e-04
7.199503e-04
7.262796e-04
7.308720e-04
7.346298e-04
7.376424e-04
7.391081e-04
7.376088e-04
7.318230e-04
7.213251e-04
7.067516e-04
6.891783e-04
6.694304e-04
6.479157e-04
6.247614e-04
5.998253e-04
5.726001e-04
5.423119e-04
5.083433e-04
4.708440e-04
4.312659e-04
3.924859e-04
3.582527e-04
3.321633e-04
3.167492e-04
3.129555e-04
3.198903e-04
3.348484e-04
3.538525e-04
3.726350e-04
3.875660e-04
3.962183e-04
3.976371e-04
3.923832e-04
3.822268e-04
3.694516e-04
3.560579e-04
3.432480e-04
3.312631e-04
3.193667e-04
3.059378e-04
2.887629e-04
2.653859e-04
2.333991e-04
1.908636e-04
1.368231e-04
7.143937e-05
-4.418088e-06
-8.965466e-05
-1.830116e-04
-2.827791e-04
-3.866435e-04
-4.919186e-04
-5.960181e-04
-6.970165e-04
-7.940883e-04
-8.874471e-04
-9.777414e-04
-1.065322e-03
-1.149667e-03
-1.229067e-03
-1.300813e-03
-1.362041e-03
-1.410756e-03
-1.446282e-03
-1.468966e-03
-1.479637e-03
-1.479361e-03
-1.469519e-03
-1.451861e-03
-1.428238e-03
-1.400023e-03
-1.367500e-03
-1.329777e-03
-1.285646e-03
-1.234965e-03
-1.179486e-03
-1.122618e-03
-1.068557e-03
-1.021439e-03
-9.847073e-04
-9.607120e-04
-9.505654e-04
-9.542351e-04
-9.707018e-04
-9.981462e-04
-1.034391e-03
-1.077659e-03
-1.127221e-03
-1.183509e-03
-1.247778e-03
-1.321536e-03
-1.405772e-03
-1.500199e-03
-1.602946e-03
-1.710827e-03
-1.819801e-03
-1.925363e-03
-2.022996e-03
-2.108773e-03
-2.179810e-03
-2.234348e-03
-2.271612e-03
-2.291587e-03
-2.294618e-03
-2.280877e-03
-2.250081e-03
-2.201707e-03
-2.135572e-03
-2.052517e-03
-1.954972e-03
-1.847004e-03
-1.733618e-03
-1.619636e-03
-1.508875e-03
-1.403997e-03
-1.306659e-03
-1.217622e-03
-1.136913e-03
-1.064215e-03
-9.993890e-04
-9.429493e-04
-8.962689e-04
-8.612704e-04
-8.395485e-04
-8.313709e-04
-8.352522e-04
-8.483703e-04
-8.674442e-04
-8.895432e-04
-9.126795e-04
-9.361992e-04
-9.607459e-04
-9.876399e-04
-1.017954e-03
-1.051653e-03
-1.086955e-03
-1.120134e-03
-1.146066e-03
-1.159567e-03
-1.156953e-03
-1.137055e-03
-1.101392e-03
-1.053620e-03
-9.984599e-04
-9.404702e-04
-8.831253e-04
-8.283752e-04
-7.766128e-04
-7.271242e-04
-6.790254e-04
-6.322836e-04
-5.883259e-04
-5.500459e-04
-5.213231e-04
-5.061907e-04
-5.076710e-04
-5.265144e-04
-5.605316e-04
-6.050617e-04
-6.542402e-04
-7.023587e-04
-7.449603e-04
-7.794463e-04
-8.049843e-04
-8.218924e-04
-8.308905e-04
-8.324117e-04
-8.261071e-04
-8.108445e-04
-7.853704e-04
-7.492742e-04
-7.035125e-04
-6.501647e-04
-5.918987e-04
-5.316026e-04
-4.720163e-04
-4.151736e-04
-3.618907e-04
-3.116168e-04
-2.627250e-04
-2.131497e-04
-1.612911e-04
-1.069778e-04
-5.198441e-05
2.062482e-07
4.517240e-05
7.859718e-05
9.745728e-05
1.008834e-04
9.009678e-05
6.744823e-05
3.524252e-05
-5.061343e-06
-5.328623e-05
-1.107468e-04
-1.799753e-04
-2.637808e-04
-3.640163e-04
-4.806073e-04
-6.111543e-04
-7.512376e-04
-8.953675e-04
-1.038180e-03
-1.175322e-03
-1.303811e-03
-1.422037e-03
-1.529560e-03
-1.626593e-03
-1.713218e-03
-1.788762e-03
-1.851666e-03
-1.899753e-03
-1.930742e-03
-1.942963e-03
-1.936064e-03
-1.911296e-03
-1.871286e-03
-1.819550e-03
-1.759920e-03
-1.695834e-03
-1.629682e-03
-1.562521e-03
-1.494169e-03
-1.423457e-03
-1.348490e-03
-1.267070e-03
-1.177281e-03
-1.077912e-03
-9.685427e-04
-8.495300e-04
-7.220175e-04
-5.877916e-04
-4.489652e-04
-3.077218e-04
-1.662299e-04
-2.660938e-05
1.091185e-04
2.389772e-04
3.609320e-04
4.730261e-04
5.737074e-04
6.620130e-04
7.375813e-04
8.007251e-04
8.525581e-04
8.948784e-04
9.297779e-04
9.593173e-04
9.853859e-04
1.009526e-03
1.032666e-03
1.054968e-03
1.075844e-03
1.094006e-03
1.107593e-03
1.114549e-03
1.113154e-03
1.102400e-03
1.082093e-03
1.052840e-03
1.015992e-03
9.733493e-04
9.266947e-04
8.775734e-04
8.274538e-04
7.778994e-04
7.304876e-04
6.866783e-04
6.479054e-04
6.157437e-04
5.918414e-04
5.776443e-04
5.741069e-04
5.814486e-04
5.990303e-04
6.255227e-04
6.593812e-04
6.993307e-04
7.446398e-04
7.952970e-04
8.520925e-04
9.163448e-04
9.892526e-04
1.071284e-03
1.161920e-03
1.259727e-03
1.362750e-03
1.469181e-03
1.577930e-03
1.688800e-03
1.802388e-03
1.919898e-03
2.042789e-03
2.172071e-03
2.307464e-03
2.446963e-03
2.587038e-03
2.723200e-03
2.850663e-03
2.965214e-03
3.064133e-03
3.146628e-03
3.213574e-03
3.266898e-03
3.309000e-03
3.342258e-03
3.368579e-03
3.389162e-03
3.404577e-03
3.415021e-03
3.420702e-03
3.422352e-03
3.421579e-03
3.420649e-03
3.421758e-03
3.426410e-03
3.435199e-03
3.447808e-03
3.463050e-03
3.479073e-03
3.493758e-03
3.505094e-03
3.511350e-03
3.511133e-03
3.503338e-03
3.486945e-03
3.460839e-03
3.423876e-03
3.375228e-03
3.314765e-03
3.243280e-03
3.162610e-03
3.075614e-03
2.985707e-03
2.895969e-03
2.808326e-03
2.723260e-03
2.639981e-03
2.556803e-03
2.471687e-03
2.382867e-03
2.289388e-03
2.191424e-03
2.090399e-03
1.988703e-03
1.888922e-03
1.792840e-03
1.700761e-03
1.611414e-03
1.522370e-03
1.430679e-03
1.333684e-03
1.229870e-03
1.119408e-03
1.004128e-03
8.870850e-04
7.718626e-04
6.617143e-04
5.587853e-04
4.637933e-04
3.762599e-04
2.950458e-04
2.189289e-04
1.471558e-04
7.987066e-05
1.810123e-05
-3.674719e-05
-8.340473e-05
-1.209451e-04
-1.488875e-04
-1.673000e-04
-1.767203e-04
-1.778784e-04
-1.715171e-04
-1.584224e-04
-1.394138e-04
-1.151939e-04
-8.626052e-05
-5.290987e-05
-1.516152e-05
2.739757e-05
7.559048e-05
1.302616e-04
1.917400e-04
2.594595e-04
3.317483e-04
4.058458e-04
4.783309e-04
5.459141e-04
6.063037e-04
6.588169e-04
7.045921e-04
7.463968e-04
7.879476e-04
8.328580e-04
8.836977e-04
9.415068e-04
1.005680e-03
1.074138e-03
1.143977e-03
1.212542e-03
1.278370e-03
1.341501e-03
1.403128e-03
1.464900e-03
1.528108e-03
1.592969e-03
1.658298e-03
1.721756e-03
1.780394e-03
1.831280e-03
1.872164e-03
1.902070e-03
1.921436e-03
1.931702e-03
1.934707e-03
1.932238e-03
1.925664e-03
1.915614e-03
1.901996e-03
1.884400e-03
1.862607e-03
1.836996e-03
1.808815e-03
1.780195e-03
1.753748e-03
1.731898e-03
1.716318e-03
1.707733e-03
1.705964e-03
1.710077e-03
1.718789e-03
1.731074e-03
1.746511e-03
1.765144e-03
1.787164e-03
1.812628e-03
1.841159e-03
1.871665e-03
1.902430e-03
1.931553e-03
1.957411e-03
1.978915e-03
1.995658e-03
2.007935e-03
2.016554e-03
2.022523e-03
2.026907e-03
2.030838e-03
2.035414e-03
2.041513e-03
2.049848e-03
2.061269e-03
2.076822e-03
2.097359e-03
2.123069e-03
2.153350e-03
2.186966e-03
2.222275e-03
2.257510e-03
2.290939e-03
2.320765e-03
2.344961e-03
2.361355e-03
2.367940e-03
2.363157e-03
2.346038e-03
2.316372e-03
2.274912e-03
2.223401e-03
2.164339e-03
2.100655e-03
2.035311e-03
1.970735e-03
1.908187e-03
1.847450e-03
1.787064e-03
1.724986e-03
1.659413e-03
1.589500e-03
1.515744e-03
1.439897e-03
1.364585e-03
1.292872e-03
1.227797e-03
1.171743e-03
1.125745e-03
1.089231e-03
1.060391e-03
1.036890e-03
1.016617e-03
9.983676e-04
9.822539e-04
9.695967e-04
9.623198e-04
9.622327e-04
9.704402e-04
9.869050e-04
1.010310e-03
1.038399e-03
1.068634e-03
1.098765e-03
1.127172e-03
1.153051e-03
1.176364e-03
1.197415e-03
1.216273e-03
1.232391e-03
1.244531e-03
1.250960e-03
1.249846e-03
1.239769e-03
1.220103e-03
1.191074e-03
1.153528e-03
1.108716e-03
1.058079e-03
1.002880e-03
9.437853e-04
8.807988e-04
8.135827e-04
7.417817e-04
6.652177e-04
5.840631e-04
4.988928e-04
4.104843e-04
3.195128e-04
2.263880e-04
1.313072e-04
3.437251e-05
-6.430985e-05
-1.644454e-04
-2.653121e-04
-3.657223e-04
-4.642216e-04
-5.592906e-04
-6.495245e-04
-7.338991e-04
-8.120176e-04
-8.841387e-04
-9.509170e-04
-1.013012e-03
-1.070736e-03
-1.123737e-03
-1.170807e-03
-1.210119e-03
-1.239874e-03
-1.258925e-03
-1.267086e-03
-1.265150e-03
-1.254691e-03
-1.237679e-03
-1.216003e-03
-1.191162e-03
-1.164254e-03
-1.136122e-03
-1.107453e-03
-1.078934e-03
-1.051455e-03
-1.026254e-03
-1.004982e-03
-9.896880e-04
-9.826228e-04
-9.857413e-04
-1.000127e-03
-1.025708e-03
-1.061356e-03
-1.105125e-03
-1.154469e-03
-1.206508e-03
-1.258342e-03
-1.307269e-03
-1.350881e-03
-1.387170e-03
-1.414645e-03
-1.432224e-03
-1.438988e-03
-1.434065e-03
-1.416764e-03
-1.386735e-03
-1.343970e-03
-1.288743e-03
-1.221546e-03
-1.142953e-03
-1.053467e-03
-9.535706e-04
-8.439689e-04
-7.258144e-04
-6.008285e-04
-4.714610e-04
-3.410101e-04
-2.133697e-04
-9.237613e-05
1.882689e-05
1.181431e-04
2.046863e-04
2.787627e-04
3.415315e-04
3.944510e-04
4.388762e-04
4.759174e-04
5.063684e-04
5.306702e-04
5.490908e-04
5.620945e-04
5.705604e-04
5.756494e-04
5.785118e-04
5.800454e-04
5.806333e-04
5.798578e-04
5.765030e-04
5.690145e-04
5.561032e-04
5.371788e-04
5.126082e-04
4.838053e-04
4.530259e-04
4.228262e-04
3.953934e-04
3.720117e-04
3.527365e-04
3.363120e-04
3.204778e-04
3.026492e-04
2.806396e-04
2.531364e-04
2.199613e-04
1.821070e-04
1.413783e-04
9.976463e-05
5.896067e-05
2.014614e-05
-1.615784e-05
-5.013240e-05
-8.243518e-05
-1.137608e-04
-1.444648e-04
-1.744569e-04
-2.033014e-04
-2.303649e-04
-2.550181e-04
-2.769192e-04
-2.962072e-04
-3.134343e-04
-3.293472e-04
-3.447028e-04
-3.600908e-04
-3.757283e-04
-3.913948e-04
-4.065736e-04
-4.205764e-04
-4.325570e-04
-4.415800e-04
-4.467594e-04
-4.473197e-04
-4.425993e-04
-4.321552e-04
-4.159950e-04
-3.947092e-04
-3.693760e-04
-3.414188e-04
-3.124746e-04
-2.841015e-04
-2.573926e-04
-2.327358e-04
-2.097151e-04
-1.871096e-04
-1.631334e-04
-1.359824e-04
-1.044836e-04
-6.848984e-05
-2.883975e-05
1.294032e-05
5.496645e-05
9.534869e-05
1.326093e-04
1.660450e-04
1.958601e-04
2.230399e-04
2.489318e-04
2.745484e-04
2.999491e-04
3.241207e-04
3.453072e-04
3.614317e-04
3.704474e-04
3.706893e-04
3.611540e-04
3.414589e-04
3.115366e-04
2.714400e-04
2.213798e-04
1.617906e-04
9.337477e-05
1.722558e-05
-6.508205e-05
-1.516106e-04
-2.403010e-04
-3.291695e-04
-4.165349e-04
-5.013989e-04
-5.837864e-04
-6.647210e-04
-7.458280e-04
-8.288103e-04
-9.149599e-04
-1.004762e-03
-1.097689e-03
-1.192347e-03
-1.286995e-03
-1.380100e-03
-1.470539e-03
-1.557503e-03
-1.640338e-03
-1.718287e-03
-1.790201e-03
-1.854472e-03
-1.909257e-03
-1.952717e-03
-1.983194e-03
-1.999505e-03
-2.001372e-03
-1.989636e-03
-1.966146e-03
-1.933476e-03
-1.894580e-03
-1.852265e-03
-1.808624e-03
-1.764790e-03
-1.721170e-03
