EVENT_NAME: NONAME
EVENT_ID: IT-2014-0003
EVENT_DATE_YYYYMMDD: 20140120
EVENT_TIME_HHMMSS: 071240
EVENT_LATITUDE_DEGREE: 41.3620
EVENT_LONGITUDE_DEGREE: 14.4490
EVENT_DEPTH_KM: 11.1
HYPOCENTER_REFERENCE: ISIDe
MAGNITUDE_W: 
MAGNITUDE_W_REFERENCE: 
MAGNITUDE_L: 4.2
MAGNITUDE_L_REFERENCE: ISIDe
FOCAL_MECHANISM: 
NETWORK: IT
STATION_CODE: ARL
STATION_NAME: AIROLA
STATION_LATITUDE_DEGREE: 41.057068
STATION_LONGITUDE_DEGREE: 14.542928
STATION_ELEVATION_M: 504
LOCATION: 
VS30_M/S: 
SITE_CLASSIFICATION_EC8: B*
MORPHOLOGIC_CLASSIFICATION: 
EPICENTRAL_DISTANCE_KM: 34.8
EARTHQUAKE_BACKAZIMUTH_DEGREE: 346.9
DATE_TIME_FIRST_SAMPLE_YYYYMMDD_HHMMSS: 20140120_071230.000
DATE_TIME_FIRST_SAMPLE_PRECISION: milliseconds
SAMPLING_INTERVAL_S: 0.005000
NDATA: 8997
DURATION_S: 44.980000
STREAM: HGE
UNITS: cm/s
INSTRUMENT: sensor = Unknown [Unknown] | digitizer = Unknown [Unknown]
INSTRUMENT_ANALOG/DIGITAL: D
INSTRUMENTAL_FREQUENCY_HZ: 
INSTRUMENTAL_DAMPING: 
FULL_SCALE_G: 
N_BIT_DIGITAL_CONVERTER: 
PGV_CM/S: -0.033112
TIME_PGV_S: 23.965000
BASELINE_CORRECTION: BASELINE REMOVED
FILTER_TYPE: BUTTERWORTH
FILTER_ORDER: 2
LOW_CUT_FREQUENCY_HZ: 0.150
HIGH_CUT_FREQUENCY_HZ: 40.000
LATE/NORMAL_TRIGGERED: NT
DATABASE_VERSION: ITACA 2.0
HEADER_FORMAT: DYNA 1.0
DATA_TYPE: VELOCITY
PROCESSING: manual (Paolucci et al., 2011)
DATA_TIMESTAMP_YYYYMMDD_HHMMSS: 20140128_230134.743
USER1: /home/dyna/processing-itaca/processing.py /var/www/processing/tmp/Lucia//IT.ARL..HGE.D.20140120.071240.X.ACC.ASC /var/www/processing/tmp/Lucia//IT.ARL..HGN.D.20140120.071240.X.ACC.ASC /var/www/processing/tmp/Lucia//IT.ARL..HGZ.D.20140120.071240.X.ACC.ASC --tmp /var/www/processing/tmp/Lucia/ --le 0.150 --he 40.000 --ln 0.150 --hn 40.000 --lz 0.150 --hz 40.000 --fo 2 --ca 0 --cz 0 --ta 5 --tz 5 --mf 1 --tr NT
USER2: 
USER3: 
USER4: 
[...]
0.000221
-0.000280
-0.000680
-0.000896
-0.000908
-0.000779
-0.000598
-0.000451
-0.000405
-0.000469
-0.000560
-0.000568
-0.000457
-0.000280
-0.000121
-0.000025
0.000018
0.000060
0.000146
0.000276
0.000399
0.000460
0.000467
0.000490
0.000586
0.000738
0.000895
0.001033
0.001145
0.001209
0.001199
0.001125
0.001018
0.000890
0.000739
0.000567
0.000406
0.000318
0.000360
0.000524
0.000711
0.000811
0.000792
0.000695
0.000548
0.000351
0.000153
0.000069
0.000228
0.000699
0.001423
0.002209
0.002839
0.003197
0.003327
0.003364
0.003434
0.003620
0.003951
0.004366
0.004710
0.004824
0.004668
0.004306
0.003788
0.003110
0.002311
0.001511
0.000836
0.000338
-0.000004
-0.000237
-0.000403
-0.000498
-0.000489
-0.000367
-0.000168
0.000072
0.000381
0.000801
0.001276
0.001610
0.001595
0.001163
0.000428
-0.000374
-0.000970
-0.001144
-0.000839
-0.000180
0.000588
0.001213
0.001526
0.001494
0.001232
0.000940
0.000786
0.000870
0.001224
0.001800
0.002439
0.002920
0.003080
0.002878
0.002370
0.001674
0.000968
0.000454
0.000275
0.000411
0.000673
0.000797
0.000587
0.000027
-0.000729
-0.001455
-0.001969
-0.002163
-0.001970
-0.001388
-0.000535
0.000363
0.001059
0.001376
0.001262
0.000808
0.000249
-0.000124
-0.000142
0.000122
0.000412
0.000497
0.000304
-0.000119
-0.000686
-0.001299
-0.001840
-0.002176
-0.002187
-0.001839
-0.001248
-0.000595
-0.000004
0.000455
0.000717
0.000755
0.000674
0.000665
0.000847
0.001149
0.001358
0.001278
0.000847
0.000163
-0.000568
-0.001125
-0.001357
-0.001204
-0.000670
0.000128
0.000931
0.001429
0.001436
0.000966
0.000165
-0.000790
-0.001727
-0.002458
-0.002783
-0.002602
-0.002056
-0.001510
-0.001311
-0.001560
-0.002067
-0.002531
-0.002729
-0.002563
-0.002006
-0.001074
0.000126
0.001365
0.002362
0.002914
0.002968
0.002593
0.001912
0.001063
0.000186
-0.000577
-0.001107
-0.001352
-0.001394
-0.001407
-0.001531
-0.001767
-0.002002
-0.002090
-0.001908
-0.001402
-0.000623
0.000267
0.001034
0.001470
0.001483
0.001159
0.000693
0.000244
-0.000153
-0.000516
-0.000803
-0.000924
-0.000861
-0.000713
-0.000603
-0.000567
-0.000572
-0.000595
-0.000625
-0.000620
-0.000488
-0.000160
0.000334
0.000837
0.001109
0.000996
0.000558
-0.000024
-0.000651
-0.001375
-0.002268
-0.003272
-0.004233
-0.005026
-0.005584
-0.005814
-0.005581
-0.004817
-0.003612
-0.002192
-0.000789
0.000456
0.001479
0.002216
0.002598
0.002681
0.002690
0.002869
0.003305
0.003915
0.004557
0.005072
0.005270
0.004943
0.004000
0.002604
0.001141
0.000032
-0.000485
-0.000437
-0.000030
0.000518
0.001059
0.001467
0.001572
0.001222
0.000436
-0.000548
-0.001397
-0.001827
-0.001684
-0.000987
0.000044
0.001044
0.001661
0.001686
0.001084
-0.000051
-0.001529
-0.003095
-0.004459
-0.005338
-0.005549
-0.005114
-0.004285
-0.003444
-0.002938
-0.002952
-0.003493
-0.004401
-0.005374
-0.006067
-0.006226
-0.005767
-0.004759
-0.003393
-0.001952
-0.000766
-0.000103
-0.000067
-0.000573
-0.001388
-0.002205
-0.002780
-0.003017
-0.002928
-0.002534
-0.001868
-0.001027
-0.000152
0.000626
0.001229
0.001631
0.001846
0.001915
0.001893
0.001829
0.001764
0.001725
0.001714
0.001694
0.001604
0.001382
0.000988
0.000414
-0.000283
-0.001005
-0.001678
-0.002319
-0.002994
-0.003698
-0.004290
-0.004620
-0.004679
-0.004586
-0.004430
-0.004185
-0.003751
-0.003048
-0.002094
-0.000999
0.000132
0.001251
0.002303
0.003177
0.003800
0.004251
0.004708
0.005278
0.005905
0.006460
0.006845
0.006981
0.006778
0.006175
0.005182
0.003868
0.002372
0.000919
-0.000237
-0.000917
-0.001052
-0.000655
0.000172
0.001215
0.002185
0.002841
0.003063
0.002862
0.002363
0.001794
0.001407
0.001354
0.001648
0.002220
0.002967
0.003736
0.004281
0.004288
0.003540
0.002102
0.000337
-0.001297
-0.002475
-0.003057
-0.003011
-0.002360
-0.001260
-0.000076
0.000714
0.000790
0.000187
-0.000771
-0.001702
-0.002330
-0.002507
-0.002172
-0.001349
-0.000204
0.000918
0.001623
0.001676
0.001125
0.000207
-0.000832
-0.001818
-0.002592
-0.002986
-0.002891
-0.002352
-0.001548
-0.000644
0.000332
0.001450
0.002731
0.004080
0.005339
0.006387
0.007146
0.007503
0.007306
0.006479
0.005159
0.003668
0.002330
0.001342
0.000793
0.000739
0.001183
0.002030
0.003089
0.004111
0.004851
0.005157
0.005023
0.004547
0.003845
0.003018
0.002165
0.001380
0.000693
0.000064
-0.000562
-0.001242
-0.002077
-0.003163
-0.004476
-0.005833
-0.006964
-0.007592
-0.007490
-0.006564
-0.004933
-0.002890
-0.000799
0.000991
0.002180
0.002579
0.002191
0.001248
0.000130
-0.000739
-0.001001
-0.000514
0.000564
0.001839
0.002872
0.003348
0.003158
0.002426
0.001479
0.000691
0.000304
0.000368
0.000809
0.001497
0.002273
0.002953
0.003365
0.003402
0.003084
0.002569
0.002090
0.001846
0.001870
0.002030
0.002147
0.002109
0.001909
0.001647
0.001491
0.001566
0.001852
0.002228
0.002576
0.002824
0.002916
0.002792
0.002427
0.001827
0.001004
-0.000033
-0.001197
-0.002290
-0.003070
-0.003342
-0.002983
-0.001979
-0.000508
0.001059
0.002300
0.002897
0.002720
0.001848
0.000523
-0.000925
-0.002156
-0.002890
-0.002980
-0.002494
-0.001733
-0.001079
-0.000773
-0.000818
-0.001094
-0.001489
-0.001907
-0.002229
-0.002318
-0.002086
-0.001591
-0.001099
-0.001009
-0.001598
-0.002815
-0.004295
-0.005575
-0.006298
-0.006291
-0.005577
-0.004345
-0.002884
-0.001483
-0.000376
0.000293
0.000518
0.000462
0.000387
0.000517
0.000953
0.001677
0.002566
0.003395
0.003894
0.003884
0.003359
0.002453
0.001361
0.000307
-0.000506
-0.000985
-0.001192
-0.001292
-0.001424
-0.001583
-0.001598
-0.001240
-0.000405
0.000821
0.002242
0.003676
0.004975
0.005979
0.006534
0.006607
0.006333
0.005913
0.005495
0.005155
0.004919
0.004759
0.004596
0.004332
0.003870
0.003156
0.002226
0.001239
0.000426
-0.000034
-0.000078
0.000259
0.000856
0.001522
0.002059
0.002353
0.002375
0.002123
0.001608
0.000915
0.000227
-0.000238
-0.000292
0.000158
0.001048
0.002187
0.003383
0.004532
0.005600
0.006528
0.007220
0.007624
0.007768
0.007695
0.007407
0.006921
0.006315
0.005676
0.005036
0.004356
0.003551
0.002525
0.001227
-0.000262
-0.001720
-0.002897
-0.003636
-0.003914
-0.003816
-0.003504
-0.003158
-0.002920
-0.002872
-0.003013
-0.003246
-0.003386
-0.003247
-0.002744
-0.001922
-0.000934
-0.000030
0.000484
0.000350
-0.000496
-0.001886
-0.003507
-0.005025
-0.006171
-0.006832
-0.007088
-0.007152
-0.007251
-0.007585
-0.008312
-0.009488
-0.010976
-0.012485
-0.013718
-0.014481
-0.014715
-0.014477
-0.013892
-0.013080
-0.012123
-0.011065
-0.009897
-0.008523
-0.006808
-0.004715
-0.002425
-0.000279
0.001407
0.002493
0.002998
0.003013
0.002639
0.001987
0.001207
0.000503
0.000087
0.000059
0.000315
0.000595
0.000647
0.000385
-0.000100
-0.000623
-0.000995
-0.001097
-0.000931
-0.000597
-0.000188
0.000288
0.000912
0.001792
0.003009
0.004551
0.006286
0.008014
0.009576
0.010868
0.011796
0.012286
0.012371
0.012209
0.011988
0.011844
0.011841
0.011977
0.012175
0.012290
0.012134
0.011531
0.010389
0.008774
0.006909
0.005063
0.003439
0.002147
0.001240
0.000741
0.000619
0.000775
0.001068
0.001334
0.001422
0.001286
0.001042
0.000898
0.001010
0.001394
0.001955
0.002552
0.003054
0.003385
0.003509
0.003381
0.002942
0.002172
0.001165
0.000143
-0.000606
-0.000842
-0.000489
0.000338
0.001411
0.002524
0.003553
0.004405
0.004931
0.004951
0.004391
0.003400
0.002318
0.001543
0.001324
0.001635
0.002223
0.002822
0.003293
0.003602
0.003733
0.003708
0.003653
0.003758
0.004120
0.004639
0.005043
0.005038
0.004453
0.003284
0.001638
-0.000361
-0.002587
-0.004837
-0.006827
-0.008324
-0.009271
-0.009738
-0.009800
-0.009509
-0.008936
-0.008165
-0.007213
-0.006018
-0.004537
-0.002866
-0.001240
0.000080
0.000961
0.001448
0.001661
0.001650
0.001368
0.000795
0.000069
-0.000567
-0.000975
-0.001238
-0.001554
-0.002027
-0.002624
-0.003256
-0.003844
-0.004321
-0.004632
-0.004721
-0.004523
-0.004005
-0.003220
-0.002286
-0.001310
-0.000336
0.000639
0.001638
0.002709
0.003894
0.005195
0.006595
0.008075
0.009574
0.010961
0.012083
0.012848
0.013238
0.013277
0.013036
0.012620
0.012140
0.011687
0.011339
0.011167
0.011179
0.011270
0.011271
0.011067
0.010640
0.010011
0.009162
0.008027
0.006541
0.004730
0.002784
0.001029
-0.000220
-0.000806
-0.000752
-0.000207
0.000572
0.001257
0.001528
0.001190
0.000226
-0.001196
-0.002765
-0.004106
-0.004913
-0.005064
-0.004610
-0.003698
-0.002515
-0.001252
-0.000065
0.000974
0.001844
0.002527
0.003013
0.003341
0.003543
0.003561
0.003248
0.002495
0.001324
-0.000096
-0.001484
-0.002513
-0.002936
-0.002736
-0.002160
-0.001571
-0.001268
-0.001387
-0.001898
-0.002643
-0.003389
-0.003884
-0.003887
-0.003222
-0.001891
-0.000187
0.001370
0.002274
0.002242
0.001256
-0.000488
-0.002607
-0.004596
-0.006000
-0.006571
-0.006325
-0.005492
-0.004404
-0.003366
-0.002582
-0.002166
-0.002189
-0.002626
-0.003274
-0.003822
-0.004008
-0.003698
-0.002859
-0.001585
-0.000192
0.000840
0.001129
0.000634
-0.000357
-0.001466
-0.002473
-0.003384
-0.004314
-0.005350
-0.006532
-0.007937
-0.009668
-0.011712
-0.013849
-0.015761
-0.017275
-0.018428
-0.019324
-0.020019
-0.020574
-0.021132
-0.021873
-0.022871
-0.024001
-0.024971
-0.025471
-0.025350
-0.024662
-0.023547
-0.022118
-0.020488
-0.018844
-0.017400
-0.016223
-0.015149
-0.013876
-0.012156
-0.009935
-0.007355
-0.004663
-0.002114
0.000096
0.001838
0.002993
0.003478
0.003345
0.002811
0.002156
0.001596
0.001223
0.001022
0.000919
0.000843
0.000745
0.000586
0.000332
0.000003
-0.000309
-0.000470
-0.000345
0.000205
0.001315
0.003039
0.005290
0.007895
0.010677
0.013456
0.016015
0.018122
0.019612
0.020432
0.020627
0.020326
0.019724
0.019015
0.018328
0.017721
0.017179
0.016568
0.015601
0.013930
0.011324
0.007782
0.003499
-0.001265
-0.006281
-0.011342
-0.016207
-0.020594
-0.024227
-0.026917
-0.028613
-0.029358
-0.029249
-0.028463
-0.027303
-0.026153
-0.025318
-0.024887
-0.024707
-0.024467
-0.023812
-0.022432
-0.020155
-0.017014
-0.013243
-0.009238
-0.005472
-0.002354
-0.000065
0.001494
0.002601
0.003588
0.004752
0.006291
0.008268
0.010635
0.013251
0.015834
0.017952
0.019164
0.019226
0.018201
0.016427
0.014391
0.012572
0.011311
0.010773
0.010966
0.011739
0.012775
0.013626
0.013862
0.013208
0.011585
0.009036
0.005707
0.001923
-0.001793
-0.004871
-0.006942
-0.007998
-0.008357
-0.008466
-0.008684
-0.009176
-0.009963
-0.010999
-0.012152
-0.013172
-0.013753
-0.013670
-0.012831
-0.011245
-0.009043
-0.006540
-0.004193
-0.002401
-0.001337
-0.000928
-0.000957
-0.001215
-0.001620
-0.002244
-0.003192
-0.004442
-0.005829
-0.007167
-0.008369
-0.009437
-0.010389
-0.011223
-0.011922
-0.012477
-0.012908
-0.013290
-0.013715
-0.014233
-0.014836
-0.015470
-0.016024
-0.016310
-0.016104
-0.015213
-0.013519
-0.011046
-0.008010
-0.004805
-0.001874
0.000440
0.001979
0.002780
0.003038
0.003065
0.003244
0.003970
0.005541
0.008033
0.011235
0.014737
0.018125
0.021118
0.023581
0.025480
0.026875
0.027914
0.028752
0.029435
0.029893
0.029984
0.029512
0.028231
0.025924
0.022544
0.018284
0.013546
0.008803
0.004458
0.000774
-0.002173
-0.004483
-0.006383
-0.008144
-0.009980
-0.011951
-0.013925
-0.015646
-0.016834
-0.017254
-0.016774
-0.015394
-0.013263
-0.010621
-0.007728
-0.004838
-0.002196
0.000023
0.001811
0.003337
0.004811
0.006337
0.007907
0.009442
0.010871
0.012220
0.013619
0.015168
0.016803
0.018321
0.019490
0.020072
0.019768
0.018261
0.015392
0.011312
0.006477
0.001499
-0.003037
-0.006695
-0.009283
-0.010908
-0.011954
-0.012989
-0.014569
-0.016954
-0.019931
-0.022923
-0.025309
-0.026680
-0.026907
-0.026117
-0.024633
-0.022864
-0.021190
-0.019899
-0.019131
-0.018809
-0.018599
-0.018004
-0.016591
-0.014182
-0.010930
-0.007279
-0.003819
-0.001072
0.000743
0.001792
0.002501
0.003367
0.004815
0.007095
0.010222
0.013975
0.017933
0.021549
0.024319
0.025985
0.026614
0.026466
0.025802
0.024776
0.023473
0.021967
0.020326
0.018551
0.016523
0.013999
0.010689
0.006411
0.001253
-0.004385
-0.009893
-0.014637
-0.018128
-0.020112
-0.020591
-0.019771
-0.018025
-0.015876
-0.013925
-0.012652
-0.012223
-0.012444
-0.012864
-0.012930
-0.012119
-0.010079
-0.006784
-0.002593
0.001860
0.005878
0.008911
0.010697
0.011259
0.010797
0.009563
0.007849
0.005996
0.004337
0.003058
0.002097
0.001171
-0.000079
-0.001930
-0.004424
-0.007337
-0.010277
-0.012840
-0.014702
-0.015662
-0.015647
-0.014709
-0.013004
-0.010764
-0.008233
-0.005611
-0.003017
-0.000474
0.002091
0.004822
0.007897
0.011442
0.015448
0.019735
0.023987
0.027807
0.030775
0.032516
0.032812
0.031681
0.029376
0.026343
0.023152
0.020346
0.018218
0.016668
0.015289
0.013603
0.011260
0.008116
0.004209
-0.000287
-0.005113
-0.009982
-0.014573
-0.018546
-0.021643
-0.023790
-0.025115
-0.025867
-0.026293
-0.026550
-0.026653
-0.026486
-0.025890
-0.024747
-0.023001
-0.020624
-0.017633
-0.014131
-0.010291
-0.006280
-0.002224
0.001770
0.005646
0.009479
0.013463
0.017722
0.022135
0.026306
0.029729
0.031975
0.032828
0.032293
0.030517
0.027724
0.024223
0.020385
0.016501
0.012651
0.008729
0.004579
0.000086
-0.004803
-0.010061
-0.015516
-0.020823
-0.025534
-0.029236
-0.031695
-0.032923
-0.033112
-0.032501
-0.031290
-0.029642
-0.027709
-0.025625
-0.023487
-0.021372
-0.019352
-0.017450
-0.015590
-0.013627
-0.011438
-0.009014
-0.006483
-0.004054
-0.001935
-0.000264
0.000939
0.001775
0.002429
0.003126
0.004112
0.005637
0.007892
0.010925
0.014582
0.018468
0.022013
0.024652
0.026031
0.026095
0.025046
0.023249
0.021111
0.018959
0.016932
0.014971
0.012915
0.010605
0.007942
0.004946
0.001813
-0.001115
-0.003478
-0.005059
-0.005876
-0.006168
-0.006264
-0.006389
-0.006563
-0.006638
-0.006369
-0.005438
-0.003491
-0.000285
0.004147
0.009423
0.014885
0.019749
0.023295
0.025070
0.025021
0.023486
0.021081
0.018535
0.016484
0.015286
0.014916
0.015020
0.015040
0.014365
0.012532
0.009462
0.005545
0.001480
-0.002015
-0.004410
-0.005466
-0.005259
-0.004157
-0.002695
-0.001396
-0.000624
-0.000533
-0.001034
-0.001792
-0.002311
-0.002112
-0.000918
0.001221
0.003931
0.006637
0.008797
0.010105
0.010543
0.010305
0.009699
0.009042
0.008525
0.008106
0.007528
0.006430
0.004466
0.001412
-0.002726
-0.007648
-0.012807
-0.017524
-0.021110
-0.023013
-0.022991
-0.021215
-0.018224
-0.014769
-0.011633
-0.009457
-0.008585
-0.008999
-0.010386
-0.012291
-0.014250
-0.015871
-0.016889
-0.017226
-0.016980
-0.016330
-0.015451
-0.014482
-0.013517
-0.012581
-0.011643
-0.010658
-0.009582
-0.008401
-0.007171
-0.006008
-0.004981
-0.003995
-0.002786
-0.001078
0.001228
0.003977
0.006834
0.009438
0.011514
0.012876
0.013375
0.012873
0.011332
0.008921
0.006013
0.003060
0.000493
-0.001318
-0.002117
-0.001824
-0.000528
0.001558
0.004132
0.006846
0.009343
0.011282
0.012361
0.012394
0.011423
0.009730
0.007703
0.005656
0.003782
0.002218
0.001052
0.000237
-0.000445
-0.001280
-0.002449
-0.003906
-0.005373
-0.006505
-0.007092
-0.007149
-0.006841
-0.006397
-0.006087
-0.006165
-0.006729
-0.007589
-0.008341
-0.008582
-0.008103
-0.006914
-0.005185
-0.003187
-0.001217
0.000445
0.001570
0.002018
0.001831
0.001285
0.000776
0.000627
0.000952
0.001628
0.002348
0.002741
0.002537
0.001671
0.000280
-0.001363
-0.002926
-0.004138
-0.004898
-0.005302
-0.005546
-0.005814
-0.006214
-0.006732
-0.007202
-0.007335
-0.006820
-0.005458
-0.003256
-0.000458
0.002484
0.004990
0.006536
0.006841
0.005930
0.004093
0.001797
-0.000407
-0.002039
-0.002838
-0.002815
-0.002188
-0.001277
-0.000416
0.000180
0.000506
0.000741
0.001119
0.001830
0.002967
0.004493
0.006251
0.008048
0.009757
0.011320
0.012701
0.013861
0.014760
0.015378
0.015745
0.015954
0.016112
0.016255
0.016343
0.016339
0.016238
0.015999
0.015487
0.014561
0.013213
0.011588
0.009882
0.008234
0.006706
0.005295
0.003990
0.002829
0.001898
0.001266
0.000918
0.000752
0.000603
0.000293
-0.000300
-0.001157
-0.002100
-0.002915
-0.003515
-0.003950
-0.004303
-0.004631
-0.004987
-0.005445
-0.006058
-0.006794
-0.007500
-0.007916
-0.007756
-0.006847
-0.005218
-0.003083
-0.000759
0.001387
0.002992
0.003801
0.003756
0.002986
0.001730
0.000284
-0.001051
-0.002031
-0.002555
-0.002679
-0.002562
-0.002397
-0.002379
-0.002686
-0.003435
-0.004675
-0.006397
-0.008507
-0.010808
-0.013077
-0.015171
-0.017047
-0.018671
-0.019954
-0.020773
-0.021055
-0.020820
-0.020200
-0.019414
-0.018672
-0.018059
-0.017516
-0.016869
-0.015880
-0.014349
-0.012246
-0.009743
-0.007105
-0.004537
-0.002134
0.000055
0.001968
0.003532
0.004725
0.005643
0.006505
0.007545
0.008826
0.010136
0.011096
0.011374
0.010812
0.009424
0.007346
0.004799
0.002029
-0.000734
-0.003293
-0.005489
-0.007249
-0.008654
-0.009912
-0.011258
-0.012854
-0.014752
-0.016847
-0.018885
-0.020549
-0.021576
-0.021795
-0.021112
-0.019527
-0.017155
-0.014207
-0.010908
-0.007453
-0.003995
-0.000606
0.002748
0.006159
0.009675
0.013227
0.016611
0.019509
0.021594
0.022677
0.022796
0.022152
0.020976
0.019467
0.017807
0.016142
0.014540
0.012965
0.011288
0.009336
0.007000
0.004344
0.001636
-0.000776
-0.002624
-0.003815
-0.004420
-0.004627
-0.004704
-0.004909
-0.005379
-0.006063
-0.006740
-0.007060
-0.006636
-0.005186
-0.002700
0.000523
0.003980
0.007133
0.009554
0.011032
0.011598
0.011469
0.010950
0.010352
0.009898
0.009620
0.009348
0.008792
0.007656
0.005745
0.003026
-0.000296
-0.003769
-0.006803
-0.008906
-0.009836
-0.009624
-0.008520
-0.006897
-0.005108
-0.003382
-0.001800
-0.000304
0.001261
0.003053
0.005095
0.007219
0.009152
0.010670
0.011653
0.012059
0.011917
0.011369
0.010657
0.010055
0.009778
0.009915
0.010372
0.010863
0.010999
0.010438
0.008993
0.006685
0.003772
0.000685
-0.002157
-0.004530
-0.006441
-0.008061
-0.009645
-0.011492
-0.013846
-0.016761
-0.020047
-0.023318
-0.026109
-0.028017
-0.028826
-0.028562
-0.027428
-0.025698
-0.023645
-0.021505
-0.019407
-0.017325
-0.015109
-0.012581
-0.009617
-0.006198
-0.002444
0.001380
0.004954
0.008002
0.010347
0.011926
0.012817
0.013230
0.013432
0.013670
0.014142
0.014993
0.016284
0.017958
0.019874
0.021874
0.023803
0.025502
0.026845
0.027765
0.028249
0.028298
0.027924
0.027146
0.025972
0.024391
0.022419
0.020136
0.017661
0.015114
0.012629
0.010367
0.008464
0.006980
0.005908
0.005214
0.004828
0.004628
0.004460
0.004175
0.003632
0.002717
0.001391
-0.000279
-0.002151
-0.004061
-0.005851
-0.007370
-0.008528
-0.009331
-0.009824
-0.010024
-0.009911
-0.009482
-0.008762
-0.007755
-0.006432
-0.004780
-0.002839
-0.000707
0.001468
0.003516
0.005298
0.006772
0.007990
0.009062
0.010131
0.011359
0.012850
0.014582
0.016406
0.018127
0.019561
0.020605
0.021286
0.021750
0.022174
0.022718
0.023502
0.024578
0.025856
0.027079
0.027900
0.028015
0.027232
0.025493
0.022910
0.019784
0.016499
0.013389
0.010665
0.008420
0.006652
0.005264
