     0.01000000      -1.569280       1.520640       1.000000      -12345.00
       9.459999       19.46000      -43.20000       10.47000       2.000000
      -12345.00      -12345.00      -12345.00      -12345.00      -12345.00
      -12345.00      -12345.00      -12345.00      -12345.00      -12345.00
       17.78000      -12345.00      -12345.00      -12345.00      -12345.00
      -12345.00      -12345.00      -12345.00      -12345.00      -12345.00
      -12345.00       48.00000      -120.0000      -12345.00      -12345.00
       48.00000      -125.0000      -12345.00       0.000000      -12345.00
      -12345.00      -12345.00      -12345.00      -12345.00      -12345.00
      -12345.00      -12345.00      -12345.00      -12345.00      -12345.00
       373.0627       88.14721       271.8528       3.357465      -12345.00
      -12345.00    -0.09854718       0.000000       0.000000      -12345.00
      -12345.00      -12345.00      -12345.00      -12345.00      -12345.00
      -12345.00      -12345.00      -12345.00      -12345.00      -12345.00
      1981        88        10        38        14
         0         6         0         0      1000
    -12345    -12345    -12345    -12345    -12345
         1        50         9    -12345    -12345
    -12345    -12345        42    -12345    -12345
    -12345    -12345    -12345    -12345    -12345
    -12345    -12345    -12345    -12345    -12345
         1         1         1         1    -12345
CDV      K8108838       
-12345  -12345  -12345  
-12345  -12345  -12345  
-12345  -12345  -12345  
-12345  -12345  -12345  
-12345  -12345  -12345  
-12345  -12345  -12345  
-12345  -12345  -12345  
    -0.09728001    -0.09728001    -0.09856002    -0.09856002    -0.09728001
    -0.09600000    -0.09472002    -0.09344001    -0.09344001    -0.09344001
    -0.09344001    -0.09344001    -0.09472002    -0.09472002    -0.09344001
    -0.09344001    -0.09216000    -0.09216000    -0.09216000    -0.09216000
    -0.09088002    -0.09088002    -0.09216000    -0.09344001    -0.09472002
    -0.09472002    -0.09472002    -0.09472002    -0.09472002    -0.09472002
    -0.09344001    -0.09344001    -0.09216000    -0.09088002    -0.09088002
    -0.09216000    -0.09216000    -0.09216000    -0.09344001    -0.09472002
    -0.09600000    -0.09856002    -0.09856002    -0.09856002    -0.09728001
    -0.09728001    -0.09856002    -0.09984000    -0.09984000    -0.09984000
    -0.09984000    -0.09984000     -0.1011200     -0.1011200     -0.1011200
     -0.1011200     -0.1024000     -0.1024000     -0.1036800     -0.1024000
     -0.1049600     -0.1049600     -0.1062400     -0.1036800     -0.1036800
     -0.1024000     -0.1036800     -0.1036800     -0.1036800     -0.1036800
     -0.1049600     -0.1062400     -0.1062400     -0.1049600     -0.1036800
     -0.1036800     -0.1049600     -0.1062400     -0.1049600     -0.1049600
     -0.1049600     -0.1062400     -0.1088000     -0.1088000     -0.1088000
     -0.1088000     -0.1088000     -0.1062400     -0.1049600     -0.1049600
     -0.1049600     -0.1062400     -0.1062400     -0.1062400     -0.1036800
     -0.1036800     -0.1036800     -0.1036800     -0.1024000     -0.1011200
     -0.1049600     -0.1177600     -0.1587200     -0.2816001     -0.5580802
     -0.9113600     -0.9958402     -0.5286400      0.3481600       1.130240
       1.264640      0.6758398    -0.07168002     -0.3699200     -0.2009600
     0.01920000     0.04352000    -0.03840000    -0.09088002     -0.1536000
     -0.2854400     -0.3520001     -0.1638400      0.1190400     0.02048000
     -0.6080000      -1.236480      -1.208320     -0.4876800      0.3097600
      0.5849600      0.3328000     0.01024000    -0.03328000      0.1574400
      0.3430400      0.3379200     0.06911999     -0.3340800     -0.5580802
     -0.3699200     0.09983999      0.4262400      0.3046399     -0.1420800
     -0.5350400     -0.6336001     -0.4940800     -0.3315200     -0.2777600
     -0.2598400     -0.1433600     0.03839999      0.1305600     0.04991999
     -0.1459200     -0.2752000     -0.1945600     0.05248000      0.2406400
      0.1638400     -0.1267200     -0.3276801     -0.1766400      0.2419200
      0.5439998      0.4377599     0.06271999     -0.1740800     -0.1228800
    -0.06528002     -0.3059200     -0.7155200     -0.8806400     -0.6105602
     -0.1523200     0.08192000    -0.04224000     -0.3084800     -0.5017600
     -0.5900800     -0.5632001     -0.3174400      0.1574400      0.6015998
      0.6681600      0.3161600     -0.1318400     -0.3328000     -0.2035200
      0.1139200      0.4044800      0.4812800      0.2598400     -0.1510400
     -0.4864000     -0.5491202     -0.3136000      0.1126400      0.5951998
      0.9113598      0.7628800     0.07295999     -0.7795200      -1.256960
      -1.125120     -0.5542401     0.06400000      0.3545600      0.1920000
     -0.2278400     -0.5696001     -0.6438402     -0.4838400     -0.2483200
     -0.1100800     -0.1600000     -0.3225600     -0.4108800     -0.2316800
      0.2803200      0.9369599       1.341440       1.210880      0.6003200
     -0.1766400     -0.7321602     -0.8460802     -0.6272000     -0.3737600
     -0.3033600     -0.4160000     -0.6003201     -0.7385602     -0.7232002
     -0.4940800     -0.1574400     0.09728000      0.2265600      0.3519999
      0.5491198      0.7526399      0.8460798      0.7372799      0.4096000
    -0.04096001     -0.4505600     -0.7244800     -0.9164802      -1.094400
      -1.245440      -1.295360      -1.180160     -0.8806400     -0.4774401
    -0.09088002      0.2342400      0.5529598      0.8588798       1.007360
      0.8831998      0.5695999      0.2675200     0.09215999    -0.01152000
     -0.1587200     -0.4032000     -0.7116802     -0.9830401      -1.061120
     -0.8358401     -0.3571200      0.1600000      0.5286398      0.7308798
      0.8985598       1.131520       1.314560       1.213440      0.6835200
     -0.1728000     -0.9984002      -1.402880      -1.245440     -0.7040001
    -0.08704002      0.3699200      0.5785599      0.5260799      0.2931200
   -0.001280000     -0.2688000     -0.4992000     -0.7129600     -0.8998401
      -1.027840      -1.076480      -1.025280     -0.8460802     -0.5260800
     -0.1459200      0.1203200      0.1433600    0.007680000    -0.04480001
      0.1446400      0.5273600      0.9535998       1.310720       1.520640
       1.492480       1.173760      0.6438400     0.09855998     -0.3276801
     -0.5964800     -0.7360002     -0.8371202      -1.002240      -1.263360
      -1.511680      -1.569280      -1.350400     -0.9420800     -0.5158402
     -0.1740800      0.1267200      0.4684799      0.8204799       1.036800
      0.9651200      0.5977600      0.1100800     -0.2521600     -0.3494400
     -0.2380800     -0.1011200     -0.1126400     -0.2867200     -0.4748800
     -0.5043200     -0.3033600     0.02816000      0.3020800      0.3839999
      0.2956800      0.1548800     0.05759998   -0.006400000     -0.1088000
     -0.2649601     -0.4006400     -0.4454401     -0.4057600     -0.3596801
     -0.3481600     -0.3251200     -0.2137600   -0.006400000      0.2060800
      0.3033600      0.2457600      0.1062400   -0.001280000    -0.02176000
     0.02432000     0.07295999     0.07807997     0.05632000     0.07807997
      0.1472000      0.1766400     0.07551998     -0.1356800     -0.3417600
     -0.4147201     -0.3353601     -0.2048000     -0.1600000     -0.2508800
     -0.3891200     -0.4569600     -0.4121600     -0.3174400     -0.2611200
     -0.2560000     -0.2470400     -0.1612800     0.02176000      0.2521600
      0.4300799      0.4736000      0.3801600      0.2009600    -0.01408000
     -0.2163200     -0.3571200     -0.4044800     -0.3673601     -0.2675200
     -0.1344000   -0.007680001     0.06144000     0.06271999     0.03839999
     0.03200000     0.04736000     0.04991999    0.005120000    -0.07680000
     -0.1420800     -0.1459200    -0.09728001    -0.06400001     -0.1036800
     -0.1945600     -0.2841600     -0.3340800     -0.3622400     -0.3776000
     -0.3584000     -0.2700800     -0.1216000     0.02944000      0.1216000
      0.1228800     0.05887999    -0.02688000     -0.1011200     -0.1408000
     -0.1523200     -0.1497600     -0.1433600     -0.1356800     -0.1177600
    -0.09600000    -0.09600000     -0.1344000     -0.1932800     -0.2368000
     -0.2406400     -0.2176000     -0.1779200     -0.1254400    -0.05888000
     0.01280000     0.06784000     0.08192000     0.04480000    -0.03200001
     -0.1305600     -0.2240000     -0.2880000     -0.3020800     -0.2854400
     -0.2649601     -0.2521600     -0.2201600     -0.1382400   -0.006400000
      0.1254400      0.2086400      0.2304000      0.2240000      0.2112000
      0.1779200     0.09087998    -0.04352000     -0.1664000     -0.2112000
     -0.1715200     -0.1190400     -0.1318400     -0.2265600     -0.3328000
     -0.3648000     -0.2995200     -0.1958400     -0.1331200     -0.1484800
     -0.2124800     -0.2521600     -0.2137600     -0.1139200    -0.01280000
     0.03711998     0.04352000     0.05887999      0.1292800      0.2368000
      0.3238400      0.3315200      0.2624000      0.1587200     0.07551998
     0.01920000    -0.03840000     -0.1241600     -0.2342400     -0.3302400
     -0.3814400     -0.3955200     -0.3980801     -0.4057600     -0.4147201
     -0.4147201     -0.3827201     -0.3072000     -0.2099200     -0.1305600
    -0.09088002    -0.07680000    -0.05760001    -0.03456000    -0.02560000
    -0.04608000    -0.09856002     -0.1574400     -0.1868800     -0.1753600
     -0.1382400     -0.1100800     -0.1139200     -0.1395200     -0.1612800
     -0.1612800     -0.1395200     -0.1036800    -0.06144001    -0.02176000
     0.01280000     0.03839999     0.05119999     0.04352000     0.01792000
   -0.005120001    -0.01024000    0.002560000     0.01536000     0.01280000
    0.001280000   -0.006400000    -0.01536000    -0.03840000    -0.08832000
     -0.1484800     -0.1843200     -0.1651200     -0.1049600    -0.03840000
   -0.006400000    -0.02048000    -0.06272000     -0.1126400     -0.1612800
     -0.2073600     -0.2393600     -0.2598400     -0.2662400     -0.2624000
     -0.2419200     -0.2060800     -0.1587200     -0.1139200    -0.08576001
    -0.07040001    -0.04480001       0.000000     0.04991999     0.06527998
     0.03455999    -0.02048000    -0.06912000     -0.1024000     -0.1241600
     -0.1420800     -0.1574400     -0.1676800     -0.1792000     -0.1907200
     -0.2035200     -0.2124800     -0.2201600     -0.2163200     -0.1920000
     -0.1472000    -0.09600000    -0.05760001    -0.03328000    -0.02048000
    -0.01024000   -0.007680001    -0.01536000    -0.02944000    -0.03968000
    -0.03712001    -0.02816000    -0.02944000    -0.05376001     -0.1036800
     -0.1587200     -0.1984000     -0.2099200     -0.1881600     -0.1523200
     -0.1113600    -0.08064000    -0.06144001    -0.05632000    -0.06400001
    -0.07680000    -0.08832000    -0.09216000    -0.09216000    -0.09344001
    -0.09984000     -0.1088000     -0.1075200    -0.08448000    -0.04864001
    -0.02048000    -0.02048000    -0.04608000    -0.07936002    -0.09984000
     -0.1036800     -0.1011200     -0.1113600     -0.1408000     -0.1817600
     -0.2163200     -0.2368000     -0.2444800     -0.2496000     -0.2483200
     -0.2291200     -0.1843200     -0.1267200    -0.08064000    -0.05632000
    -0.04864001    -0.04224000    -0.03712001    -0.03712001    -0.04736000
    -0.06400001    -0.08320002    -0.09856002     -0.1036800    -0.09856002
    -0.08448000    -0.07680000    -0.07936002    -0.09728001     -0.1228800
     -0.1408000     -0.1459200     -0.1433600     -0.1382400     -0.1395200
     -0.1472000     -0.1612800     -0.1817600     -0.1945600     -0.1907200
     -0.1689600     -0.1344000     -0.1024000    -0.08064000    -0.07296000
    -0.06784002    -0.05632000    -0.04224000    -0.03200001    -0.03200001
    -0.04224000    -0.04864001    -0.04224000    -0.02688000    -0.01408000
    -0.01792000    -0.04224000    -0.07936002     -0.1190400     -0.1548800
     -0.1792000     -0.1830400     -0.1676800     -0.1382400     -0.1088000
    -0.09216000    -0.09344001     -0.1049600     -0.1139200     -0.1088000
    -0.09344001    -0.07680000    -0.07552002    -0.08832000     -0.1036800
     -0.1062400    -0.09728001    -0.09600000     -0.1139200     -0.1484800
     -0.1766400     -0.1830400     -0.1651200     -0.1433600     -0.1331200
     -0.1369600     -0.1369600     -0.1152000    -0.07168002    -0.02176000
    0.008959997     0.01536000    0.003840000   -0.005120001   -0.007680001
   -0.007680001    -0.01664000    -0.03840000    -0.06528002    -0.08576001
    -0.09856002     -0.1088000     -0.1241600     -0.1395200     -0.1446400
     -0.1318400     -0.1113600    -0.09472002    -0.08448000    -0.07936002
    -0.07680000    -0.07680000    -0.08064000    -0.09344001     -0.1075200
     -0.1228800     -0.1318400     -0.1318400     -0.1267200     -0.1216000
     -0.1190400     -0.1113600    -0.09984000    -0.08960001    -0.08832000
    -0.09600000     -0.1049600     -0.1036800    -0.09600000    -0.08832000
    -0.09216000    -0.09856002    -0.09984000    -0.09344001    -0.08576001
    -0.08448000    -0.09088002    -0.09856002     -0.1011200    -0.09472002
    -0.08192001    -0.07040001    -0.06400001    -0.06528002    -0.06912000
    -0.07424001    -0.07936002    -0.08448000    -0.09088002    -0.09088002
    -0.08320002    -0.07296000    -0.06272000    -0.06400001    -0.07808001
    -0.09984000     -0.1203200     -0.1331200     -0.1408000     -0.1433600
     -0.1446400     -0.1459200     -0.1497600     -0.1536000     -0.1536000
     -0.1472000     -0.1382400     -0.1344000     -0.1331200     -0.1344000
     -0.1331200     -0.1292800     -0.1241600     -0.1216000     -0.1190400
     -0.1177600     -0.1152000     -0.1088000    -0.09728001    -0.07552002
    -0.04992000    -0.02944000    -0.02688000    -0.03968000    -0.06272000
    -0.07808001    -0.07552002    -0.05888000    -0.04608000    -0.04352000
    -0.05376001    -0.06528002    -0.07296000    -0.07552002    -0.07680000
    -0.07680000    -0.07168002    -0.06400001    -0.06144001    -0.06784002
    -0.07936002    -0.09344001     -0.1036800     -0.1062400     -0.1088000
     -0.1164800     -0.1254400     -0.1305600     -0.1241600     -0.1100800
    -0.09856002    -0.09344001    -0.09728001     -0.1011200     -0.1024000
    -0.09984000    -0.09856002     -0.1036800     -0.1113600     -0.1190400
     -0.1228800     -0.1190400     -0.1126400     -0.1062400     -0.1024000
    -0.09984000    -0.09856002    -0.09344001    -0.08448000    -0.07680000
    -0.07296000    -0.06784002    -0.06400001    -0.06016000    -0.06400001
    -0.07552002    -0.08832000    -0.09984000     -0.1049600     -0.1075200
     -0.1126400     -0.1203200     -0.1216000     -0.1177600     -0.1088000
     -0.1024000    -0.09984000     -0.1011200     -0.1024000     -0.1049600
     -0.1075200     -0.1164800     -0.1305600     -0.1433600     -0.1548800
     -0.1587200     -0.1612800     -0.1638400     -0.1702400     -0.1792000
     -0.1856000     -0.1856000     -0.1817600     -0.1766400     -0.1702400
     -0.1625600     -0.1523200     -0.1369600     -0.1190400     -0.1049600
    -0.09600000    -0.09600000     -0.1011200     -0.1062400     -0.1049600
    -0.09600000    -0.08448000    -0.07680000    -0.07168002    -0.07168002
    -0.06912000    -0.06400001    -0.06144001    -0.06656000    -0.07808001
    -0.08832000    -0.09472002    -0.09600000    -0.09216000    -0.08448000
    -0.07680000    -0.07168002    -0.07040001    -0.07168002    -0.07552002
    -0.07936002    -0.09088002     -0.1088000     -0.1292800     -0.1433600
     -0.1420800     -0.1292800     -0.1088000    -0.09088002    -0.07808001
    -0.07040001    -0.06912000    -0.07040001    -0.07296000    -0.07424001
    -0.07680000    -0.07936002    -0.08576001    -0.09088002    -0.09216000
    -0.08704002    -0.07680000    -0.06400001    -0.05376001    -0.05376001
    -0.05888000    -0.06656000    -0.07296000    -0.07680000    -0.07808001
    -0.08064000    -0.08192001    -0.07936002    -0.07296000    -0.06656000
    -0.06400001    -0.07040001    -0.08064000    -0.09216000     -0.1011200
     -0.1049600     -0.1049600     -0.1036800     -0.1036800     -0.1062400
     -0.1113600     -0.1152000     -0.1113600     -0.1024000    -0.09216000
    -0.08576001    -0.08448000    -0.08704002    -0.09216000    -0.09728001
     -0.1011200     -0.1049600     -0.1062400     -0.1088000     -0.1100800
     -0.1075200     -0.1062400     -0.1062400     -0.1100800     -0.1177600
     -0.1228800     -0.1241600     -0.1203200     -0.1088000    -0.09600000
    -0.07936002    -0.06656000    -0.05760001    -0.05376001    -0.05504000
    -0.06016000    -0.06656000    -0.07168002    -0.07680000    -0.07680000
