BEGIN GSE2.0
MSG_TYPE DATA
MSG_ID example  GSE_IDC
E-MAIL
DATA_TYPE BULLETIN
Reviewed Bulletin (REB) # GSE_IDC for January 16, 1995
EVENT     280435
    Date      Time       Latitude Longitude    Depth    Ndef Nsta Gap    Mag1  N    Mag2  N    Mag3  N   Author         ID
       rms   OT_Error      Smajor Sminor Az        Err   mdist  Mdist     Err        Err        Err      Quality

1995/01/16 07:26:52.4     39.4500   20.4400     66.8       9    8 322  mb 3.6  3  ML 4.0  1              bulletin    282672
                                                                                                         _test
      0.55   +- 12.69      93.6   83.7   27.05 +- 83.8   10.56  78.21   +-0.2      +-0.1                 m i ke

GREECE-ALBANIA BORDER REGION
Sta     Dist  EvAz     Phase      Date       Time     TRes  Azim  AzRes  Slow  SRes Def   SNR       Amp   Per   Mag1   Mag2       ID
GERES 010.56 150.3 m E Pg      1995/01/16 07:29:20.7  -0.2                          T                                        3586432
GERES 010.56 150.3 m E S       1995/01/16 07:31:17.5  -0.6                          T                2.9  .62        Md 4.0  3586513
NORES 022.02 161.4 m E Pg      1995/01/16 07:31:41.2   0.3                          T                                        3586453
FINES 022.29 191.6 m E Pg      1995/01/16 07:31:44.1   0.2                          T                4.5  .80        Md 3.4  3586555
ARCES 030.27 187.8 m E P       1995/01/16 07:32:57.8   1.2                          T                                        3586456
MBC   061.77 034.6 m E P       1995/01/16 07:37:03.8   0.5                          T                0.3  .41                3586481
FCC   068.12 049.4 m E P       1995/01/16 07:37:45.3   0.4                          T                                        3604094
YKA   072.17 035.1 m E P       1995/01/16 07:38:09.5  -0.1                          T                1.5  .29 Ml 3.3         3604095
WHY   078.21 019.3 m E P       1995/01/16 07:38:44.0  -0.5                          T                                        3604093

.
EVENT     280436
    Date      Time       Latitude Longitude    Depth    Ndef Nsta Gap    Mag1  N    Mag2  N    Mag3  N   Author         ID
       rms   OT_Error      Smajor Sminor Az        Err   mdist  Mdist     Err        Err        Err      Quality

1995/01/16 07:27:07.3     50.7721 -129.7602     36.7 f    20    7 252  Ml 1.2  2  Md 1.3  2              bulletin    281990
                                                                                                         _test
      0.79   +-  9.63     129.3     .9   37.40 +-  0.0   10.32  25.90   +-0.1      +-0.1                 m i ke

VANCOUVER ISLAND REGION
Sta     Dist  EvAz     Phase      Date       Time     TRes  Azim  AzRes  Slow  SRes Def   SNR       Amp   Per   Mag1   Mag2       ID
WHY   010.32 161.5 m E Pn      1995/01/16 07:29:33.7   0.8                          T                                        3586419
WALA  010.37 285.5 m E Pn      1995/01/16 07:29:34.0   0.4                          T               11.2  .52        Md 4.3  3586401
YKA   014.35 222.0 m E Pn      1995/01/16 07:30:26.6  -1.3                          T                                        3586540
INK   017.69 172.1 m E Pn      1995/01/16 07:31:10.7   0.0                          T                 .8  .18        Md 4.2  3604812
ULM   021.45 284.5 m E P       1995/01/16 07:31:51.1  -1.0                          T                                        3586452
FCC   021.85 264.2 m E P       1995/01/16 07:31:56.6   0.3                          T                1.7  .26 Ml 3.3         3604813
MBC   025.90 195.2 m E P       1995/01/16 07:32:34.5  -0.8                          T                                        3586477

.

DATA_TYPE ARRIVAL
Sta     Dist  EvAz     Phase      Date       Time     TRes  Azim  AzRes  Slow  SRes Def   SNR       Amp   Per   Mag1   Mag2       ID

STOP
