NLLOC "./loc/rhur.20060715.172120.grid0" "LOCATED" "Location completed."
SIGNATURE "Claudio Satriano   NLLoc:v6.02.07 21Jun2013 12h53m34"
COMMENT "Rhur"
GRID  105 105 55  -5 -5 -0.5  0.1 0.1 0.1 PROB_DENSITY
SEARCH OCTREE nInitial 1000 nEvaluated 100000 smallestNodeSide 0.032500/0.032500/0.017188 oct_tree_integral 1.424956e+00 scatter_volume 1.421610e+00
HYPOCENTER  x -0.40125 y 0.15125 z 1.43359  OT 20.1957  ix -1 iy -1 iz -1
GEOGRAPHIC  OT 2006 07 15  17 21 20.195670  Lat 51.657659 Long 7.736781 Depth 1.43359
QUALITY  Pmax 4.87214e+31 MFmin 27.4969 MFmax 27.5282 RMS 0.00394121 Nphs 11 Gap 156.347 Dist 0.366883 Mamp  -9.9 0 Mdur  -9.9 0
VPVSRATIO  VpVsRatio -1  Npair 0  Diff -2e+30
STATISTICS  ExpectX -1.32658 Y -0.0487098 Z 3.12781  CovXX 1.21008 XY 0.238028 XZ -0.486034 YY 0.648388 YZ -0.0503814 ZZ 1.33155 EllAz1  331.493 Dip1  -13.2202 Len1  1.37113 Az2  229.814 Dip2  -40.7512 Len2  1.74531 Len3  2.516878e+00
STAT_GEOG  ExpectLat 51.655861 Long 7.723410 Depth 3.127808
TRANSFORM  LAMBERT RefEllipsoid Clarke-1880  LatOrig 51.656300  LongOrig 7.742580  FirstStdParal 50.000000  SecondStdParal 52.000000  RotCW 0.000000
QML_OriginQuality  assocPhCt 5  usedPhCt 5  assocStaCt -1  usedStaCt 5  depthPhCt -1  stdErr 0.00394121  azGap 156.347  secAzGap 227.423  gtLevel -  minDist 0.366883 maxDist 1.62124 medDist 0.892527
QML_OriginUncertainty  horUnc -1  minHorUnc 1.136  maxHorUnc 1.72742  azMaxHorUnc 69.8588
FOCALMECH  Hyp  51.657659 7.736781 1.433594 Mech  0 0 0 mf  0 nObs 0
PHASE ID Ins Cmp On Pha  FM Date     HrMn   Sec     Err  ErrMag    Coda      Amp       Per  >   TTpred    Res       Weight    StaLoc(X  Y         Z)        SDist    SAzim  RAz  RDip RQual    Tcorr
HM02   ?    HHZ  I P      U 20060715 1721     20.63 GAU      0.05        -1        -1        -1 >    0.4399   -0.0076    0.9958   -0.0554    0.0289    0.0000    0.3669 109.48 359.0  -1.0  0     0.0000
HM04   ?    HHZ  I P      U 20060715 1721     20.64 GAU      0.05        -1        -1        -1 >    0.4396    0.0025    1.0009   -0.3114    0.5196    0.0000    0.3791  13.71 359.0  -1.0  0     0.0000
HM05   ?    HHZ  I P      U 20060715 1721     20.64 GAU      0.05        -1        -1        -1 >    0.4449   -0.0009    1.0016    0.0173    0.2893    0.0000    0.4407  71.75 359.0  -1.0  0     0.0000
HM10   ?    HHZ  I P      U 20060715 1721     20.66 GAU      0.05        -1        -1        -1 >    0.4573    0.0065    0.9970   -0.6325   -0.3537    0.0000    0.5554 204.61 359.0  -1.0  0     0.0000
HM08   ?    HHZ  I P      U 20060715 1721     20.66 GAU      0.05        -1        -1        -1 >    0.4623   -0.0005    1.0016    0.2055   -0.0067    0.0000    0.6270 104.59 359.0  -1.0  0     0.0000
END_PHASE
END_NLLOC
