 2013  9 1 2040 60.1 L -43.301 170.528  9.8  VUW 15 0.2 0.9LVUW 0.7WVUW        1
 SPEC AVERAGE  MO 10.1 ST0.006 OM -0.4 f0 5.97 R0.2310 AL 0.00 WI  1.6 MW  0.7 3
 SPEC SD       MO  0.0 ST0.002 OM  0.1 f00.896 R0.0360 AL      WI      MW  0.0 3
 GAP=126        0.64       1.3     1.7  2.3 -0.9900E+00 -0.4052E+00  0.2392E+00E
 SPEC WHYMSH Z MO 10.1 ST0.008 OM -0.4 f0 7.02 R0.1919 AL 0.00 WI  1.9 MW  0.7 3
 SPEC WHYMSH Z T204058 K 0.020 GD 22.3 VS 3.64 DE 2.79 Q0400.0 QA 0.70 VS 3.64 3
 SPEC EOROSH Z MO 10.2 ST0.006 OM -0.5 f0 6.06 R0.2222 AL 0.00 WI  1.2 MW  0.7 3
 SPEC EOROSH Z T2041 1 K 0.020 GD 33.7 VS 3.64 DE 2.79 Q0400.0 QA 0.70 VS 3.64 3
 SPEC GCSZEH Z MO 10.1 ST0.003 OM -0.3 f0 4.83 R0.2788 AL 0.00 WI  1.6 MW  0.7 3
 SPEC GCSZEH Z T204057 K 0.020 GD 19.1 VS 3.64 DE 2.79 Q0400.0 QA 0.70 VS 3.64 3
 ACTION:UP  16-08-16 01:08 OP:CALU STATUS:               ID:20130901204051     I
 OLDACT:UP  15-07-03 05:18 OP:CALU STATUS:               ID:20130901204051     3
 OLDACT:REG 14-01-30 15:02 OP:SWIN STATUS:               ID:20130901195959     3
 2013-09-01-2040-11.DFDPC_039_00                                               6
 STAT SP IPHASW D HRMM SECON CODA AMPLIT PERI AZIMU VELO AIN AR TRES W  DIS CAZ7
 WZ16 EN IS       2040 55.22                             144    0.1010 5.88 175 
 WZ02 EZ IP       2040 54.02                             141    0.1110 6.36 214 
 WZ02 EE IS       2040 55.02                             141   -0.1610 6.36 214 
 WV04 S2 IP     D 2040 54.51                             129    0.2610 9.38 270 
 WV04 S2 IS       2040 55.79                             129    0.0310 9.38 270 
 WV04 S1  IAML    2040 56.27         3.6 0.11                          9.38 270 
 WV04 S2  IAML    2040 56.32         4.0 0.10                          9.38 270 
 WV02 SZ IP       2040 54.41                             129    0.1510 9.46 282 
 WV02 S2 IS       2040 55.68                             129   -0.1010 9.46 282 
 WV02 S1  IAML    2040 56.13         5.9 0.63                          9.46 282 
 WV02 S2  IAML    2040 56.14         3.9 0.11                          9.46 282 
 WZ11 HZ EP       2040 54.50                             128    0.2310 9.60 273 
 WV03 SZ IP   1   2040 54.56                             128    0.24 7 9.90 275 
 WV03 S2 IS       2040 55.71                             128   -0.1710 9.90 275 
 WZ20 EZ IP       2040 54.51                             131    0.0310 10.0  13 
 WV01 SZ IP   9 C 2040 59.65                             125    5.19 0 11.0 282 
 WV01 S1 IS   9   2041  1.12                                   -0.19 0 11.0 282 
 WZ10 HN IS       2040 56.26                             122   -0.0810 11.9 357 
 WHAT2S1 IP     C 2040 55.10                             118    0.2310 13.8 280 
 WHAT2S3 IS       2040 56.77                             118   -0.0410 13.8 280 
 GCSZ EZ IP       2040 55.52                             114    0.2510 16.4 264 
 GCSZ E2 IS       2040 57.49                             114   -0.0010 16.4 264 
 WHYM SZ IP   1   2040 56.12                             110    0.22 7 20.0 219 
 WHYM _N IS       2040 58.59                             110    0.0210 20.0 219 
 WHYM _N  IAML    2040 59.00         2.9 0.33                          20.0 219 
 WHYM _E  IAML    2040 59.06         3.6 0.43                          20.0 219 
 WZ14 EZ IP       2040 57.97                             102    0.1310 31.8  48 
 WZ14 EE IS       2041  1.32                             102   -0.5510 31.8  48 
 EORO SZ IP   1   2040 58.04                             101    0.24 7 32.2 244 
 EORO _E IS       2041  1.30                             101   -0.5010 32.2 244 
 EORO _N  IAML    2041  1.52         2.1 0.21                          32.2 244 
 EORO _E  IAML    2041  1.61         1.4 0.16                          32.2 244 
 LABE _Z IP     C 2040 58.74                             101    0.2810 35.6 220 
 LABE _N IS       2041  2.60                             101   -0.3110 35.6 220 
 LABE _E  IAML    2041  3.21         1.7 0.49                          35.6 220 
 LABE _N  IAML    2041  5.16         2.7 0.29                          35.6 220 
 MTFO _E ES       2041  6.17                              97   -0.3210 48.5 241 
                                                                                
