 2010  1 1 0216 40.6 L -43.639 170.502  0.7  VUW  7 2.7                        1
 GAP=195        6.82     114.7   101.8 70.9  0.8151E+04 -0.6394E+04 -0.5988E+04E
 ACTION:ARG 16-06-22 14:21 OP:PYTH STATUS:               ID:20100101021640     I
 2010-01-01T02:16:06.MSEED                                                     6
 STAT SP IPHASW D HRMM SECON CODA AMPLIT PERI AZIMU VELO AIN AR TRES W  DIS CAZ7
 GOVA SE  S        216 37.60                              49   -2.9910 0.08 101 
 GOVA SN  S        216 37.60                                           0.08 101 
 LABE SN  S        216 44.18                              92   -3.5210 23.1 296 
 LABE SE  S        216 44.18                                           23.1 296 
 WHYM SE  S        216 34.86                                           24.3 334 
 WHYM SN  S        216 34.86                              90   -13.2 0 24.3 334 
 EORO SZ  P        216 50.17                              89    3.1110 35.7 311 
 EORO SE  S        216 51.04                              89   -0.5610 35.7 311 
 EORO SN  S        216 51.04                                           35.7 311 
 POCR2SE  S        216 50.95                              66   -1.64 0 39.0 325 
 POCR2SN  S        216 50.95                                           39.0 325 
 FRAN S1  P        216 51.37                              66    3.6110 39.8 316 
 FRAN S2  S        216 53.16                              66    0.3510 39.8 316 
 FRAN S3  S        216 53.16                                           39.8 316 
 MTFO SN  S        216 13.58                              66   -40.1 0 42.6 289 
                                                                                
