 1990 1213 1109 19.8 LE 60.328   5.167  0.0F BER  6 1.3 5.9CBER                1
 GAP=206        1.77       4.6    18.6  0.0  0.5629E+02  0.2265E+03  0.1983E+02E
 1990 1213 1108      LE                      MDT                               1
 1990 1213 1108      LE                      MDT                             E13
 CHARGE(T):    0.200 MDT     MDT/FKS TURØY, west of SOTRA                    EC3
 ACTION:UPD 10-04-27 14:28 OP:jh   STATUS:               ID:19901213110919 L   I
                 7.1    49.2    51.7    0.0                                    5
 SOUTHERN NORWAY  (AN 1)                                                       3
   90 1213 11 8 51.4 LE                                                        1
 90121311.0851W41                                                              6
 MDT/FKS  TUR\Y, VEST AV SOTRA CA. 220KG                                       3
 STAT SP IPHASW D HRMM SECON CODA AMPLIT PERI AZIMU VELO AIN AR TRES W  DIS CAZ7
 SUE  SZ EP       11 9 33.27   47                         90   -0.1310 84.2 345 
 SUE  SZ ESG      11 9 44.19                              90    0.7410 84.2 345 
 ODD1 SZ EP       11 9 34.41   40                         90   -0.5110 93.6 119 
 HYA  SZ EP       11 9 36.21   58                         90   -1.1110  108  30 
 HYA  SZ ESG      11 9 51.69                              90    1.4310  108  30 
 BLS2 SZ IP       11 9 44.53   50                         70    0.3110  152 139 
 BLS2 SZ ISG      1110  3.18                              90    0.7610  152 139 
 NRA0     PN  3   1110  5.20                  267.3  7.1  50  2-3.92 2  353  80 
 NRA0     P   3   1110 12.10                  272.2  7.7  50  7 2.98 2  353  80 
 NRA0     SG  3   1110 53.90                  271.0  4.3  90  6-4.94 2  353  80 
 ASK  SZ IPG    C 11 9 21.88   29                         90   -0.5410 16.1   7 
 ASK  SZ ESG      11 9 23.75                              90   -0.5910 16.1   7 

