 2013  927 2226 19.4 L -43.349 170.387  6.8  VUW  9 0.2 1.3LVUW                1
 GAP= 97        0.48       1.5     1.7  4.4  0.5143E+00  0.1531E+01  0.3001E+01E
 ACTION:NEW 15- 7-15  2:14 OP:CALU STATUS:               ID:20130927222620     I
 2013-09-27-2225-39.DFDPC_027_00                                               6
 STAT SP IPHASW D HRMM SECON CODA AMPLIT PERI AZIMU VELO AIN AR TRES W  DIS CAZ7
 GCSZ SZ IP   3   2226 20.81                             131    0.02 2    6 307 
 GCSZ EZ  IAML    2226 21.64         5.2 0.34                             6 307 
 GCSZ S2 IS       2226 21.72                             131   -0.0510    6 307 
 WZ02 EN IS       2226 22.25                             124    0.0710    7  90 
 WZ04 HZ IP       2226 21.42                             118    0.0710   10 332 
 WZ04 HE IS       2226 22.98                             118    0.2810   10 332 
 WZ04 HZ  IAML    2226 23.65        32.6  0.7                            10 332 
 EORO SZ IP   1   2226 23.05                             105    0.10 7   19 244 
 EORO SZ  IAML    2226 25.22         5.0 0.39                            19 244 
 LABE SZ IP   2   2226 24.14                             105    0.25 5   24 208 
 LABE SE IS   2   2226 26.76                             105   -0.21 5   24 208 
 LABE SZ  IAML    2226 28.35         1.6 0.34                            24 208 
                                                                                
 2013  929 1236 10.4 L -43.350 170.393  7.6  VUW  9 0.2 0.9LVUW                1
 GAP=177        0.43       1.2     3.0  4.4 -0.5223E+00 -0.3782E+01  0.2618E+01E
 ACTION:NEW 15- 8-11 15:40 OP:CALU STATUS:               ID:20130929123612     I
 2013-09-29-1235-30.DFDPC_030_00                                               6
 STAT SP IPHASW D HRMM SECON CODA AMPLIT PERI AZIMU VELO AIN AR TRES W  DIS CAZ7
 WZ21 HZ IP       1236 12.41                                                    
 GCSZ S2 IS       1236 12.90                             133   -0.1510    6 305 
 WHYM SN IS   2   1236 14.13                             124    0.10 5   10 190 
 WZ04 HZ IP       1236 12.47                             120   -0.0210   10 330 
 WZ04 HE IS       1236 14.19                             120    0.2610   10 330 
 WZ04 HZ  IAML    1236 15.26        19.9 0.84                            10 330 
 FRAN S2 IS   2   1236 16.18                             108   -0.15 5   19 260 
 FRAN S1  IAML    1236 16.84         0.0 0.17                            19 260 
 LABE SE IS   1   1236 17.90                             107   -0.17 7   24 209 
                                                                                
 2013  929 1510 29.9 L -43.351 170.386  5.7  VUW  9 0.2 1.0LVUW                1
 GAP= 98        0.46       1.3     1.5  4.9  0.4170E+00  0.1418E+01  0.2891E+01E
 ACTION:NEW 15- 7-15  2:15 OP:CALU STATUS:               ID:20130929151031     I
 2013-09-29-1509-49.DFDPC_027_00                                               6
 STAT SP IPHASW D HRMM SECON CODA AMPLIT PERI AZIMU VELO AIN AR TRES W  DIS CAZ7
 GCSZ SZ IP   3   1510 31.32                             125    0.10 2    6 309 
 GCSZ S2 IS       1510 32.14                             125    0.0210    6 309 
 GCSZ EZ  IAML    1510 32.27         1.1 0.08                             6 309 
 WV03 SZ IP   1   1510 31.23                             123   -0.03 7    6  14 
 WV03 SZ  IAML    1510 34.17        14.90.088                             6  14 
 WZ02 EN IS       1510 32.45                             118   -0.1110    7  88 
 WZ04 HZ  IAML    1510 33.40        22.4  0.7                            10 332 
 WZ04 HZ IP       1510 31.92                             112    0.1010   10 332 
 EORO SZ IP   1   1510 33.36                             102   -0.05 7   19 244 
 EORO SN IS   2   1510 35.30                             102   -0.50 5   19 244 
 EORO SZ  IAML    1510 36.80         2.5  0.4                            19 244 
 LABE SE IS   2   1510 37.18                             103   -0.18 5   24 208 
                                                                                
