 2013  911 1826 19.8 L -43.326 170.402  5.7  VUW  9 0.2 1.8LVUW                1
 GAP=174        0.37       1.3     2.0  3.2  0.1363E+00  0.1662E+01  0.2226E+01E
 ACTION:NEW 15- 8-11 14:59 OP:CALU STATUS:               ID:20130911182621     I
 2013-09-11-1825-39.DFDPC_027_00                                               6
 STAT SP IPHASW D HRMM SECON CODA AMPLIT PERI AZIMU VELO AIN AR TRES W  DIS CAZ7
 WV04 SZ IP   1   1826 20.69                             146   -0.02 7    2  17 
 WV04 SZ  IAML    1826 21.74       188.70.064                             2  17 
 WZ11 HZ IP       1826 20.66                             141   -0.0910    3  11 
 WZ11 HE IS       1826 21.39                             141    0.0110    3  11 
 WZ11 HZ  IAML    1826 21.58        84.2 0.22                             3  11 
 GCSZ SZ IP       1826 21.07                             125   -0.0810    6 280 
 GCSZ S1 IS       1826 21.98                             125   -0.0810    6 280 
 GCSZ EZ  IAML    1826 22.42        10.7  0.1                             6 280 
 WZ04 HZ IP       1826 21.48                             116   -0.0310    8 316 
 WZ04 HZ  IAML    1826 22.68        84.0 0.22                             8 316 
 WZ04 HE IS       1826 22.85                             116    0.1910    8 316 
 WHYM SZ IP   2   1826 22.56                             111    0.27 5   13 191 
 WHYM SN IS   2   1826 24.38                             111    0.42 5   13 191 
 WHYM SZ  IAML    1826 25.83        23.1 0.11                            13 191 
 WZ07 HZ IP   4   1826 23.58                             103    0.54 0   17 351 
 WZ07 HZ  IAML    1826 34.40       201.1  1.2                            17 351 
 WZ08 HZ IP   4   1826 24.26                             101    0.63 0   21   3 
 WZ08 HZ  IAML    1826 33.47       143.3 1.36                            21   3 
 EORO SZ IP   3   1826 23.49                             101   -0.27 2   21 239 
 EORO SZ  IAML    1826 35.99         4.6 0.25                            21 239 
 LABE SZ IP   2   1826 24.82                             102    0.03 5   27 207 
 LABE SN IS   2   1826 27.87                             102   -0.30 5   27 207 
 LABE SZ  IAML    1826 30.37         8.4 0.31                            27 207 
                                                                                
 2013  911 2209 24.6 L -43.334 170.364  9.6  VUW  7 0.1 1.8LVUW                1
 GAP=130        0.36       1.1     1.8  2.5 -0.7867E+00 -0.8352E-01  0.1205E+01E
 ACTION:NEW 15- 8-11 13:44 OP:CALU STATUS:               ID:20130911220926     I
 2013-09-11-2208-44.DFDPC_024_00                                               6
 STAT SP IPHASW D HRMM SECON CODA AMPLIT PERI AZIMU VELO AIN AR TRES W  DIS CAZ7
 GCSZ S1 IS       22 9 27.29                             156    0.0910    3 303 
 WV04 SZ IP       22 9 26.21                             146   -0.0410    5  47 
 WV04 SZ  IAML    22 9 27.75        66.6 0.08                             5  47 
 WZ11 HZ IP       22 9 26.26                             145   -0.0110    5  42 
 WZ11 HZ  IAML    22 9 29.34        84.4 0.42                             5  42 
 WV03 SZ IP       22 9 26.26                             145   -0.0210    5  37 
 WV03 SZ  IAML    22 9 28.64        43.90.288                             5  37 
 WHYM SZ IP       22 9 27.36                             125    0.1910   11 177 
 WHYM SN IS       22 9 28.96                             125    0.0110   11 177 
 WHYM SZ  IAML    22 9 29.15        56.6 0.11                            11 177 
 EORO SZ IP       22 9 28.30                             111    0.1310   18 237 
 EORO SN IS       22 9 30.61                             111   -0.0210   18 237 
 EORO SZ  IAML    22 9 30.97        15.4 0.09                            18 237 
 LABE SN IS       22 9 32.44                             108   -0.1710   25 202 
 LABE SZ  IAML    22 9 32.68        11.9 0.25                            25 202 
                                                                                
 2013  911 2209 25.0 L -43.350 170.388  7.3  VUW  9 0.2 1.7LVUW                1
 GAP=171        0.41       1.1     2.8  4.2 -0.4886E+00 -0.3437E+01  0.2383E+01E
 ACTION:NEW 15- 8-11 15:28 OP:CALU STATUS:               ID:20130911220926     I
 2013-09-11-2208-45.DFDPC_030_00                                               6
 STAT SP IPHASW D HRMM SECON CODA AMPLIT PERI AZIMU VELO AIN AR TRES W  DIS CAZ7
 WZ21 HZ IP       22 9 26.90                                                    
 WZ11 HZ IP       22 9 26.27                             133   -0.1810    6  17 
 WZ11 HZ  IAML    22 9 29.34        88.6 0.42                             6  17 
 GCSZ SZ IP       22 9 26.39                             134   -0.0810    6 307 
 GCSZ S2 IS       22 9 27.37                             134   -0.1310    6 307 
 GCSZ EZ  IAML    22 9 27.54        33.0 0.08                             6 307 
 WV02 SZ IP   2   22 9 26.49                             127   -0.16 5    7  16 
 WV02 SZ  IAML    22 9 28.96        38.6 0.08                             7  16 
 WZ04 HZ IP       22 9 27.07                             120    0.0610   10 332 
 WZ04 HZ  IAML    22 9 28.48        83.2 0.58                            10 332 
 WZ04 HE IS       22 9 28.65                             120    0.2410   10 332 
 WHYM SZ IP   1   22 9 27.35                             123    0.25 7   10 187 
 WHYM SN IS   2   22 9 28.83                             123    0.27 5   10 187 
 WHYM SZ  IAML    22 9 29.15        56.3 0.11                            10 187 
 FRAN S2 IS   2   22 9 30.66                             107   -0.11 5   18 260 
 FRAN S1  IAML    22 9 34.19         0.0 0.17                            18 260 
 EORO SZ IP   2   22 9 28.51                             107   -0.06 5   19 244 
 EORO SZ  IAML    22 9 37.63         4.9 0.23                            19 244 
 LABE SZ IP   1   22 9 29.62                             106    0.12 7   24 208 
 LABE SE IS   1   22 9 32.39                             106   -0.19 7   24 208 
 LABE SZ  IAML    22 9 32.68        11.9 0.25                            24 208 
                                                                                
 2013  911 2239  2.5 L -43.356 170.319  8.7  VUW  8 0.1 1.7LVUW                1
 GAP=110        0.35       1.1     3.2  2.8 -0.9093E+00  0.1683E+01  0.1477E+01E
 ACTION:NEW 15- 7-15  1:29 OP:CALU STATUS:               ID:20130911223904     I
 2013-09-11-2238-22.DFDPC_027_00                                               6
 STAT SP IPHASW D HRMM SECON CODA AMPLIT PERI AZIMU VELO AIN AR TRES W  DIS CAZ7
 WZ21 HZ IP       2239  4.86                                                    
 WZ21 HN IS       2239  6.21                                                    
 WZ21 HZ  IAML    2239  6.52         1.0 0.12                                   
 GCSZ SZ IP       2239  3.81                             148   -0.1610    4   8 
 GCSZ S2 IS       2239  4.91                             148   -0.0810    4   8 
 GCSZ EZ  IAML    2239  5.09        80.4 0.08                             4   8 
 WZ04 HZ IP       2239  4.63                             125    0.0610    9   5 
 WZ04 HE IS       2239  6.20                             125    0.2010    9   5 
 WZ04 HZ  IAML    2239  6.74        27.6  0.1                             9   5 
 WV03 SZ IP   1   2239  4.45                             124   -0.17 7    9  46 
 WV03 SZ  IAML    2239  9.24        63.20.208                             9  46 
 WHYM SZ IP   2   2239  4.84                             126    0.06 5   10 156 
 WHYM SE IS   2   2239  6.49                             126    0.14 5   10 156 
 WHYM SZ  IAML    2239  7.30        50.0 0.25                            10 156 
 FRAN S3 IS   3   2239  6.79                             117   -0.11 2   13 258 
 FRAN S1  IAML    2239  8.24         0.0 0.26                            13 258 
 EORO SZ IP   1   2239  5.23                             115   -0.09 7   14 237 
 EORO SZ  IAML    2239 10.40         5.9 0.32                            14 237 
 LABE SZ IP   1   2239  6.75                             108    0.11 7   22 196 
 LABE SN IS   2   2239  9.58                             108    0.11 5   22 196 
 LABE SZ  IAML    2239 10.02        11.2  0.1                            22 196 
                                                                                
 2013  912 0314 58.0 L -43.326 170.409  5.5  VUW  8 0.2 1.2LVUW                1
 GAP=187        0.49       1.7     2.8  4.3  0.4067E+00  0.3560E+01  0.4226E+01E
 ACTION:NEW 15- 8-11 15: 2 OP:CALU STATUS:               ID:20130912031459     I
 2013-09-12-0314-18.DFDPC_024_00                                               6
 STAT SP IPHASW D HRMM SECON CODA AMPLIT PERI AZIMU VELO AIN AR TRES W  DIS CAZ7
 WZ11 HE IS        314 59.53                             140    0.0310    3   2 
 GCSZ S1 IS        315  0.13                             121   -0.1910    6 280 
 WHYM SZ IP   2    315  0.55                             110    0.11 5   13 193 
 WHYM SZ  IAML     315  4.66        16.1 0.15                            13 193 
 WZ07 HZ IP   4    315  1.97                             102    0.75 0   17 349 
 WZ07 HZ  IAML     315 12.66        92.2 1.14                            17 349 
 EORO SZ IP   3    315  1.90                             100   -0.09 2   22 240 
 EORO SZ  IAML     315 13.83         4.8 0.32                            22 240 
                                                                                
 2013  915 0403 32.6 L -43.356 170.311  8.0  VUW  8 0.2 1.1LVUW                1
 GAP=111        0.39       1.2     3.4  3.3 -0.1208E+01  0.2561E+01  0.1669E+01E
 ACTION:NEW 15- 7-15  1:31 OP:CALU STATUS:               ID:20130915040334     I
 2013-09-15-0402-52.DFDPC_027_00                                               6
 STAT SP IPHASW D HRMM SECON CODA AMPLIT PERI AZIMU VELO AIN AR TRES W  DIS CAZ7
 GCSZ SZ IP        4 3 33.82                             145   -0.1910    4  16 
 GCSZ S2 IS        4 3 34.92                             145   -0.0610    4  16 
 GCSZ EZ  IAML     4 3 35.06         4.2 0.08                             4  16 
 WHYM SZ IP   2    4 3 34.67                             124   -0.20 5   10 153 
 WHYM SZ  IAML     4 3 36.90         5.1 0.25                            10 153 
 FRAN S3 IS   3    4 3 36.78                             118    0.01 2   12 258 
 FRAN S1  IAML     4 3 38.09         0.0 0.18                            12 258 
 EORO SZ IP   1    4 3 35.14                             116   -0.17 7   13 236 
 EORO SZ  IAML     4 3 43.10         2.3 0.26                            13 236 
 LABE SN IS   2    4 3 39.58                             110    0.10 5   21 194 
                                                                                
 2013  915 0931  8.3 L -43.360 170.327  7.0  VUW  8 0.2 0.7LVUW                1
 GAP=117        0.39       1.1     3.4  3.4 -0.8760E+00  0.1480E+01  0.1734E+01E
 ACTION:NEW 15- 7-15  1:31 OP:CALU STATUS:               ID:20130915093109     I
 2013-09-15-0930-28.DFDPC_027_00                                               6
 STAT SP IPHASW D HRMM SECON CODA AMPLIT PERI AZIMU VELO AIN AR TRES W  DIS CAZ7
 WZ21 HZ IP        931 10.32                                                    
 WZ21 HN IS        931 11.93                                                    
 WZ21 HZ  IAML     931 12.30         1.0 1.06                                   
 GCSZ SZ IP        931  9.39                             139   -0.2110    4   0 
 GCSZ S2 IS        931 10.48                             139   -0.0110    4   0 
 GCSZ EZ  IAML     931 10.65         1.1 0.08                             4   0 
 WV03 SZ IP   1    931 10.10                             119   -0.17 7    9  41 
 WV03 SZ  IAML     931 14.28        17.20.368                             9  41 
 WZ04 HE IS        931 11.88                             119    0.2110   10   1 
 FRAN S3 IS   3    931 12.25                             112   -0.40 2   13 261 
 LABE SN IS   2    931 15.17                             108    0.11 5   21 198 
                                                                                
 2013  915 2026 57.9 L -43.338 170.372  8.6  VUW  8 0.2 0.8LVUW                1
 GAP= 86        0.57       1.5     2.0  4.0 -0.6049E+00  0.1575E+01  0.2706E+01E
 ACTION:NEW 15- 8-11 13:46 OP:CALU STATUS:               ID:20130915202659     I
 2013-09-15-2026-17.DFDPC_024_00                                               6
 STAT SP IPHASW D HRMM SECON CODA AMPLIT PERI AZIMU VELO AIN AR TRES W  DIS CAZ7
 GCSZ S1 IS       2027  0.48                             148    0.0910    4 304 
 WV03 SZ IP       2026 59.70                             140    0.2010    5  30 
 WV03 SZ  IAML    2027  1.58        17.10.232                             5  30 
 WZ02 EN IS       2027  1.06                             126   -0.2810    9  97 
 WZ02 EZ  IAML    2027  2.82         1.7 0.24                             9  97 
 EORO SZ IP       2027  1.53                             107    0.0310   19 239 
 EORO SZ  IAML    2027  4.74         1.5 0.28                            19 239 
 LABE SZ  IAML    2027  5.53         3.2 0.51                            25 204 
 LABE SN IS       2027  5.61                             105   -0.2010   25 204 
                                                                                
 2013  916 0318 24.9 L -43.355 170.324  9.8  VUW  6 0.1 1.4LVUW                1
 GAP=104        0.33       1.2     1.7  4.0  0.3975E+00 -0.6605E+00  0.1110E+01E
 ACTION:NEW 15- 7-15  1:49 OP:CALU STATUS:               ID:20130916031827     I
 2013-09-16-0317-44.DFDPC_021_00                                               6
 STAT SP IPHASW D HRMM SECON CODA AMPLIT PERI AZIMU VELO AIN AR TRES W  DIS CAZ7
 WZ04 HZ IP        318 27.13                             130    0.0110    9   2 
 WZ04 HN IS        318 28.70                             130    0.0910    9   2 
 WZ04 HZ  IAML     318 29.67        15.2  0.2                             9   2 
 WZ11 HZ IP        318 27.02                             130   -0.1010    9  47 
 WZ11 HZ  IAML     318 32.75        27.7 0.36                             9  47 
 WHYM SZ IP   1    318 27.46                             130    0.12 7   10 158 
 WHYM SN IS   2    318 29.07                             130    0.09 5   10 158 
 WHYM SZ  IAML     318 29.37        18.4 0.21                            10 158 
 WV02 SZ IP   2    318 27.26                             126   -0.04 5   10  43 
 WV02 SZ  IAML     318 31.44        20.10.264                            10  43 
 WZ02 EZ IP        318 27.73                             121    0.1010   13  87 
 WZ02 EN IS        318 29.38                             121   -0.1010   13  87 
 WZ02 EZ  IAML     318 29.66         5.4  0.1                            13  87 
 FRAN S2 IS   2    318 29.34                             120   -0.26 5   13 258 
 FRAN S1  IAML     318 30.83         0.0 0.15                            13 258 
                                                                                
 2013  916 0318 25.1 L -43.345 170.317  7.3  VUW  5 0.1 1.1LVUW                1
 GAP=165        0.29       2.1     1.6  6.8 -0.1564E+01  0.3350E+01 -0.5181E+01E
 ACTION:NEW 15- 7-15  2:38 OP:CALU STATUS:               ID:20130916031827     I
 2013-09-16-0317-45.DFDPC_018_00                                               6
 STAT SP IPHASW D HRMM SECON CODA AMPLIT PERI AZIMU VELO AIN AR TRES W  DIS CAZ7
 WV04 SZ IP   1    318 27.02                             122    0.05 7    9  58 
 WV04 SZ  IAML     318 30.80        17.00.184                             9  58 
 WHYM SZ IP   1    318 27.46                             120    0.04 7   11 158 
 WHYM SN IS   2    318 29.06                             120    0.04 5   11 158 
 WHYM SZ  IAML     318 29.37        18.8 0.21                            11 158 
 FRAN S2 IS   2    318 29.37                             113   -0.00 5   13 253 
 FRAN S1  IAML     318 30.83         0.0 0.14                            13 253 
 WZ02 EZ IP        318 27.69                             113    0.0210   13  92 
 WZ02 EN IS        318 29.39                             113   -0.0510   13  92 
 WZ02 EZ  IAML     318 29.66         5.3  0.1                            13  92 
 EORO SZ IP   2    318 27.79                             111   -0.13 5   15 233 
 EORO SZ  IAML     318 32.87         2.4 0.22                            15 233 
                                                                                
 2013  916 2041 14.9 L -43.355 170.324  9.9  VUW  6 0.1 1.2LVUW                1
 GAP=104        0.34       1.3     1.8  4.1  0.4282E+00 -0.6819E+00  0.1168E+01E
 ACTION:NEW 15- 7-15  1:49 OP:CALU STATUS:               ID:20130916204117     I
 2013-09-16-2040-34.DFDPC_021_00                                               6
 STAT SP IPHASW D HRMM SECON CODA AMPLIT PERI AZIMU VELO AIN AR TRES W  DIS CAZ7
 WZ04 HZ IP       2041 17.16                             131    0.0210    9   2 
 WZ04 HN IS       2041 18.74                             131    0.0910    9   2 
 WZ04 HZ  IAML    2041 19.20        21.3 0.44                             9   2 
 WHYM SZ IP   1   2041 17.48                             131    0.12 7   10 158 
 WHYM SN IS   2   2041 19.09                             131    0.07 5   10 158 
 WHYM SZ  IAML    2041 19.49         4.6 0.23                            10 158 
 WV02 SZ IP   2   2041 17.18                             127   -0.14 5   10  43 
 WV02 SZ  IAML    2041 21.36        15.5 0.52                            10  43 
 WZ02 EN IS       2041 19.41                             122   -0.1010   13  87 
 FRAN S2 IS   2   2041 19.37                             120   -0.26 5   13 258 
 FRAN S1  IAML    2041 22.66         0.0 0.22                            13 258 
                                                                                
 2013  916 2041 15.2 L -43.347 170.325  7.9  VUW  6 0.1 1.1LVUW                1
 GAP=107        0.31       1.0     1.4  4.2 -0.3053E+00  0.1646E+01 -0.1033E+01E
 ACTION:NEW 15- 7-15  2:49 OP:CALU STATUS:               ID:20130916204117     I
 2013-09-16-2040-35.DFDPC_021_00                                               6
 STAT SP IPHASW D HRMM SECON CODA AMPLIT PERI AZIMU VELO AIN AR TRES W  DIS CAZ7
 WZ04 HZ IP       2041 17.15                             127    0.0810    8   2 
 WZ04 HZ  IAML    2041 19.20        21.4 0.44                             8   2 
 WV02 SZ IP   2   2041 17.11                             122   -0.18 5   10  46 
 WV02 SZ  IAML    2041 20.54        17.0 0.28                            10  46 
 WHYM SN IS       2041 19.13                             123    0.0110   11 160 
 WZ02 EN IS       2041 19.41                             117   -0.0510   12  91 
 FRAN S2 IS   2   2041 19.41                             115   -0.31 5   13 254 
 FRAN S1  IAML    2041 22.66         0.0 0.22                            13 254 
 LABE SE IS   2   2041 22.45                             109    0.02 5   23 196 
                                                                                
