 2013  920 2037 49.0 L -43.345 170.324  6.7  VUW  7 0.1 0.9LVUW                1
 GAP=109        0.33       0.9     1.4  3.6 -0.6110E-01 -0.5594E-01  0.4066E+00E
 ACTION:NEW 15- 7-15  2:54 OP:CALU STATUS:               ID:20130920203750     I
 2013-09-20-2037-09.DFDPC_024_00                                               6
 STAT SP IPHASW D HRMM SECON CODA AMPLIT PERI AZIMU VELO AIN AR TRES W  DIS CAZ7
 GCSZ SZ IP       2037 50.07                             149   -0.0510    3   3 
 GCSZ EZ  IAML    2037 51.09         1.0  0.3                             3   3 
 GCSZ S2 IS   3   2037 51.11                             149    0.25 2    3   3 
 WHYM SZ IP   1   2037 51.39                             118    0.10 7   11 160 
 WHYM SZ  IAML    2037 53.72         9.4 0.26                            11 160 
 WZ02 EN IS       2037 52.98                             112   -0.1910   12  92 
 FRAN S2 IS   2   2037 53.33                             111   -0.08 5   13 254 
 FRAN S1  IAML    2037 55.10         0.0 0.14                            13 254 
 LABE SZ IP   1   2037 53.18                             106   -0.12 7   23 196 
 LABE SZ  IAML    2037 57.42         1.9 0.25                            23 196 
                                                                                
 2013  921 1412  2.2 L -43.331 170.402  4.9  VUW  9 0.2 1.2LVUW                1
 GAP=176        0.39       1.2     1.9  4.3  0.7676E-02  0.2187E+01  0.2940E+01E
 ACTION:NEW 15- 8-11 15: 7 OP:CALU STATUS:               ID:20130921141203     I
 2013-09-21-1411-22.DFDPC_027_00                                               6
 STAT SP IPHASW D HRMM SECON CODA AMPLIT PERI AZIMU VELO AIN AR TRES W  DIS CAZ7
 WV04 SZ IP   1   1412  3.05                             135   -0.04 7    3  15 
 WV04 SZ  IAML    1412  4.81        12.70.288                             3  15 
 GCSZ S1 IS       1412  4.34                             119   -0.0410    6 286 
 WZ04 HZ IP       1412  4.06                             111    0.1210    9 319 
 WZ04 HE IS       1412  5.20                             111    0.1010    9 319 
 WZ04 HZ  IAML    1412  5.42        14.8 0.72                             9 319 
 WHYM SZ IP   2   1412  4.75                             109    0.19 5   12 191 
 WHYM SZ  IAML    1412  7.30         9.2 0.19                            12 191 
 WZ07 HZ IP   4   1412  5.99                             100    0.45 0   18 351 
 WZ07 HZ  IAML    1412 13.97        93.5  0.9                            18 351 
 EORO SZ IP   3   1412  5.62                              99   -0.48 2   21 241 
 EORO SZ  IAML    1412 13.19         2.6 0.29                            21 241 
                                                                                
 2013  921 1512 14.2 L -43.354 170.324  9.7  VUW  6 0.1 1.2LVUW                1
 GAP=105        0.33       1.2     1.7  4.0  0.3980E+00 -0.6669E+00  0.1171E+01E
 ACTION:NEW 15- 7-15  1:54 OP:CALU STATUS:               ID:20130921151216     I
 2013-09-21-1511-34.DFDPC_021_00                                               6
 STAT SP IPHASW D HRMM SECON CODA AMPLIT PERI AZIMU VELO AIN AR TRES W  DIS CAZ7
 WZ04 HZ IP       1512 16.35                             130    0.0110    9   2 
 WZ04 HN IS       1512 17.91                             130    0.0910    9   2 
 WZ04 HZ  IAML    1512 18.58        11.1 0.38                             9   2 
 WZ11 HZ IP       1512 16.24                             130   -0.1110    9  47 
 WZ11 HZ  IAML    1512 21.39        29.6 0.56                             9  47 
 WHYM SZ IP   1   1512 16.70                             130    0.12 7   10 158 
 WHYM SN IS   2   1512 18.30                             130    0.08 5   10 158 
 WHYM SZ  IAML    1512 18.71         9.6 0.31                            10 158 
 WZ02 EN IS       1512 18.60                             121   -0.1010   13  87 
 FRAN S2 IS   2   1512 18.58                             120   -0.26 5   13 258 
 FRAN S1  IAML    1512 19.13         0.0 0.17                            13 258 
                                                                                
 2013  921 1512 14.4 L -43.347 170.321  7.7  VUW  7 0.1 1.0LVUW                1
 GAP=110        0.29       0.8     1.3  3.0 -0.6786E-01  0.1632E+00  0.1151E+00E
 ACTION:NEW 15- 7-15  2:56 OP:CALU STATUS:               ID:20130921151216     I
 2013-09-21-1511-34.DFDPC_024_00                                               6
 STAT SP IPHASW D HRMM SECON CODA AMPLIT PERI AZIMU VELO AIN AR TRES W  DIS CAZ7
 GCSZ SZ IP       1512 15.53                             151   -0.1010    3   7 
 GCSZ S2 IS   3   1512 16.57                             151    0.07 2    3   7 
 GCSZ EZ  IAML    1512 16.79        10.1 0.08                             3   7 
 WZ04 HZ IP       1512 16.34                             126    0.1210    8   4 
 WZ04 HN IS   3   1512 17.90                             126    0.40 2    8   4 
 WZ04 HZ  IAML    1512 18.58        11.3 0.38                             8   4 
 WV02 SZ IP   2   1512 16.49                             121    0.01 5   10  47 
 WV02 SZ  IAML    1512 20.88        22.90.272                            10  47 
 WHYM SZ IP   1   1512 16.70                             122    0.01 7   11 159 
 WHYM SN IS       1512 18.34                             122    0.0610   11 159 
 WHYM SZ  IAML    1512 18.71         9.5 0.31                            11 159 
 WZ02 EZ IP       1512 16.97                             116    0.0410   13  91 
 WZ02 EN IS       1512 18.60                             116   -0.0910   13  91 
 WZ02 EZ  IAML    1512 18.85         1.6 0.08                            13  91 
 FRAN S2 IS   2   1512 18.62                             115   -0.16 5   13 254 
 FRAN S1  IAML    1512 19.13         0.0 0.17                            13 254 
 LABE SZ IP   1   1512 18.54                             109   -0.09 7   23 196 
 LABE SE IS   2   1512 21.68                             109    0.14 5   23 196 
 LABE SZ  IAML    1512 21.83         2.2  0.1                            23 196 
                                                                                
 2013  921 1759  4.7 L -43.326 170.404  6.2  VUW  9 0.1 1.1LVUW                1
 GAP=178        0.34       1.2     1.9  2.8  0.1291E+00  0.1283E+01  0.1844E+01E
 ACTION:NEW 15- 8-11 15: 7 OP:CALU STATUS:               ID:20130921175905     I
 2013-09-21-1758-24.DFDPC_027_00                                               6
 STAT SP IPHASW D HRMM SECON CODA AMPLIT PERI AZIMU VELO AIN AR TRES W  DIS CAZ7
 WV04 SZ IP   1   1759  5.63                             149    0.02 7    2  14 
 WV04 SZ  IAML    1759  6.68        15.00.072                             2  14 
 WZ11 HZ IP       1759  5.60                             144   -0.0610    3   8 
 WZ11 HZ  IAML    1759  6.14        11.0 0.34                             3   8 
 WZ11 HE IS       1759  6.33                             144   -0.0010    3   8 
 GCSZ SZ IP       1759  6.01                             127   -0.0510    6 280 
 GCSZ S1 IS       1759  6.93                             127   -0.0810    6 280 
 GCSZ EZ  IAML    1759  7.46         0.8  0.1                             6 280 
 WHYM SN IS   2   1759  9.11                             113    0.26 5   13 192 
 WZ08 HZ IP   4   1759  9.21                             102    0.71 0   21   3 
 WZ08 HZ  IAML    1759 16.92        44.7 1.02                            21   3 
 LABE SZ IP   2   1759  9.77                             103    0.12 5   27 208 
 LABE SN IS   2   1759 12.82                             103   -0.23 5   27 208 
 LABE SZ  IAML    1759 14.92         1.9  0.7                            27 208 
                                                                                
 2013  923 1939 32.8 L -43.357 170.310  8.0  VUW  8 0.1 0.9LVUW                1
 GAP=111        0.31       1.0     2.8  2.6 -0.8153E+00  0.1667E+01  0.1076E+01E
 ACTION:NEW 15- 7-15  1:40 OP:CALU STATUS:               ID:20130923193934     I
 2013-09-23-1938-52.DFDPC_027_00                                               6
 STAT SP IPHASW D HRMM SECON CODA AMPLIT PERI AZIMU VELO AIN AR TRES W  DIS CAZ7
 WZ21 HZ IP       1939 35.31                                                    
 WZ21 HN IS       1939 36.60                                                    
 WZ21 HZ  IAML    1939 37.05         0.2 0.18                                   
 GCSZ SZ IP       1939 34.04                             144   -0.1710    4  17 
 GCSZ S2 IS       1939 35.15                             144   -0.0410    4  17 
 GCSZ EZ  IAML    1939 35.30         4.5 0.06                             4  17 
 WZ04 HZ IP       1939 34.85                             123    0.0010    9   9 
 WZ04 HZ  IAML    1939 36.65         7.7 0.34                             9   9 
 WV03 SZ IP   1   1939 34.90                             122   -0.06 7   10  48 
 WV03 SZ  IAML    1939 41.03        22.70.296                            10  48 
 WHYM SE IS   2   1939 36.67                             125    0.10 5   10 152 
 FRAN S3 IS   3   1939 36.95                             118    0.04 2   12 258 
 FRAN S1  IAML    1939 38.81         0.0 0.36                            12 258 
 LABE SZ IP   1   1939 36.91                             110    0.07 7   21 194 
 LABE SN IS   2   1939 39.73                             110    0.13 5   21 194 
 LABE SZ  IAML    1939 40.15         1.3 0.15                            21 194 
                                                                                
 2013  925 0815 25.8 L -43.348 170.323  7.9  VUW  9 0.1 1.4LVUW                1
 GAP=108        0.29       0.9     1.1  3.6 -0.3547E+00  0.5068E+00 -0.9880E+00E
 ACTION:NEW 15- 7-15  3: 9 OP:CALU STATUS:               ID:20130925081528     I
 2013-09-25-0814-45.DFDPC_030_00                                               6
 STAT SP IPHASW D HRMM SECON CODA AMPLIT PERI AZIMU VELO AIN AR TRES W  DIS CAZ7
 WZ04 HZ IP        815 27.81                             126    0.1110    8   3 
 WZ04 HZ  IAML     815 31.70        12.4 0.32                             8   3 
 WV02 SZ IP        815 27.94                             122    0.0110   10  46 
 WV02 SZ  IAML     815 32.99        16.6  0.2                            10  46 
 WHYM SZ IP   1    815 28.15                             123    0.02 7   11 159 
 WHYM SN IS   1    815 29.75                             123    0.04 7   11 159 
 WHYM SZ  IAML     815 30.33        17.9 0.28                            11 159 
 WZ02 EZ IP        815 28.37                             116    0.0110   13  90 
 WZ02 EN IS        815 30.03                             116   -0.0810   13  90 
 WZ02 EZ  IAML     815 30.46         4.6  0.1                            13  90 
 FRAN S2 IS   1    815 30.11                             115   -0.16 7   13 255 
 FRAN S1  IAML     815 30.80         0.0 0.16                            13 255 
 LABE SZ IP   1    815 29.99                             109   -0.09 7   22 196 
 LABE SN IS   1    815 33.13                             109    0.14 7   22 196 
 LABE SZ  IAML     815 33.30         6.4  0.1                            22 196 
 WZ20 EZ IP        815 30.22                             107   -0.0310   24  52 
 WZ20 EZ  IAML     815 44.97         2.3  0.5                            24  52 
 WZ08 HZ IP   4    815 31.28                             104    0.96 0   24  18 
 WZ08 HZ  IAML     815 41.92        57.4 1.06                            24  18 
 MTFO SE IS   3    815 35.52                             103    0.07 2   31 235 
 MTFO SZ  IAML     815 39.77         6.4 0.53                            31 235 
                                                                                
 2013  925 1126 25.2 L -43.352 170.388  6.1  VUW  9 0.3 1.0LVUW                1
 GAP=100        0.55       1.6     1.8  5.4  0.6218E+00  0.2301E+01  0.3911E+01E
 ACTION:NEW 15- 7-15  2:12 OP:CALU STATUS:               ID:20130925112626     I
 2013-09-25-1125-45.DFDPC_027_00                                               6
 STAT SP IPHASW D HRMM SECON CODA AMPLIT PERI AZIMU VELO AIN AR TRES W  DIS CAZ7
 GCSZ SZ IP   3   1126 26.49                             126   -0.09 2    6 309 
 GCSZ S2 IS       1126 27.48                             126   -0.0510    6 309 
 GCSZ EZ  IAML    1126 27.65         1.4 0.08                             6 309 
 WZ11 HZ IP       1126 26.33                             125   -0.2410    6  16 
 WZ11 HZ  IAML    1126 29.84        22.0 0.54                             6  16 
 WZ02 EZ IP       1126 27.10                             121    0.3010    7  87 
 WZ02 EN IS       1126 27.82                             121   -0.0710    7  87 
 WZ02 EZ  IAML    1126 28.08         1.7  0.1                             7  87 
 WHYM SZ IP   1   1126 27.29                             118    0.10 7   10 188 
 WHYM SN IS   3   1126 28.98                             118    0.42 2   10 188 
 WHYM SZ  IAML    1126 29.19         4.8  0.1                            10 188 
 EORO SN IS   2   1126 30.74                             104   -0.41 5   19 245 
 LABE SE IS   2   1126 32.46                             104   -0.21 5   24 208 
                                                                                
 2013  925 2007 20.5 L -43.315 170.388  7.5  VUW  6 0.1 0.9LVUW                1
 GAP=123        0.36       1.3     1.5  3.4 -0.1446E+00 -0.1492E+01  0.1924E+01E
 ACTION:NEW 15- 8-12 16:39 OP:CALU STATUS:               ID:20130925200722     I
 2013-09-25-2006-40.DFDPC_018_00                                               6
 STAT SP IPHASW D HRMM SECON CODA AMPLIT PERI AZIMU VELO AIN AR TRES W  DIS CAZ7
 WV04 SZ IP       20 7 21.57                             158   -0.0710    2  54 
 WV04 SZ  IAML    20 7 22.62        20.00.072                             2  54 
 WV03 SZ IP       20 7 21.52                             155   -0.1410    2  33 
 WV03 SZ  IAML    20 7 23.06        24.20.256                             2  33 
 GCSZ S2 IS       20 7 22.84                             141    0.0210    5 269 
 WZ02 EE IS       20 7 23.75                             125    0.1210    8 116 
 WHYM SN IS       20 7 25.01                             116   -0.1210   14 185 
                                                                                
 2013  926 0601 21.2 L -43.355 170.324  9.8  VUW  6 0.1 1.7LVUW                1
 GAP=104        0.33       1.3     1.8  4.0  0.4059E+00 -0.6702E+00  0.1105E+01E
 ACTION:NEW 15- 7-15  1:55 OP:CALU STATUS:               ID:20130926060123     I
 2013-09-26-0600-41.DFDPC_021_00                                               6
 STAT SP IPHASW D HRMM SECON CODA AMPLIT PERI AZIMU VELO AIN AR TRES W  DIS CAZ7
 WZ04 HZ IP        6 1 23.40                             130    0.0110    9   2 
 WZ04 HN IS        6 1 24.98                             130    0.0910    9   2 
 WZ04 HZ  IAML     6 1 26.25        59.8 0.28                             9   2 
 WZ11 HZ IP        6 1 23.29                             130   -0.1110    9  47 
 WZ11 HZ  IAML     6 1 27.34        33.5 0.24                             9  47 
 WHYM SZ IP   1    6 1 23.73                             130    0.13 7   10 158 
 WHYM SN IS   2    6 1 25.33                             130    0.08 5   10 158 
 WHYM SZ  IAML     6 1 25.63        38.6 0.22                            10 158 
 WV02 SZ IP   2    6 1 23.53                             126   -0.04 5   10  43 
 WV02 SZ  IAML     6 1 28.39        30.40.224                            10  43 
 WZ02 EZ IP        6 1 24.00                             121    0.1010   13  87 
 WZ02 EN IS        6 1 25.65                             121   -0.1010   13  87 
 WZ02 EZ  IAML     6 1 25.93        11.9  0.1                            13  87 
 FRAN S2 IS   2    6 1 25.60                             120   -0.27 5   13 258 
 FRAN S1  IAML     6 1 26.73         0.0 0.21                            13 258 
                                                                                
 2013  926 1517  3.5 L -43.359 170.323 10.1  VUW  6 0.1 0.6LVUW                1
 GAP=103        0.38       1.4     2.0  4.5  0.5373E+00 -0.8038E+00  0.1001E+01E
 ACTION:NEW 15- 7-15  1:55 OP:CALU STATUS:               ID:20130926151705     I
 2013-09-26-1516-23.DFDPC_021_00                                               6
 STAT SP IPHASW D HRMM SECON CODA AMPLIT PERI AZIMU VELO AIN AR TRES W  DIS CAZ7
 WZ11 HZ IP       1517  5.61                             130   -0.1410    9  46 
 WHYM SN IS   2   1517  7.65                             132    0.16 5   10 157 
 WV02 SZ IP   2   1517  6.09                             126    0.16 5   11  42 
 WZ02 EN IS       1517  7.96                             122   -0.1410   13  85 
 FRAN S2 IS   2   1517  7.92                             121   -0.22 5   13 260 
 FRAN S1  IAML    1517 10.84         0.0 0.22                            13 260 
                                                                                
 2013  926 1517  3.9 L -43.348 170.320  6.3  VUW  6 0.1 0.6LVUW                1
 GAP=114        0.34       1.7     1.6  3.2 -0.4898E+00 -0.1556E+01  0.3587E+01E
 ACTION:NEW 15- 7-15  2:46 OP:CALU STATUS:               ID:20130926151705     I
 2013-09-26-1516-23.DFDPC_021_00                                               6
 STAT SP IPHASW D HRMM SECON CODA AMPLIT PERI AZIMU VELO AIN AR TRES W  DIS CAZ7
 GCSZ SZ IP       1517  4.93                             144   -0.0310    3   9 
 GCSZ S2 IS       1517  5.75                             144    0.0610    3   9 
 GCSZ EZ  IAML    1517  6.17         3.0 0.08                             3   9 
 WV04 SZ IP   1   1517  5.60                             118   -0.10 7    9  56 
 WV04 SZ  IAML    1517  9.99        11.00.472                             9  56 
 WHYM SN IS   2   1517  7.50                             117   -0.11 5   11 158 
 WZ02 EN IS       1517  7.97                             110   -0.1210   13  91 
 FRAN S2 IS   2   1517  7.95                             110   -0.18 5   13 254 
 FRAN S1  IAML    1517 10.84         0.0 0.22                            13 254 
                                                                                
 2013  927 1351 54.6 L -43.355 170.384  5.8  VUW  9 0.2 1.3LVUW                1
 GAP=101        0.40       1.1     1.3  4.3  0.2696E+00  0.1039E+01  0.2123E+01E
 ACTION:NEW 15- 7-15  2:14 OP:CALU STATUS:               ID:20130927135156     I
 2013-09-27-1351-14.DFDPC_027_00                                               6
 STAT SP IPHASW D HRMM SECON CODA AMPLIT PERI AZIMU VELO AIN AR TRES W  DIS CAZ7
 GCSZ S2 IS       1351 56.81                             125   -0.0210    6 313 
 WZ02 EZ IP       1351 56.30                             118    0.1210    8  85 
 WZ02 EZ  IAML    1351 57.14         2.1  0.1                             8  85 
 WZ04 HZ IP       1351 56.48                             112   -0.0610   10 335 
 WZ04 HE IS       1351 58.06                             112    0.1710   10 335 
 WZ04 HZ  IAML    1351 58.64        38.2 1.12                            10 335 
 EORO SN IS   2   1351 59.92                             103   -0.45 5   19 245 
 LABE SZ IP   2   1351 59.14                             103    0.22 5   24 208 
 LABE SZ  IAML    1352  3.29        12.9 0.32                            24 208 
                                                                                
