 2013  916 2354 43.4 L -43.356 170.323 10.4  VUW  6 0.1 1.2LVUW                1
 GAP=104        0.37       1.4     2.0  4.3  0.5346E+00 -0.7411E+00  0.1263E+01E
 ACTION:NEW 15- 7-15  1:49 OP:CALU STATUS:               ID:20130916235445     I
 2013-09-16-2354-03.DFDPC_021_00                                               6
 STAT SP IPHASW D HRMM SECON CODA AMPLIT PERI AZIMU VELO AIN AR TRES W  DIS CAZ7
 WZ11 HZ IP       2354 45.61                             132   -0.1110    9  47 
 WZ11 HZ  IAML    2354 50.93        30.1 0.66                             9  47 
 WHYM SZ IP   1   2354 46.05                             132    0.15 7   10 158 
 WHYM SN IS   2   2354 47.66                             132    0.07 5   10 158 
 WHYM SZ  IAML    2354 48.07         4.3  0.2                            10 158 
 WV02 SZ IP   2   2354 46.09                             128    0.20 5   10  43 
 WV02 SZ  IAML    2354 50.96        13.7 0.28                            10  43 
 WZ02 EN IS       2354 47.96                             123   -0.1410   13  87 
 FRAN S2 IS   2   2354 47.93                             122   -0.26 5   13 258 
 FRAN S1  IAML    2354 50.31         0.0 0.15                            13 258 
                                                                                
 2013  916 2354 43.7 L -43.344 170.316  6.7  VUW  5 0.1 0.7LVUW                1
 GAP=166        0.30       2.1     1.6  8.3 -0.1617E+01  0.4107E+01 -0.6868E+01E
 ACTION:NEW 15- 7-15  2:38 OP:CALU STATUS:               ID:20130916235445     I
 2013-09-16-2354-03.DFDPC_018_00                                               6
 STAT SP IPHASW D HRMM SECON CODA AMPLIT PERI AZIMU VELO AIN AR TRES W  DIS CAZ7
 WV04 SZ IP   1   2354 45.61                             120    0.04 7    9  59 
 WV04 SZ  IAML    2354 50.00         8.90.272                             9  59 
 WHYM SZ IP   1   2354 46.05                             117    0.02 7   11 157 
 WHYM SN IS   2   2354 47.65                             117    0.05 5   11 157 
 WHYM SZ  IAML    2354 48.07         4.3  0.2                            11 157 
 FRAN S2 IS   2   2354 47.96                             112    0.02 5   13 252 
 FRAN S1  IAML    2354 50.31         0.0 0.15                            13 252 
 WZ02 EN IS       2354 47.97                             111   -0.0710   13  92 
 EORO SZ IP   2   2354 46.37                             110   -0.16 5   15 232 
 EORO SZ  IAML    2354 55.26         2.8 0.38                            15 232 
                                                                                
 2013  917 1350 46.2 L -43.349 170.323  7.4  VUW  7 0.1 0.8LVUW                1
 GAP=108        0.31       0.8     1.3  3.3 -0.6770E-01  0.1879E+00  0.7904E-01E
 ACTION:NEW 15- 7-15  2:50 OP:CALU STATUS:               ID:20130917135047     I
 2013-09-17-1350-06.DFDPC_024_00                                               6
 STAT SP IPHASW D HRMM SECON CODA AMPLIT PERI AZIMU VELO AIN AR TRES W  DIS CAZ7
 GCSZ SZ IP       1350 47.37                             148   -0.0910    3   5 
 GCSZ S2 IS   3   1350 48.41                             148    0.10 2    3   5 
 GCSZ EZ  IAML    1350 48.59         2.9 0.08                             3   5 
 WZ04 HZ IP       1350 48.18                             124    0.0910    8   3 
 WZ04 HN IS   3   1350 49.74                             124    0.38 2    8   3 
 WZ04 HZ  IAML    1350 49.99        14.9 0.78                             8   3 
 WHYM SN IS       1350 50.03                             121    0.0010   11 159 
 FRAN S2 IS   2   1350 50.44                             113   -0.18 5   13 255 
 FRAN S1  IAML    1350 50.63         0.0  0.3                            13 255 
 LABE SE IS   2   1350 53.49                             108    0.16 5   22 196 
                                                                                
 2013  918 0113 34.1 L -43.326 170.405  6.5  VUW  9 0.2 1.1LVUW                1
 GAP=180        0.44       1.6     2.6  3.6  0.2454E+00  0.2074E+01  0.3164E+01E
 ACTION:NEW 15- 8-11 15: 4 OP:CALU STATUS:               ID:20130918011335     I
 2013-09-18-0112-54.DFDPC_027_00                                               6
 STAT SP IPHASW D HRMM SECON CODA AMPLIT PERI AZIMU VELO AIN AR TRES W  DIS CAZ7
 WV04 SZ IP   1    113 35.15                             151    0.01 7    2  12 
 WV04 SZ  IAML     113 36.20        18.90.064                             2  12 
 WZ11 HZ IP        113 35.12                             146   -0.0510    3   6 
 WZ11 HE IS        113 35.85                             146   -0.0410    3   6 
 WZ11 HZ  IAML     113 35.88        10.2 0.18                             3   6 
 GCSZ SZ IP        113 35.52                             128   -0.0610    6 280 
 GCSZ S1 IS        113 36.42                             128   -0.1510    6 280 
 GCSZ EZ  IAML     113 36.81         1.3  0.2                             6 280 
 WZ04 HE IS        113 37.45                             120    0.3210    8 315 
 WHYM SZ IP   2    113 37.00                             114    0.35 5   13 192 
 WHYM SN IS   2    113 38.83                             114    0.46 5   13 192 
 WHYM SZ  IAML     113 40.28         3.4 0.25                            13 192 
 WZ08 HZ IP   4    113 38.72                             103    0.75 0   21   2 
 WZ08 HZ  IAML     113 46.56        32.8  1.0                            21   2 
 LABE SZ IP   2    113 39.09                             103   -0.05 5   27 208 
 LABE SZ  IAML     113 42.21         1.3 0.27                            27 208 
 LABE SN IS   2    113 42.32                             103   -0.24 5   27 208 
                                                                                
 2013  918 0632  1.9 L -43.325 170.407  6.7  VUW  9 0.2 0.9LVUW                1
 GAP=183        0.50       1.9     2.9  4.0  0.3915E+00  0.2703E+01  0.3999E+01E
 ACTION:NEW 15- 8-11 15: 4 OP:CALU STATUS:               ID:20130918063203     I
 2013-09-18-0631-21.DFDPC_027_00                                               6
 STAT SP IPHASW D HRMM SECON CODA AMPLIT PERI AZIMU VELO AIN AR TRES W  DIS CAZ7
 WV04 SZ IP   1    632  2.96                             153    0.02 7    2  10 
 WV04 SZ  IAML     632  4.29         5.70.184                             2  10 
 WZ11 HZ IP        632  2.93                             148   -0.0510    3   4 
 WZ11 HE IS        632  3.66                             148   -0.0410    3   4 
 WZ11 HZ  IAML     632  3.75         8.9 0.36                             3   4 
 GCSZ SZ IP        632  3.33                             129   -0.0810    6 279 
 GCSZ S1 IS        632  4.24                             129   -0.1810    6 279 
 GCSZ EZ  IAML     632  4.84         0.6 0.26                             6 279 
 WZ04 HZ IP        632  3.53                             120   -0.2010    8 314 
 WZ04 HZ  IAML     632  6.63        20.8 0.26                             8 314 
 WHYM SZ IP   2    632  4.82                             114    0.34 5   13 193 
 WHYM SZ  IAML     632  6.85         2.6 0.15                            13 193 
 LABE SN IS   2    632 10.15                             103   -0.27 5   27 208 
                                                                                
 2013  918 2120 52.5 L -43.336 170.374  9.1  VUW  8 0.1 1.2LVUW                1
 GAP= 89        0.43       1.2     1.6  3.0 -0.3672E+00  0.1055E+01  0.1489E+01E
 ACTION:NEW 15- 8-11 13:49 OP:CALU STATUS:               ID:20130918212054     I
 2013-09-18-2120-12.DFDPC_024_00                                               6
 STAT SP IPHASW D HRMM SECON CODA AMPLIT PERI AZIMU VELO AIN AR TRES W  DIS CAZ7
 GCSZ SZ IP       2120 53.93                             149   -0.1710    4 300 
 GCSZ S1 IS       2120 55.24                             149    0.0810    4 300 
 GCSZ EZ  IAML    2120 55.49        11.2 0.08                             4 300 
 WV04 SZ IP       2120 54.16                             146    0.0310    5  39 
 WV04 SZ  IAML    2120 55.76        29.6 0.16                             5  39 
 WZ11 HZ IP       2120 54.21                             144    0.0610    5  33 
 WZ11 HZ  IAML    2120 56.32        16.9  0.2                             5  33 
 WV03 SZ IP       2120 54.21                             144    0.0410    5  29 
 WV03 SZ  IAML    2120 56.38        19.60.264                             5  29 
 WZ02 EN IS       2120 55.82                             129   -0.2110    9  99 
 WZ02 EZ  IAML    2120 56.08         3.4  0.1                             9  99 
 WHYM SZ IP       2120 55.32                             124    0.2610   11 181 
 WHYM SN IS       2120 56.91                             124    0.1310   11 181 
 WHYM SZ  IAML    2120 57.11        12.5 0.12                            11 181 
 EORO SZ IP       2120 56.25                             109    0.0510   19 239 
 EORO SN IS       2120 58.57                             109   -0.1210   19 239 
 EORO SZ  IAML    2120 58.94         3.9 0.08                            19 239 
 LABE SN IS       2121  0.40                             106   -0.1510   25 204 
 LABE SZ  IAML    2121  0.68         2.9 0.16                            25 204 
                                                                                
 2013  918 2120 53.0 L -43.351 170.388  6.8  VUW  9 0.2 1.3LVUW                1
 GAP=100        0.40       1.2     1.4  3.7  0.3469E+00  0.1194E+01  0.2026E+01E
 ACTION:NEW 15- 7-15  2:10 OP:CALU STATUS:               ID:20130918212054     I
 2013-09-18-2120-13.DFDPC_027_00                                               6
 STAT SP IPHASW D HRMM SECON CODA AMPLIT PERI AZIMU VELO AIN AR TRES W  DIS CAZ7
 GCSZ SZ IP   3   2120 54.37                             130   -0.05 2    6 308 
 GCSZ S2 IS       2120 55.36                             130   -0.0610    6 308 
 GCSZ EZ  IAML    2120 55.49        11.3 0.08                             6 308 
 WZ11 HZ IP       2120 54.23                             129   -0.1810    6  16 
 WZ11 HZ  IAML    2120 56.22        14.9  0.2                             6  16 
 WV03 SZ IP   1   2120 54.21                             129   -0.24 7    6  13 
 WV03 SZ  IAML    2120 58.22        20.90.208                             6  13 
 WZ02 EZ IP       2120 54.69                             125    0.0610    7  88 
 WZ02 EN IS       2120 55.74                             125   -0.0210    7  88 
 WZ02 EZ  IAML    2120 56.08         3.3  0.1                             7  88 
 WHYM SZ IP   1   2120 55.31                             121    0.28 7   10 188 
 WHYM SN IS   3   2120 56.90                             121    0.46 2   10 188 
 WHYM SZ  IAML    2120 57.11        12.4 0.12                            10 188 
 WZ04 HZ IP       2120 55.04                             117    0.0510   10 332 
 WZ04 HZ  IAML    2120 56.44        31.8 0.52                            10 332 
 WZ04 HE IS       2120 56.61                             117    0.2410   10 332 
 EORO SZ IP   1   2120 56.48                             105   -0.06 7   19 245 
 EORO SN IS   2   2120 58.57                             105   -0.40 5   19 245 
 EORO SZ  IAML    2120 58.94         3.9 0.08                            19 245 
 WZ08 HZ IP   4   2120 58.06                             102    0.74 0   24   5 
 WZ08 HZ  IAML    2121 12.94        56.1 0.88                            24   5 
 LABE SZ IP   2   2120 57.60                             105    0.15 5   24 208 
 LABE SE IS   2   2121  0.37                             105   -0.14 5   24 208 
 LABE SZ  IAML    2121  0.68         3.0 0.16                            24 208 
                                                                                
 2013  918 2350  7.5 L -43.355 170.324  9.8  VUW  6 0.1 0.8LVUW                1
 GAP=104        0.33       1.3     1.8  4.0  0.4036E+00 -0.6625E+00  0.1128E+01E
 ACTION:NEW 15- 7-15  1:52 OP:CALU STATUS:               ID:20130918235009     I
 2013-09-18-2349-27.DFDPC_021_00                                               6
 STAT SP IPHASW D HRMM SECON CODA AMPLIT PERI AZIMU VELO AIN AR TRES W  DIS CAZ7
 WZ04 HZ IP       2350  9.72                             130    0.0010    9   2 
 WZ04 HN IS       2350 11.30                             130    0.0910    9   2 
 WHYM SZ IP   1   2350 10.06                             130    0.12 7   10 158 
 WHYM SN IS   2   2350 11.67                             130    0.09 5   10 158 
 WHYM SZ  IAML    2350 11.95         6.6 0.24                            10 158 
 WV02 SZ IP   2   2350  9.86                             126   -0.04 5   10  43 
 WZ02 EZ IP       2350 10.33                             121    0.1010   13  87 
 WZ02 EN IS       2350 11.97                             121   -0.1110   13  87 
 WZ02 EZ  IAML    2350 12.26         1.7  0.1                            13  87 
 FRAN S2 IS   2   2350 11.94                             120   -0.27 5   13 258 
 FRAN S1  IAML    2350 12.70         0.0 0.29                            13 258 
                                                                                
 2013  918 2350  7.7 L -43.346 170.318  7.6  VUW  6 0.1 0.8LVUW                1
 GAP=118        0.26       1.4     1.3  2.3 -0.3118E+00 -0.8208E+00  0.1941E+01E
 ACTION:NEW 15- 7-15  2:41 OP:CALU STATUS:               ID:20130918235009     I
 2013-09-18-2349-27.DFDPC_021_00                                               6
 STAT SP IPHASW D HRMM SECON CODA AMPLIT PERI AZIMU VELO AIN AR TRES W  DIS CAZ7
 GCSZ SZ IP       2350  8.93                             151    0.0210    3  12 
 GCSZ S2 IS       2350  9.75                             151   -0.0010    3  12 
 GCSZ EZ  IAML    2350 10.17         8.7 0.08                             3  12 
 WV04 SZ IP   1   2350  9.61                             124    0.02 7    9  57 
 WV04 SZ  IAML    2350 13.07        10.10.216                             9  57 
 WHYM SZ IP   1   2350 10.06                             121    0.05 7   11 158 
 WHYM SN IS   2   2350 11.66                             121    0.05 5   11 158 
 WHYM SZ  IAML    2350 11.95         6.9 0.24                            11 158 
 FRAN S2 IS   2   2350 11.97                             115   -0.04 5   13 253 
 FRAN S1  IAML    2350 12.70         0.0 0.29                            13 253 
 WZ02 EZ IP       2350 10.29                             115    0.0310   13  91 
 WZ02 EN IS       2350 11.98                             115   -0.0610   13  91 
 WZ02 EZ  IAML    2350 12.26         1.8  0.1                            13  91 
 EORO SZ IP   2   2350 10.39                             113   -0.13 5   15 233 
 EORO SZ  IAML    2350 16.10         2.3 0.32                            15 233 
                                                                                
 2013  919 0926 59.1 L -43.352 170.386  5.9  VUW  9 0.2 1.1LVUW                1
 GAP=100        0.42       1.2     1.4  4.2  0.3328E+00  0.1208E+01  0.2259E+01E
 ACTION:NEW 15- 7-15  2:11 OP:CALU STATUS:               ID:20130919092700     I
 2013-09-19-0926-19.DFDPC_027_00                                               6
 STAT SP IPHASW D HRMM SECON CODA AMPLIT PERI AZIMU VELO AIN AR TRES W  DIS CAZ7
 GCSZ SZ IP   3    927  0.50                             126    0.00 2    6 310 
 GCSZ S2 IS        927  1.41                             126   -0.0110    6 310 
 GCSZ EZ  IAML     927  1.54         3.1 0.08                             6 310 
 WZ11 HZ IP        927  0.26                             124   -0.2510    6  17 
 WZ11 HZ  IAML     927  2.92        13.3 0.34                             6  17 
 WV03 SZ IP   1    927  0.49                             123   -0.06 7    6  14 
 WV03 SZ  IAML     927  2.94        13.1 0.24                             6  14 
 WZ02 EZ IP        927  0.89                             119    0.1510    7  87 
 WZ02 EN IS        927  1.75                             119   -0.0810    7  87 
 WZ02 EZ  IAML     927  2.36         1.5 0.14                             7  87 
 WHYM SN IS   3    927  2.92                             117    0.45 2   10 187 
 WZ04 HZ IP        927  1.08                             113   -0.0210   10 333 
 WZ04 HZ  IAML     927  3.48        18.1  0.5                            10 333 
 EORO SN IS   2    927  4.60                             103   -0.45 5   19 245 
 LABE SE IS   2    927  6.39                             104   -0.19 5   24 208 
                                                                                
 2013  920 0849 47.3 L -43.356 170.319  8.6  VUW  8 0.2 1.0LVUW                1
 GAP=110        0.46       1.5     4.2  3.8 -0.1566E+01  0.2963E+01  0.2569E+01E
 ACTION:NEW 15- 7-15  1:36 OP:CALU STATUS:               ID:20130920084949     I
 2013-09-20-0849-07.DFDPC_027_00                                               6
 STAT SP IPHASW D HRMM SECON CODA AMPLIT PERI AZIMU VELO AIN AR TRES W  DIS CAZ7
 WZ21 HZ IP        849 49.86                                                    
 WZ21 HZ  IAML     849 51.02         0.9 0.86                                   
 GCSZ S2 IS        849 49.73                             147   -0.0810    4   8 
 WZ04 HZ IP        849 49.49                             125    0.1010    9   5 
 WZ04 HZ  IAML     849 51.12        10.9 0.58                             9   5 
 WHYM SZ IP   2    849 49.48                             126   -0.09 5   10 156 
 WHYM SZ  IAML     849 52.35        10.3 0.19                            10 156 
 FRAN S1  IAML     849 54.72         0.0 0.24                            13 258 
 LABE SZ IP   1    849 51.80                             108    0.37 7   21 196 
 LABE SN IS   2    849 54.18                             108   -0.07 5   21 196 
 LABE SZ  IAML     849 55.90         4.7 0.22                            21 196 
                                                                                
 2013  920 1728 18.4 L -43.330 170.501  8.6  VUW 19 0.3 1.5LVUW                1
 GAP= 84        0.66       1.6     1.9  2.2 -0.1303E+01  0.8578E+00 -0.6823E+00E
 ACTION:NEW 15- 8-11 13:58 OP:CALU STATUS:               ID:20130920172820     I
 2013-09-20-1727-38.DFDPC_057_00                                               6
 STAT SP IPHASW D HRMM SECON CODA AMPLIT PERI AZIMU VELO AIN AR TRES W  DIS CAZ7
 WZ02 EN IS       1728 20.34                             161   -0.3010    2 213 
 WV04 SZ IP   2   1728 20.42                             131    0.16 5    7 294 
 WV04 SZ  IAML    1728 23.08        11.10.248                             7 294 
 WZ11 HE IS       1728 21.66                             129    0.0610    8 297 
 WV03 SZ IP   3   1728 20.63                             128    0.26 2    8 298 
 WV03 SZ  IAML    1728 23.50        35.3 0.08                             8 298 
 WV02 SZ IP   3   1728 20.55                             128    0.17 2    8 306 
 WV02 SZ  IAML    1728 25.40        17.20.224                             8 306 
 WZ04 HZ IP   3   1728 21.69                             112    0.30 2   15 296 
 WZ04 HZ  IAML    1728 30.71        22.9 0.64                            15 296 
 WHYM SN IS       1728 23.44                             114   -0.2810   16 220 
 WZ08 HZ IP   4   1728 23.56                             103    0.97 0   22 342 
 WZ08 HZ  IAML    1728 32.69        66.2 1.04                            22 342 
 WZ09 HZ IP   4   1728 23.80                             102    0.95 0   24 356 
 WZ09 HZ  IAML    1728 36.09        83.2 1.12                            24 356 
 EORO SZ IP   1   1728 23.67                              99    0.03 7   28 248 
 EORO SZ  IAML    1728 28.68         1.8 0.23                            28 248 
 MTFO SN IS   2   1728 31.61                              94   -0.33 5   45 243 
                                                                                
