 2013  9 1 0411 15.7 L -43.340 170.376  8.5  VUW  8 0.2 0.6LVUW                1
 GAP= 86        0.45       1.2     1.6  3.2 -0.3384E+00  0.1270E+01  0.1667E+01E
 ACTION:NEW 15- 8-11 13:39 OP:CALU STATUS:               ID:20130901041117     I
 2013-09-01-0410-35.DFDPC_024_00                                               6
 STAT SP IPHASW D HRMM SECON CODA AMPLIT PERI AZIMU VELO AIN AR TRES W  DIS CAZ7
 GCSZ SZ IP        411 17.24                             145    0.0610    4 304 
 GCSZ S1 IS        411 18.22                             145    0.0210    4 304 
 GCSZ EZ  IAML     411 18.47         1.8 0.08                             4 304 
 WZ11 HZ IP        411 17.19                             140   -0.0410    5  30 
 WZ11 HZ  IAML     411 20.43         8.9 0.46                             5  30 
 WV03 SZ IP        411 17.19                             140   -0.0710    5  25 
 WV03 SZ  IAML     411 20.56        10.90.232                             5  25 
 WZ02 EN IS        411 18.81                             127   -0.2010    8  96 
 WZ02 EZ  IAML     411 20.59         1.0 0.22                             8  96 
 WHYM SZ IP        411 18.30                             123    0.2210   11 182 
 WHYM SN IS        411 19.89                             123    0.1810   11 182 
 WHYM SZ  IAML     411 20.51         3.1 0.14                            11 182 
 EORO SZ IP        411 19.43                             107    0.1410   19 240 
 EORO SZ  IAML     411 21.38         1.3 0.28                            19 240 
 EORO SN IS        411 21.53                             107   -0.2210   19 240 
 LABE SN IS        411 23.36                             105   -0.1910   25 205 
 LABE SZ  IAML     411 23.61         1.0 0.23                            25 205 
                                                                                
 2013  9 1 0411 16.0 L -43.352 170.388  6.0  VUW  9 0.2 0.8LVUW                1
 GAP=100        0.41       1.2     1.4  4.1  0.3512E+00  0.1332E+01  0.2199E+01E
 ACTION:NEW 15- 7-15  2: 5 OP:CALU STATUS:               ID:20130901041117     I
 2013-09-01-0410-36.DFDPC_027_00                                               6
 STAT SP IPHASW D HRMM SECON CODA AMPLIT PERI AZIMU VELO AIN AR TRES W  DIS CAZ7
 GCSZ SZ IP   3    411 17.43                             126    0.00 2    6 309 
 GCSZ S2 IS        411 18.34                             126   -0.0310    6 309 
 GCSZ EZ  IAML     411 18.47         1.8 0.08                             6 309 
 WV03 SZ IP   1    411 17.19                             124   -0.26 7    6  13 
 WV03 SZ  IAML     411 20.56        10.90.232                             6  13 
 WZ02 EN IS        411 18.73                             121    0.0210    7  87 
 WHYM SZ IP   1    411 18.21                             118    0.17 7   10 188 
 WHYM SN IS   3    411 19.88                             118    0.49 2   10 188 
 WHYM SZ  IAML     411 20.51         3.1 0.14                            10 188 
 WZ04 HZ IP        411 18.11                             113    0.0810   10 332 
 WZ04 HZ  IAML     411 20.35        16.1 0.36                            10 332 
 EORO SN IS   2    411 21.53                             103   -0.47 5   19 245 
 LABE SE IS   2    411 23.33                             104   -0.19 5   24 208 
                                                                                
 2013  9 1 2040 51.8 L -43.302 170.533 10.6  VUW 13 0.2 1.0LVUW                1
 GAP=131        0.56       1.6     2.1  2.5 -0.2130E+01  0.1129E+01 -0.1151E+01E
 ACTION:NEW 15- 8-12 16:30 OP:CALU STATUS:               ID:20130901204054     I
 2013-09-01-2040-11.DFDPC_039_00                                               6
 STAT SP IPHASW D HRMM SECON CODA AMPLIT PERI AZIMU VELO AIN AR TRES W  DIS CAZ7
 WZ16 EZ  IAML    2040 54.96         7.1 0.08                             5 179 
 WZ16 EN IS       2040 55.11                             147    0.1010    5 179 
 WZ02 EZ IP       2040 53.91                             144    0.1310    6 218 
 WZ02 EE IS       2040 54.91                             144   -0.2110    6 218 
 WZ02 EZ  IAML    2040 55.48         2.2 0.16                             6 218 
 WV02 SZ IP   2   2040 54.30                             132    0.14 5    9 282 
 WV02 SZ  IAML    2040 58.18        12.6 0.28                             9 282 
 WZ11 HZ IP       2040 54.39                             131    0.2210   10 274 
 WZ11 HZ  IAML    2040 58.80        16.5 0.58                            10 274 
 WZ20 EZ IP       2040 54.40                             134    0.0910   10  11 
 WZ20 EZ  IAML    2040 58.28         1.6 0.18                            10  11 
 WV03 SZ IP   2   2040 54.45                             130    0.23 5   10 275 
 WV03 SZ  IAML    2041  0.60        11.10.384                            10 275 
 WZ10 HN IS       2040 56.15                             126   -0.0910   12 355 
 WZ10 HZ  IAML    2040 59.37        17.5 0.62                            12 355 
 GCSZ SZ IP       2040 55.41                             117    0.2410   16 265 
 GCSZ S2 IS       2040 57.38                             117   -0.0710   16 265 
 GCSZ EZ  IAML    2040 57.55         1.5  0.1                            16 265 
 WHYM SZ IP   2   2040 56.01                             114    0.25 5   20 220 
 WHYM SN IS   2   2040 58.48                             114    0.03 5   20 220 
 WHYM SZ  IAML    2040 58.89         4.0 0.14                            20 220 
 WZ14 EZ IP       2040 57.86                             106    0.2210   31  48 
 WZ14 EE IS       2041  1.21                             106   -0.4010   31  48 
 WZ14 EZ  IAML    2041  1.53         0.7  0.2                            31  48 
 EORO SZ IP   1   2040 57.93                             103    0.19 7   32 245 
 EORO SZ  IAML    2041 15.42         1.2 0.32                            32 245 
 LABE SZ IP   3   2040 58.63                             103    0.28 2   35 221 
 LABE SN IS   2   2041  2.49                             103   -0.31 5   35 221 
 LABE SZ  IAML    2041  5.00        10.7  0.2                            35 221 
 MTFO SE IS       2041  6.06                              98   -0.4410   48 241 
 MTFO SZ  IAML    2041 12.91         3.4 0.57                            48 241 
                                                                                
 2013  9 2 0715 42.3 L -43.312 170.393  6.4  VUW  6 0.0 0.6LVUW                1
 GAP=121        0.26       1.0     1.0  2.7 -0.5674E-01 -0.5778E+00  0.1432E+01E
 ACTION:NEW 15- 8-12 16:36 OP:CALU STATUS:               ID:20130902071543     I
 2013-09-02-0715-02.DFDPC_018_00                                               6
 STAT SP IPHASW D HRMM SECON CODA AMPLIT PERI AZIMU VELO AIN AR TRES W  DIS CAZ7
 WV04 SZ IP        715 43.20                             158    0.0110    2  52 
 WV04 SZ  IAML     715 44.29        10.50.064                             2  52 
 WV03 SZ IP        715 43.15                             154   -0.0710    2  27 
 WV03 SZ  IAML     715 44.35        15.4 0.24                             2  27 
 WV02 SZ IP   1    715 43.34                             144    0.01 7    3  28 
 WV02 SZ  IAML     715 45.10         9.20.104                             3  28 
 GCSZ SZ IP        715 43.56                             133   -0.0010    5 266 
 GCSZ S2 IS        715 44.48                             133    0.0310    5 266 
 GCSZ EZ  IAML     715 44.94         0.8 0.14                             5 266 
 WZ02 EZ IP        715 44.01                             121    0.0310    8 119 
 WZ02 EE IS        715 45.17                             121    0.0210    8 119 
 WZ02 EZ  IAML     715 45.52         1.4  0.1                             8 119 
 WHYM SZ IP        715 45.01                             112    0.0210   14 187 
 WHYM SN IS        715 46.81                             112   -0.0410   14 187 
 WHYM SZ  IAML     715 47.10         4.0 0.18                            14 187 
                                                                                
 2013  9 2 1958  0.7 L -43.337 170.378  9.1  VUW  8 0.2 0.7LVUW                1
 GAP= 85        0.48       1.3     1.8  3.3 -0.3960E+00  0.1555E+01  0.1793E+01E
 ACTION:NEW 15- 8-11 13:41 OP:CALU STATUS:               ID:20130902195802     I
 2013-09-02-1957-20.DFDPC_024_00                                               6
 STAT SP IPHASW D HRMM SECON CODA AMPLIT PERI AZIMU VELO AIN AR TRES W  DIS CAZ7
 GCSZ S1 IS       1958  3.32                             147   -0.0210    4 300 
 WV04 SZ IP       1958  2.15                             147   -0.1010    4  35 
 WV04 SZ  IAML    1958  4.42         8.3 0.32                             4  35 
 WV03 SZ IP       1958  2.28                             144   -0.0210    5  25 
 WV03 SZ  IAML    1958  5.57        12.80.224                             5  25 
 WZ02 EN IS       1958  3.90                             130   -0.1810    8  98 
 WZ02 EZ  IAML    1958  3.93         1.0  0.2                             8  98 
 WHYM SZ IP       1958  3.23                             124    0.0510   11 183 
 WHYM SZ  IAML    1958  5.05         3.1 0.24                            11 183 
 WHYM SN IS       1958  5.18                             124    0.3010   11 183 
 EORO SN IS       1958  6.77                             109   -0.1210   19 240 
 LABE SN IS       1958  8.44                             106   -0.2510   25 205 
 LABE SZ  IAML    1958 13.30         1.2 0.35                            25 205 
                                                                                
 2013  9 5 0208 14.3 L -43.341 170.380  8.2  VUW 11 0.1 1.2LVUW                1
 GAP= 88        0.34       1.2     1.0  2.6 -0.2218E+00  0.6797E+00  0.1785E+01E
 ACTION:NEW 15- 8-11 13:28 OP:CALU STATUS:               ID:20130905020816     I
 2013-09-05-0207-34.DFDPC_036_00                                               6
 STAT SP IPHASW D HRMM SECON CODA AMPLIT PERI AZIMU VELO AIN AR TRES W  DIS CAZ7
 GCSZ SZ IP        2 8 15.95                             142    0.1110    5 303 
 GCSZ EZ  IAML     2 8 17.10         6.4 0.08                             5 303 
 WV04 SZ  IAML     2 8 18.08        23.2 0.08                             5  31 
 GCSZ S1 IS        2 8 16.85                             142   -0.0210    5 303 
 WV04 SZ IP        2 8 15.79                             142   -0.0410    5  31 
 WZ11 HZ IP        2 8 15.86                             139   -0.0110    5  26 
 WZ11 HZ  IAML     2 8 18.17        11.0  0.1                             5  26 
 WV03 SZ IP        2 8 15.82                             139   -0.0710    5  22 
 WV03 SZ  IAML     2 8 19.11        20.0  0.2                             5  22 
 WV02 SZ IP   2    2 8 16.07                             133    0.02 5    7  23 
 WV02 SZ  IAML     2 8 19.57        20.50.216                             7  23 
 WZ02 EZ IP        2 8 16.34                             127    0.0810    8  96 
 WZ02 EN IS        2 8 17.46                             127   -0.1010    8  96 
 WZ02 EZ  IAML     2 8 18.38         7.1  0.1                             8  96 
 WHYM SZ IP   1    2 8 16.93                             122    0.23 7   11 183 
 WHYM SN IS   2    2 8 18.52                             122    0.21 5   11 183 
 WHYM SZ  IAML     2 8 19.39        10.3 0.09                            11 183 
 FRAN S3 IS        2 8 20.24                             107    0.1310   18 256 
 FRAN S1  IAML     2 8 20.77         0.0 0.09                            18 256 
 EORO SZ IP   1    2 8 18.08                             106    0.10 7   19 241 
 EORO SN IS   1    2 8 20.16                             106   -0.30 7   19 241 
 EORO SZ  IAML     2 8 21.22         4.0 0.09                            19 241 
 LABE SN IS   2    2 8 21.98                             104   -0.22 5   25 205 
 LABE SZ  IAML     2 8 23.66         2.7 0.17                            25 205 
 MTFO SN IS        2 8 25.13                              95   -0.0910   35 238 
 MTFO SZ  IAML     2 8 31.11         7.1 0.82                            35 238 
                                                                                
 2013  9 5 0208 15.4 L -43.355 170.389  5.9  VUW  9 0.2 1.3LVUW                1
 GAP=103        0.48       1.4     1.6  5.1  0.4410E+00  0.2032E+01  0.2922E+01E
 ACTION:NEW 15- 7-15  2: 7 OP:CALU STATUS:               ID:20130905020816     I
 2013-09-05-0207-35.DFDPC_027_00                                               6
 STAT SP IPHASW D HRMM SECON CODA AMPLIT PERI AZIMU VELO AIN AR TRES W  DIS CAZ7
 GCSZ S2 IS        2 8 17.66                             124   -0.1210    6 310 
 WZ11 HZ IP        2 8 16.55                             123   -0.2610    6  15 
 WZ11 HZ  IAML     2 8 20.07        12.1  0.2                             6  15 
 WV03 SZ IP   1    2 8 16.53                             122   -0.32 7    6  12 
 WV03 SZ  IAML     2 8 19.11        19.4  0.2                             6  12 
 WZ02 EN IS        2 8 18.08                             120    0.0310    7  85 
 WHYM SZ IP   1    2 8 17.62                             118    0.28 7    9 188 
 WHYM SN IS   3    2 8 19.22                             118    0.56 2    9 188 
 WHYM SZ  IAML     2 8 19.99        11.1 0.14                             9 188 
 EORO SZ IP   1    2 8 18.98                             103    0.05 7   19 246 
 EORO SN IS   2    2 8 20.86                             103   -0.47 5   19 246 
 EORO SZ  IAML     2 8 21.22         4.1 0.09                            19 246 
 LABE SZ IP   2    2 8 19.91                             104    0.10 5   24 209 
 LABE SE IS   2    2 8 22.66                             104   -0.14 5   24 209 
 LABE SZ  IAML     2 8 23.66         2.6 0.17                            24 209 
                                                                                
 2013  9 5 0208 15.0 L -43.339 170.376  8.6  VUW  8 0.1 1.2LVUW                1
 GAP= 85        0.44       1.2     1.6  3.1 -0.3236E+00  0.1145E+01  0.1573E+01E
 ACTION:NEW 15- 8-11 13:43 OP:CALU STATUS:               ID:20130905020816     I
 2013-09-05-0207-35.DFDPC_024_00                                               6
 STAT SP IPHASW D HRMM SECON CODA AMPLIT PERI AZIMU VELO AIN AR TRES W  DIS CAZ7
 GCSZ SZ IP        2 8 16.49                             146    0.0110    4 303 
 GCSZ S1 IS        2 8 17.55                             146    0.0410    4 303 
 GCSZ EZ  IAML     2 8 17.80         9.7 0.08                             4 303 
 WV04 SZ IP        2 8 16.49                             144   -0.0110    5  36 
 WV04 SZ  IAML     2 8 18.11        21.5 0.12                             5  36 
 WZ11 HZ IP        2 8 16.53                             141    0.0010    5  31 
 WZ11 HZ  IAML     2 8 18.28        19.6  0.4                             5  31 
 WV03 SZ IP        2 8 16.53                             141   -0.0210    5  26 
 WV03 SZ  IAML     2 8 19.11        19.7  0.2                             5  26 
 WZ02 EN IS        2 8 18.16                             128   -0.1810    8  97 
 WZ02 EZ  IAML     2 8 18.42         7.2  0.1                             8  97 
 WHYM SZ IP        2 8 17.63                             123    0.2310   11 182 
 WHYM SN IS        2 8 19.23                             123    0.1710   11 182 
 WHYM SZ  IAML     2 8 19.99        11.1 0.14                            11 182 
 EORO SZ IP        2 8 18.76                             107    0.1610   19 240 
 EORO SN IS        2 8 20.86                             107   -0.2110   19 240 
 EORO SZ  IAML     2 8 21.22         4.0 0.09                            19 240 
 LABE SN IS        2 8 22.69                             105   -0.2010   25 205 
 LABE SZ  IAML     2 8 23.66         2.7 0.17                            25 205 
                                                                                
 2013  9 8 0326 41.9 L -43.340 170.352  4.5  VUW 11 0.2 0.8LVUW                1
 GAP= 85        0.54       1.5     2.0  4.4 -0.1728E+01 -0.2792E+01  0.4330E+01E
 ACTION:NEW 15- 8-11 14: 9 OP:CALU STATUS:               ID:20130908032643     I
 2013-09-08-0326-01.DFDPC_033_00                                               6
 STAT SP IPHASW D HRMM SECON CODA AMPLIT PERI AZIMU VELO AIN AR TRES W  DIS CAZ7
 GCSZ SZ IP        326 42.83                             132    0.1310    3 322 
 GCSZ EZ  IAML     326 43.26         1.2 0.38                             3 322 
 GCSZ S1 IS        326 43.39                             132    0.1510    3 322 
 WV04 S2 IS   1    326 44.07                             115    0.07 7    6  49 
 WZ11 HE IS        326 44.06                             113   -0.0010    6  44 
 WV03 S2 IS   1    326 43.83                             114   -0.25 7    6  40 
 WV01 SZ IP   1    326 43.43                             112    0.13 7    7  28 
 WV01 SZ  IAML     326 43.74         4.70.264                             7  28 
 WHYM SZ IP        326 44.41                             108    0.4210   11 172 
 WHYM SZ  IAML     326 48.54         4.5 0.41                            11 172 
 EORO SN IS   1    326 46.92                             100   -0.28 7   17 237 
 LABE SE IS        326 48.93                             100   -0.3410   24 201 
                                                                                
 2013  911 1205 27.0 L -43.336 170.382  7.5  VUW  6 0.1 1.8LVUW                1
 GAP=157        0.29       0.9     1.3  2.7 -0.2210E+00 -0.5874E+00  0.7982E+00E
 ACTION:NEW 15- 8-11 14:11 OP:CALU STATUS:               ID:20130911120528     I
 2013-09-11-1204-47.DFDPC_021_00                                               6
 STAT SP IPHASW D HRMM SECON CODA AMPLIT PERI AZIMU VELO AIN AR TRES W  DIS CAZ7
 GCSZ SZ IP       12 5 28.48                             141    0.0910    5 297 
 GCSZ S1 IS       12 5 29.35                             141    0.0110    5 297 
 GCSZ EZ  IAML    12 5 29.61        28.7 0.08                             5 297 
 WZ11 HZ IP       12 5 28.34                             140   -0.0310    5  27 
 WZ11 HZ  IAML    12 5 30.68        69.3 0.46                             5  27 
 WV03 SZ IP       12 5 28.33                             139   -0.0610    5  23 
 WV03 SZ  IAML    12 5 31.33        66.70.088                             5  23 
 WV02 SZ IP   1   12 5 28.57                             133    0.02 7    6  24 
 WV02 SZ  IAML    12 5 32.31        69.00.432                             6  24 
 WHYM SZ IP       12 5 29.44                             120    0.0610   11 184 
 WHYM SZ  IAML    12 5 30.92        40.5 0.15                            11 184 
 WHYM SE IS       12 5 30.97                             120   -0.0310   11 184 
 FRAN S3 IS       12 5 32.73                             108   -0.0510   18 255 
 FRAN S1  IAML    12 5 34.84         0.0 0.31                            18 255 
                                                                                
