 2016  911 2359 54.9 L -37.345 178.756 25.0  TES  5 0.6                        1
 GAP=319        1.44     322.8   375.2547.3  0.1201E+06 -0.2039E+06 -0.1752E+06E
 ACTION:ARG 16-10-14 16:29 OP:EW-S STATUS:               ID:20160912000015     I
 DUMMY                                                                         6
 STAT SP IPHASW D HRMM SECON CODA AMPLIT PERI AZIMU VELO AIN AR TRES W  DIS CAZ7
 FOZ  HZ  P       24 0  3.33                             101   -0.7810 46.7 238
 LBZ  EZ  P       24 0  6.73                              82    0.5810 60.7 210
 WVZ  HZ  P       24 0 11.81                              56    0.5510 97.4 242

