 2015  424 1525 37.7 L  37.292 -32.270  2.0  wcc  4 0.1-0.7Lwcc                1
 GAP=231        0.18       0.5     1.1  0.7 -0.2149E+00  0.1451E-01  0.2737E-01E
 2015  424 1525 37.676  37.29242  -32.26983    1.969  0.051                    H
 ACTION:UPD 19-03-08 15:46 OP:wcc  STATUS:               ID:20150424152537 L   I
 2015-04-24-1525-05M.LSFIR_020                                                 6
 STAT SP IPHASW D HRMM SECON CODA AMPLIT PERI AZIMU VELO AIN AR TRES W  DIS CAZ7
 LSVCISZ EPg  0A  152538.392                             149   -0.0810 0.92 263 
 LSVCISZ ESg  0A  152539.162                             149    0.0410 0.92 263 
 LSVCISZ  IAML A  152539.262       43.69 0.10                          0.92 263 
 LSVNISZ EPg  0A  1525 38.66                             106    0.0210 3.11 345 
 LSVNISZ  IAML A  1525 39.96       41.55 0.13                          3.11 345 
 LSVSISZ EPg  1A  1525 38.96                              98   -0.02 7 4.54 216 
 LSVSISZ ESg  0A  1525 40.09                              98    0.0210 4.54 216 
 LSVSISZ  IAML A  1525 40.91        3.22 0.13                          4.54 216 
 LSVWISZ EPg  1A  1525 39.00                              97    0.08 7 4.89 275 
 LSVWISZ ESg  1A  1525 39.89                              97   -0.06 7 4.89 275 
 LSVWISZ  IAML A  1525 40.04       26.89 0.06                          4.89 275 
                                                                                
 2015  424 1528  0.3 L  37.297 -32.279  3.4  wcc  4 0.0-0.7Lwcc                1
 GAP=190        0.16       0.6     1.1  2.2  0.4766E-02  0.1407E+01  0.6605E+00E
 2015  424 1528  0.326  37.29650  -32.27896    3.449  0.038                    H
 ACTION:UPD 19-03-08 15:46 OP:wcc  STATUS:               ID:20150424152800 L   I
 2015-04-24-1527-45M.LSFIR_020                                                 6
 STAT SP IPHASW D HRMM SECON CODA AMPLIT PERI AZIMU VELO AIN AR TRES W  DIS CAZ7
 LSVCISZ EPg  0A  1528 1.302                             167   -0.0310 0.58 190 
 LSVCISZ  IAML A  1528 1.912       16.21 0.10                          0.58 190 
 LSVNISZ EPg  1A  1528  1.27                             126   -0.04 7 2.55 360 
 LSVNISZ ESg  0A  1528  2.16                             126    0.0410 2.55 360 
 LSVNISZ  IAML A  1528  2.61       16.89 0.10                          2.55 360 
 LSVWISZ EPg  0A  1528 1.440                             106    0.0110 4.06 269 
 LSVWISZ ESg  0A  1528 2.320                             106   -0.0210 4.06 269 
 LSVSISZ EPg  2A  1528 1.580                             103   -0.05 5 4.53 204 
 LSVSISZ ESg  1A  1528 2.780                             103    0.06 7 4.53 204 
                                                                                
 2015  424 2032 52.0 L  37.290 -32.278  0.0  wcc  4 0.0-1.8Lwcc                1
 GAP=109        0.20       0.4     0.5  0.5 -0.6184E-02 -0.1625E+00  0.8954E-01E
 2015  424 2032 51.956  37.28992  -32.27836    0.003  0.050                    H
 ACTION:UPD 19-03-08 15:46 OP:wcc  STATUS:               ID:20150424203252 L   I
 2015-04-24-2032-36M.LSFIR_020                                                 6
 STAT SP IPHASW D HRMM SECON CODA AMPLIT PERI AZIMU VELO AIN AR TRES W  DIS CAZ7
 LSVCISZ ESg  0A  203252.281                             147   -0.0510 0.23 317 
 LSVNISZ EPg  1A  2032 53.55                              93    0.08 7 3.28 359 
 LSVNISZ  IAML A  2032 54.23        2.08 0.10                          3.28 359 
 LSVEISZ EPg  0A  2032 53.54                              92   -0.0210 3.30 108 
 LSVEISZ  IAML A  2032 54.21        1.52 0.13                          3.30 108 
 LSVSISZ  IAML A  2032 53.29        1.10 0.58                          3.90 209 
 LSVSISZ EPg  1A  2032 53.92                              92    0.04 7 3.90 209 
                                                                                
 2015  425 0914 59.7 L  37.290 -32.278  0.0  wcc  4 0.1-1.6Lwcc                1
 GAP=172        0.19       1.1     1.3  0.8  0.8652E+00 -0.6997E+00 -0.1402E+00E
 2015  425 0914 59.667  37.28975  -32.27805    0.001  0.080                    H
 ACTION:UPD 19-03-08 15:46 OP:wcc  STATUS:               ID:20150425091459 L   I
 2015-04-25-0914-44M.LSFIR_020                                                 6
 STAT SP IPHASW D HRMM SECON CODA AMPLIT PERI AZIMU VELO AIN AR TRES W  DIS CAZ7
 LSVCISZ ESg  0A  0915 0.020                             143   -0.0410 0.26 315 
 LSVEISZ EPg  2A   915  1.25                              92   -0.00 5 3.27 108 
 LSVEISZ  IAML A   915  2.87        1.44 0.26                          3.27 108 
 LSVNISZ EPg  2A   915 1.300                              93    0.11 5 3.30 359 
 LSVWISZ EPg  3A   915  1.84                              90    0.17 2 4.20 280 
 LSVWISZ  IAML A   915  2.98        3.25 0.16                          4.20 280 
                                                                                
 2015  425 1240 40.6 L  37.292 -32.276  2.9  wcc  5 0.1-0.1Lwcc                1
 GAP=119        0.19       0.4     0.6  1.9  0.5329E-01  0.4969E+00  0.3529E+00E
 2015  425 1240 40.559  37.29240  -32.27589    2.890  0.065                    H
 ACTION:UPD 19-03-08 15:46 OP:wcc  STATUS:               ID:20150425124040 L   I
 2015-04-25-1240-25M.LSFIR_020                                                 6
 STAT SP IPHASW D HRMM SECON CODA AMPLIT PERI AZIMU VELO AIN AR TRES W  DIS CAZ7
 LSVCISZ EPg  0A  124041.450                             170   -0.0310 0.39 253 
 LSVCISZ  IAML A  124042.230       98.45 0.06                          0.39 253 
 LSVNISZ EPg  0A  1240 41.52                             119   -0.0510 3.02 355 
 LSVNISZ ESg  0A  1240 42.50                             119    0.0810 3.02 355 
 LSVNISZ  IAML A  1240 42.93       79.56 0.13                          3.02 355 
 LSVEISZ EPg  1A  1240 41.64                             116    0.01 7 3.19 114 
 LSVEISZ ESg  0A  1240 42.53                             116    0.0110 3.19 114 
 LSVEISZ  IAML A  1240 42.93       44.57 0.10                          3.19 114 
 LSVSISZ EPg  0A  1240 41.76                             105   -0.0810 4.25 210 
 LSVSISZ ESg  0A  1240 43.00                             105    0.0910 4.25 210 
 LSVSISZ  IAML A  1240 43.34       17.35 0.13                          4.25 210 
 LSVWISZ EPg  3A  1240 41.89                             104    0.17 2 4.36 275 
 LSVWISZ ESg  0A  1240 42.66                             104   -0.0310 4.36 275 
 LSVWISZ  IAML A  1240 42.99      144.95 0.10                          4.36 275 
                                                                                
 2015  426 1706 14.6 L  37.293 -32.280  3.1  wcc  5 0.0-0.9Lwcc                1
 GAP=110        0.16       0.5     0.9  1.8 -0.1349E-01  0.8633E+00  0.2641E+00E
 2015  426 1706 14.560  37.29304  -32.28036    3.123  0.047                    H
 ACTION:UPD 19-03-08 15:46 OP:wcc  STATUS:               ID:20150426170614 L   I
 2015-04-26-1705-59M.LSFIR_020                                                 6
 STAT SP IPHASW D HRMM SECON CODA AMPLIT PERI AZIMU VELO AIN AR TRES W  DIS CAZ7
 LSVCISZ EPg  0A  170615.508                             175   -0.0110 0.18 173 
 LSVCISZ  IAML A  170616.068       13.62 0.10                          0.18 173 
 LSVNISZ EPg  3A  17 6 15.54                             110   -0.03 2 2.94   2 
 LSVNISZ ESg  0A  17 6 16.42                             110    0.0110 2.94   2 
 LSVNISZ  IAML A  17 6 16.78       26.47 0.13                          2.94   2 
 LSVEISZ EPg  2A  17 6 15.65                             100   -0.04 5 3.58 112 
 LSVEISZ  IAML A  17 6 16.91        2.88 0.10                          3.58 112 
 LSVWISZ EPg  1A  17 6 15.72                              97    0.08 7 3.95 275 
 LSVWISZ ESg  0A  17 6 16.48                              97   -0.0510 3.95 275 
 LSVWISZ  IAML A  17 6 16.70       23.87 0.10                          3.95 275 
 LSVSISZ EPg  2A  17 6 15.72                              96   -0.08 5 4.13 205 
 LSVSISZ ESg  0A  17 6 16.86                              96    0.0310 4.13 205 
 LSVSISZ  IAML A  17 6 17.08        1.50 0.19                          4.13 205 
                                                                                
 2015  429 1229 25.5 L  37.294 -32.270  3.1  wcc  5 0.1-0.5Lwcc                1
 GAP=138        0.21       0.6     0.9  2.4  0.2104E+00  0.1370E+01  0.5969E+00E
 2015  429 1229 25.510  37.29405  -32.26985    3.116  0.080                    H
 ACTION:UPD 19-03-08 15:46 OP:wcc  STATUS:               ID:20150429122925 L   I
 2015-04-29-1229-10M.LSFIR_020                                                 6
 STAT SP IPHASW D HRMM SECON CODA AMPLIT PERI AZIMU VELO AIN AR TRES W  DIS CAZ7
 LSVCISZ EPg  0A  122926.482                             155   -0.0110 0.96 252 
 LSVCISZ  IAML A  122927.132       40.18 0.13                          0.96 252 
 LSVEISZ EPg  1A  1229 26.69                             111    0.16 7 2.80 122 
 LSVEISZ ESg  0A  1229 27.28                             111   -0.1010 2.80 122 
 LSVEISZ  IAML A  1229 28.30       13.17 0.13                          2.80 122 
 LSVNISZ EPg  1A  1229 26.52                             109    0.00 7 2.94 344 
 LSVNISZ ESg  0A  1229 27.39                             109    0.0410 2.94 344 
 LSVNISZ  IAML A  1229 27.88       39.61 0.10                          2.94 344 
 LSVSISZ EPg  3A  1229 26.71                              94   -0.12 2 4.69 215 
 LSVSISZ ESg  0A  1229 27.99                              94    0.0610 4.69 215 
 LSVSISZ  IAML A  1229 28.72        3.89 0.13                          4.69 215 
 LSVWISZ EPg  1A  1229 26.77                              93    0.05 7 4.88 273 
 LSVWISZ ESg  0A  1229 27.63                              93   -0.1010 4.88 273 
 LSVWISZ  IAML A  1229 28.00       42.45 0.06                          4.88 273 
                                                                                
 2015  430 0932 39.5 L  37.292 -32.269  3.8  wcc  5 0.0-0.9Lwcc                1
 GAP=136        0.14       0.5     1.0  2.1  0.1816E+00  0.1654E+01  0.4121E+00E
 2015  430 0932 39.549  37.29219  -32.26889    3.793  0.028                    H
 ACTION:UPD 19-03-08 15:46 OP:wcc  STATUS:               ID:20150430093239 L   I
 2015-04-30-0932-24M.LSFIR_020                                                 6
 STAT SP IPHASW D HRMM SECON CODA AMPLIT PERI AZIMU VELO AIN AR TRES W  DIS CAZ7
 LSVCISZ EPg  0A  093240.590                             159   -0.0310 1.00 265 
 LSVCISZ  IAML A  093241.120       17.24 0.10                          1.00 265 
 LSVEISZ EPg  2A   932 40.55                             128   -0.04 5 2.63 119 
 LSVEISZ ESg  0A   932 41.48                             128    0.0210 2.63 119 
 LSVEISZ  IAML A   932 41.64        6.46 0.16                          2.63 119 
 LSVNISZ EPg  3A   932 40.54                             120   -0.09 2 3.16 344 
 LSVNISZ ESg  0A   932 41.53                             120    0.0110 3.16 344 
 LSVNISZ  IAML A   932 41.78       17.58 0.13                          3.16 344 
 LSVSISZ EPg  3A   932 40.87                             105    0.00 2 4.57 217 
 LSVSISZ ESg  0A   932 41.96                             105   -0.0010 4.57 217 
 LSVSISZ  IAML A   932 42.71        1.23 0.13                          4.57 217 
 LSVWISZ EPg  0A   932 40.80                             102    0.0210 4.98 275 
 LSVWISZ  IAML A   932 41.98        9.70 0.13                          4.98 275 
                                                                                
 2015  430 0935 51.8 L  37.290 -32.263  3.1  wcc  5 0.1-0.7Lwcc                1
 GAP=145        0.18       0.5     1.4  2.6  0.9733E-01  0.3149E+01  0.5949E-01E
 2015  430 0935 51.827  37.29029  -32.26280    3.137  0.073                    H
 ACTION:UPD 19-03-08 15:46 OP:wcc  STATUS:               ID:20150430093551 L   I
 2015-04-30-0935-36M.LSFIR_020                                                 6
 STAT SP IPHASW D HRMM SECON CODA AMPLIT PERI AZIMU VELO AIN AR TRES W  DIS CAZ7
 LSVCISZ EPg  0A  093552.890                             141    0.0310 1.54 275 
 LSVCISZ  IAML A  093553.420       17.30 0.06                          1.54 275 
 LSVEISZ EPg  2A   935 52.97                             128    0.22 5 2.05 121 
 LSVEISZ ESg  0A   935 53.46                             128   -0.0610 2.05 121 
 LSVEISZ  IAML A   935 53.93        7.02 0.16                          2.05 121 
 LSVNISZ EPg  3A   935 52.81                             102   -0.11 2 3.55 336 
 LSVNISZ ESg  0A   935 53.82                             102   -0.0110 3.55 336 
 LSVNISZ  IAML A   935 53.94       19.71 0.13                          3.55 336 
 LSVSISZ EPg  3A   93553.160                              94   -0.00 2 4.76 224 
 LSVSISZ ESg  0A   93554.280                              94    0.0110 4.76 224 
 LSVWISZ EPg  0A   935 53.12                              93   -0.0210 5.53 277 
 LSVWISZ  IAML A   935 54.28       11.33 0.16                          5.53 277 
                                                                                
 2015  5 1 1530 46.5 L  37.294 -32.290  1.2  wcc  4 0.2-1.3Lwcc                1
 GAP=165        0.24       1.6     1.2  2.3 -0.2735E+00  0.1473E+01 -0.2691E+01E
 2015  5 1 1530 46.451  37.29395  -32.28966    1.155  0.175                    H
 ACTION:UPD 19-03-08 15:46 OP:wcc  STATUS:               ID:20150501153046 L   I
 2015-05-01-1530-31M.LSFIR_020                                                 6
 STAT SP IPHASW D HRMM SECON CODA AMPLIT PERI AZIMU VELO AIN AR TRES W  DIS CAZ7
 LSVCISZ ESg  0A  153047.668                             131    0.0210 0.89 108 
 LSVNISZ EPg  0A  1530 47.38                              95   -0.0010 2.99  18 
 LSVNISZ  IAML A  1530 48.45        5.95 0.22                          2.99  18 
 LSVWISZ EPg  3A  1530 47.93                              94    0.59 2 3.12 274 
 LSVWISZ ESg  2A  1530 47.93                              94   -0.15 5 3.12 274 
 LSVWISZ  IAML A  1530 49.75        6.86 0.13                          3.12 274 
 LSVEISZ EPg  2A  153047.680                              93   -0.06 5 4.39 110 
                                                                                
 2015  5 2 1234 36.4 L  37.274 -32.271  2.9  wcc  4 0.1-1.1Lwcc                1
 GAP=246        0.20       2.9     1.8  2.1 -0.1447E+01  0.5117E+00  0.3337E+01E
 2015  5 2 1234 36.373  37.27422  -32.27060    2.935  0.125                    H
 ACTION:UPD 19-03-08 15:46 OP:wcc  STATUS:               ID:20150502123436 L   I
 2015-05-02-1234-22M.LSFIR_020                                                 6
 STAT SP IPHASW D HRMM SECON CODA AMPLIT PERI AZIMU VELO AIN AR TRES W  DIS CAZ7
 LSVCISZ EPg  3A  123437.266                             127   -0.18 2 2.08 336 
 LSVCISZ ESg  0A  123438.316                             127   -0.0110 2.08 336 
 LSVSISZ EPg  3A  123437.310                             105   -0.15 2 3.08 238 
 LSVNISZ EPg  1A  1234 37.83                              93    0.12 7 5.08 352 
 LSVNISZ ESg  3A  1234 38.47                              93   -0.34 2 5.08 352 
 LSVNISZ  IAML A  1234 41.16        1.99 0.26                          5.08 352 
 LSVWISZ ESg  0A  1234 38.74                              93   -0.0110 5.38 297 
 LSVWISZ  IAML A  1234 39.03        5.33 0.10                          5.38 297 
                                                                                
 2015  5 4 1126  6.0 L  37.280 -32.283  3.1  wcc  4 0.0-0.5Lwcc                1
 GAP=201        0.16       0.5     1.0  2.1 -0.2696E+00  0.9526E+00 -0.7267E+00E
 2015  5 4 1126  6.027  37.28044  -32.28288    3.099  0.037                    H
 ACTION:UPD 19-03-08 15:46 OP:wcc  STATUS:               ID:20150504112606 L   I
 2015-05-04-1125-51M.LSFIR_020                                                 6
 STAT SP IPHASW D HRMM SECON CODA AMPLIT PERI AZIMU VELO AIN AR TRES W  DIS CAZ7
 LSVCISZ EPg  0A  1126 7.012                             149   -0.0210 1.24  11 
 LSVCISZ  IAML A  1126 7.702       50.08 0.06                          1.24  11 
 LSVSISZ EPg  0A  1126  7.01                             117   -0.0710 2.79 213 
 LSVSISZ ESg  0A  1126  8.00                             117    0.0510 2.79 213 
 LSVSISZ  IAML A  1126  8.64       10.50 0.10                          2.79 213 
 LSVWISZ EPg  0A  1126  7.15                             101    0.0210 4.10 295 
 LSVWISZ ESg  0A  1126  8.03                             101   -0.0210 4.10 295 
 LSVWISZ  IAML A  1126  8.28       36.48 0.10                          4.10 295 
 LSVNISZ EPg  2A  1126  7.25                             100    0.00 5 4.35   5 
 LSVNISZ ESg  0A  1126  8.29                             100    0.0310 4.35   5 
 LSVNISZ  IAML A  1126  8.42       11.55 0.13                          4.35   5 
                                                                                
 2015  5 8 1549 30.4 L  37.283 -32.299  1.6  wcc  4 0.1-0.5Lwcc                1
 GAP=121        0.18       0.4     0.5  2.0 -0.1879E-01  0.4340E+00 -0.1285E-01E
 2015  5 8 1549 30.416  37.28315  -32.29942    1.594  0.064                    H
 ACTION:UPD 19-03-08 15:46 OP:wcc  STATUS:               ID:20150508154930 L   I
 2015-05-08-1548-50M.LSFIR_020                                                 6
 STAT SP IPHASW D HRMM SECON CODA AMPLIT PERI AZIMU VELO AIN AR TRES W  DIS CAZ7
 LSVCISZ EPg  0A  154931.344                             113    0.0210 1.94  62 
 LSVCISZ ESg  0A  154932.044                             113   -0.0310 1.94  62 
 LSVCISZ  IAML A  154932.144       17.71 0.06                          1.94  62 
 LSVSISZ EPg  0A  1549 31.25                             101   -0.0910 2.65 181 
 LSVSISZ ESg  2A  1549 32.28                             101    0.17 5 2.65 181 
 LSVSISZ  IAML A  1549 32.29       21.96 0.06                          2.65 181 
 LSVWISZ EPg  0A  1549 31.24                             101    0.0310 2.66 302 
 LSVWISZ ESg  0A  1549 31.86                             101   -0.0010 2.66 302 
 LSVWISZ  IAML A  1549 32.22      193.11 0.06                          2.66 302 
 LSVNISZ EPg  2A  1549 31.59                              94   -0.06 5 4.42  24 
 LSVNISZ ESg  0A  1549 32.71                              94    0.0310 4.42  24 
 LSVNISZ  IAML A  1549 32.76       25.19 0.13                          4.42  24 
                                                                                
 2015  511 2201 17.7 L  37.311 -32.299  3.5  wcc  4 0.0-                       1
 GAP=187        0.15       2.0     0.7  2.2  0.2415E+00 -0.3857E+00 -0.2413E+01E
 2015  511 2201 17.725  37.31059  -32.29920    3.499  0.011                    H
 ACTION:UPD 19-03-08 15:46 OP:wcc  STATUS:               ID:20150511220117 L   I
 2015-05-11-2200-41M.LSFIR_020                                                 6
 STAT SP IPHASW D HRMM SECON CODA AMPLIT PERI AZIMU VELO AIN AR TRES W  DIS CAZ7
 LSVNISZ ESg  3   22 119.435                             136    0.01 2 2.05  61 
 LSVCISZ EPg  0A  220118.907                             125   -0.0110 2.72 142 
 LSVCISZ ESg  0A  220119.917                             125    0.0110 2.72 142 
 LSVWISZ EPg  2A  22 118.680                             122    0.02 5 2.79 235 
 LSVWISZ ESg  0A  22 119.430                             122   -0.0010 2.79 235 
 LSVEISZ EPg  2A  22 119.220                              98    0.01 5 5.99 124 
                                                                                
