 2009  7 2 0650 38.0 L  37.204 -32.354  8.5  AKR  5 0.1 1.2LAKR                1
 GAP=325        0.39       3.1     4.2  4.7 -0.2566E+01  0.3577E+01  0.5629E+01E
 2009  7 2 0650 37.984  37.20362  -32.35415    8.489  0.142                    H
 ACTION:ARG 11-03-16 17:12 OP:wcc  STATUS:               ID:20090702065037 L   I
 2009-07-02-0649-56M.LSFIR_024                                                 6
 STAT SP IPHASW D HRMM SECON CODA AMPLIT PERI AZIMU VELO AIN AR TRES W  DIS CAZ7
 LSb2 SZ IP        649 100.24 129                        113    0.0210 10.9  14

