 2010 1126 0128 45.1 L  37.324 -32.293  2.0  MWW  4 0.0                        1
 STAT SP IPHASW D HRMM SECON CODA AMPLIT PERI AZIMU VELO AIN AR TRES W  DIS CAZ7
 LSd1 SZ1EPKiKP    12846.859                                    0.0110 1.34 110 

                                                                                                                                                               
 