 2010 1126 0128 45.1 L  37.324 -32.293  2.0  MWW  4 0.0                        1
 GAP=249        0.34       2.0     0.7  2.3 -0.4033E+00 -0.2372E+00  0.3948E+01E
 2010 1126 0128 45.148  37.32390  -32.29291    2.000  0.022                    H
 ACTION:UP  19-02-22 14:32 OP:pb   STATUS:               ID:20101126012841     I
 OLDACT:REG 19-02-22 14:31 OP:pb   STATUS:               ID:20101126012841     3
 2010-11-26-0128-41S.NSN___020                                                 6
 STAT SP IPHASW D HRMM SECON CODA AMPLIT PERI AZIMU VELO AIN AR TRES W  DIS CAZ7
 LSd1 SZ EPg       12846.859                             148    0.0110 1.34 110 
 LSd3 SZ EPg       12848.132                             121    0.0310 3.81 163 
 LSd2 SZ EPg       12848.183                             115   -0.0110 4.13 221 
 LSd4 SZ EPg       12849.744                             106   -0.03 9 6.66 136 

                                                                                                                                                               
 