 2015  522 1041  2.4 L  37.293 -32.279  2.9  wcc  4 0.1-1.1Lwcc                1
 GAP=197        0.16       0.5     1.0  2.4  0.6981E-02  0.1462E+01  0.4664E+00E
 2015  522 1041  2.418  37.29326  -32.27938    2.889  0.053                    H
 ACTION:UPD 19-03-08 15:46 OP:wcc  STATUS:               ID:20150522104102 L   I
 2015-05-22-1040-47M.LSFIR_020                                                 6
 STAT SP IPHASW D HRMM SECON CODA AMPLIT PERI AZIMU VELO AIN AR TRES W  DIS CAZ7
 LSVCISZ EPg  0A  1041 3.336                             175   -0.0010 0.22 197 
 LSVCISZ  IAML A  1041 3.906        5.86 0.06                          0.22 197 
 LSVNISZ EPg  2A  1041  3.36                             120   -0.06 5 2.91   1 
 LSVNISZ ESg  0A  1041  4.27                             120    0.0210 2.91   1 
 LSVNISZ  IAML A  1041  4.64        8.70 0.10                          2.91   1 
 LSVWISZ EPg  2A  1041  3.61                             107    0.08 5 4.04 274 
 LSVWISZ ESg  0A  1041  4.41                             107   -0.0410 4.04 274 
 LSVWISZ  IAML A  1041  4.77       10.88 0.06                          4.04 274 
 LSVSISZ EPg  2A  1041  3.57                             106   -0.12 5 4.18 206 
 LSVSISZ ESg  0A  1041  4.78                             106    0.0410 4.18 206 
 LSVSISZ  IAML A  1041  5.30        1.90 0.13                          4.18 206 
                                                                                
 2015  522 1053 48.2 L  37.294 -32.274  3.1  wcc  5 0.0-1.0Lwcc                1
 GAP=126        0.16       0.5     1.1  1.9  0.1904E-01  0.1241E+01  0.3345E+00E
 2015  522 1053 48.246  37.29368  -32.27434    3.114  0.048                    H
 ACTION:UPD 19-03-08 15:46 OP:wcc  STATUS:               ID:20150522105348 L   I
 2015-05-22-1053-33M.LSFIR_020                                                 6
 STAT SP IPHASW D HRMM SECON CODA AMPLIT PERI AZIMU VELO AIN AR TRES W  DIS CAZ7
 LSVCISZ EPg  0A  105349.186                             165   -0.0210 0.57 244 
 LSVCISZ  IAML A  105349.846        8.09 0.06                          0.57 244 
 LSVNISZ EPg  3A  1053 49.23                             110   -0.02 2 2.90 352 
 LSVNISZ ESg  0A  1053 50.11                             110    0.0310 2.90 352 
 LSVNISZ  IAML A  1053 50.48       13.97 0.10                          2.90 352 
 LSVEISZ EPg  2   105349.246                             106   -0.07 5 3.13 117 
 LSVSISZ EPg  3A  1053 49.52                              95   -0.01 2 4.44 211 
 LSVSISZ ESg  0A  1053 50.64                              95    0.0410 4.44 211 
 LSVSISZ  IAML A  1053 50.90        1.47 0.13                          4.44 211 
 LSVWISZ EPg  1A  1053 49.47                              94    0.07 7 4.48 273 
 LSVWISZ ESg  0A  1053 50.29                              94   -0.0710 4.48 273 
 LSVWISZ  IAML A  1053 50.61        9.92 0.06                          4.48 273 
                                                                                
 2015  523 1018 13.9 L  37.290 -32.283  2.4  wcc  5 0.0-1.3Lwcc                1
 GAP= 97        0.14       0.4     0.3  1.3  0.1510E-01  0.5711E-01 -0.1902E-02E
 2015  523 1018 13.878  37.29041  -32.28304    2.417  0.024                    H
 ACTION:UPD 19-03-08 15:46 OP:wcc  STATUS:               ID:20150523101813 L   I
 2015-05-23-1017-58M.LSFIR_020                                                 6
 STAT SP IPHASW D HRMM SECON CODA AMPLIT PERI AZIMU VELO AIN AR TRES W  DIS CAZ7
 LSVCISZ EPg  0A  101814.724                             172    0.0110 0.28  67 
 LSVCISZ  IAML A  101815.394        9.79 0.10                          0.28  67 
 LSVNISZ EPg  1   101814.905                             113    0.01 7 3.25   6 
 LSVEISZ EPg  1A  1018 15.02                             109    0.01 7 3.71 107 
 LSVEISZ ESg  0A  1018 15.94                             109   -0.0210 3.71 107 
 LSVEISZ  IAML A  1018 16.26        1.69 0.10                          3.71 107 
 LSVWISZ EPg  0A  1018 14.95                             108    0.0410 3.75 280 
 LSVWISZ ESg  0A  1018 15.74                             108   -0.0410 3.75 280 
 LSVWISZ  IAML A  1018 16.11       18.72 0.13                          3.75 280 
 LSVSISZ EPg  1A  1018 15.02                             108   -0.03 7 3.76 203 
 LSVSISZ ESg  0A  1018 16.05                             108    0.0210 3.76 203 
 LSVSISZ  IAML A  1018 16.62        1.92 0.19                          3.76 203 
                                                                                
 2015  526 1139 30.2 L  37.298 -32.266  4.5  wcc  4 0.0-1.2Lwcc                1
 GAP=161        0.14       1.4     2.0  2.7  0.2460E+01  0.4120E+01  0.2728E+01E
 2015  526 1139 30.177  37.29847  -32.26575    4.474  0.042                    H
 ACTION:UPD 19-03-08 15:46 OP:wcc  STATUS:               ID:20150526113930 L   I
 2015-05-26-1139-15M.LSFIR_020                                                 6
 STAT SP IPHASW D HRMM SECON CODA AMPLIT PERI AZIMU VELO AIN AR TRES W  DIS CAZ7
 LSVNISZ EPg  3A  1139 31.22                             139   -0.04 2 2.61 333 
 LSVNISZ ESg  0A  1139 32.15                             139   -0.0010 2.61 333 
 LSVNISZ  IAML A  1139 32.16        3.34 0.10                          2.61 333 
 LSVEISZ EPg  2A  1139 31.38                             136    0.08 5 2.82 134 
 LSVEISZ ESg  0A  1139 32.23                             136   -0.0110 2.82 134 
 LSVEISZ  IAML A  1139 32.50        1.88 0.16                          2.82 134 
 LSVWISZ EPg  2A  1139 31.48                             113    0.01 5 5.24 267 
 LSVWISZ ESg  3A  1139 32.57                             113    0.02 2 5.24 267 
 LSVWISZ  IAML A  1139 32.64        4.89 0.06                          5.24 267 
 LSVSISZ EPg  3A  113931.500                             113   -0.12 2 5.30 215 
 LSVSISZ ESg  3A  113932.830                             113    0.01 2 5.30 215 
                                                                                
 2015  526 1239 19.3 L  37.290 -32.278  2.0  wcc  4 0.2-1.2Lwcc                1
 GAP=172        0.52       3.0     1.8  1.9  0.1707E+01 -0.2385E-01 -0.7410E+00E
 2015  526 1239 19.307  37.28959  -32.27788    1.987  0.219                    H
 ACTION:UPD 19-03-08 15:46 OP:wcc  STATUS:               ID:20150526123919 L   I
 2015-05-26-1239-00M.LSFIR_020                                                 6
 STAT SP IPHASW D HRMM SECON CODA AMPLIT PERI AZIMU VELO AIN AR TRES W  DIS CAZ7
 LSVCISZ EPg  0A  123920.477                             170    0.4210 0.28 316 
 LSVCISZ ESg  0A  123920.477                             170   -0.2010 0.28 316 
 LSVCISZ  IAML A  123931.937        5.17 0.45                          0.28 316 
 LSVEISZ EPg  0A  1239 20.21                             105   -0.1210 3.25 108 
 LSVEISZ  IAML A  1239 20.89        3.22 0.13                          3.25 108 
 LSVNISZ EPg  0A  1239 20.29                             105   -0.0210 3.32 358 
 LSVNISZ  IAML A  1239 20.82       10.00 0.10                          3.32 358 
 LSVWISZ EPg  3A  1239 20.17                              99   -0.25 2 4.22 280 
 LSVWISZ ESg  0A  1239 21.28                              99   -0.0610 4.22 280 
 LSVWISZ  IAML A  1239 21.93       11.18 0.16                          4.22 280 
                                                                                
 2015  527 0559  9.5 L  37.292 -32.264  2.9  wcc  5 0.1-0.5Lwcc                1
 GAP=146        0.25       0.7     2.0  1.3 -0.5255E+00 -0.3084E+00 -0.1037E-02E
 2015  527 0559  9.494  37.29165  -32.26400    2.900  0.086                    H
 ACTION:UPD 19-03-08 15:46 OP:wcc  STATUS:               ID:20150527055909 L   I
 2015-05-27-0558-50M.LSFIR_020                                                 6
 STAT SP IPHASW D HRMM SECON CODA AMPLIT PERI AZIMU VELO AIN AR TRES W  DIS CAZ7
 LSVCISZ EPg  0A  055910.586                             141    0.1010 1.43 269 
 LSVCISZ ESg  0A  055911.226                             141   -0.0810 1.43 269 
 LSVCISZ  IAML A  055911.326       26.28 0.06                          1.43 269 
 LSVEISZ EPg  2A   55910.330                             121   -0.09 5 2.22 123 
 LSVEISZ  IAML A   55912.170         8.3 0.16                          2.22 123 
 LSVNISZ EPg  0A   559 10.53                              99   -0.0310 3.37 337 
 LSVNISZ ESg  0A   559 11.52                              99    0.0810 3.37 337 
 LSVNISZ  IAML A   559 11.71       77.92 0.10                          3.37 337 
 LSVSISZ ESg  0A   559 12.04                              93    0.0810 4.80 222 
 LSVSISZ  IAML A   559 12.41        5.01 0.13                          4.80 222 
 LSVWISZ EPg  0A   559 10.68                              92   -0.1210 5.41 275 
 LSVWISZ  IAML A   559 12.14       65.79 0.06                          5.41 275 
                                                                                
 2015  527 1249 21.4 L  37.299 -32.269  4.4  wcc  4 0.0-0.8Lwcc                1
 GAP=234        0.16       0.8     2.1  2.0 -0.2063E+00  0.1192E+01  0.8748E+00E
 2015  527 1249 21.353  37.29852  -32.26879    4.391  0.039                    H
 ACTION:UPD 19-03-08 15:46 OP:wcc  STATUS:               ID:20150527124921 L   I
 2015-05-27-1249-06M.LSFIR_020                                                 6
 STAT SP IPHASW D HRMM SECON CODA AMPLIT PERI AZIMU VELO AIN AR TRES W  DIS CAZ7
 LSVCISZ EPg  0A  124922.585                             158    0.0710 1.28 232 
 LSVCISZ  IAML A  124923.055       10.06 0.10                          1.28 232 
 LSVNISZ EPg  2A  1249 22.38                             139   -0.03 5 2.50 339 
 LSVNISZ ESg  0A  1249 23.26                             139   -0.0310 2.50 339 
 LSVNISZ  IAML A  1249 23.70        9.98 0.22                          2.50 339 
 LSVWISZ EPg  0A  1249 22.62                             114    0.0110 4.97 267 
 LSVWISZ ESg  2A  1249 23.69                             114    0.04 5 4.97 267 
 LSVWISZ  IAML A  1249 24.26       11.82 0.13                          4.97 267 
 LSVSISZ EPg  1A  1249 22.74                             113   -0.03 7 5.15 212 
 LSVSISZ ESg  0A  1249 23.93                             113   -0.0210 5.15 212 
 LSVSISZ  IAML A  1249 24.26        2.53 0.10                          5.15 212 
                                                                                
 2015  527 2104  1.6 L  37.298 -32.270  4.8  wcc  5 0.1-0.8Lwcc                1
 GAP=147        0.18       0.7     1.0  1.8  0.1785E+00  0.8083E+00  0.4588E+00E
 2015  527 2104  1.579  37.29809  -32.27027    4.834  0.057                    H
 ACTION:UPD 19-03-08 15:46 OP:wcc  STATUS:               ID:20150527210401 L   I
 2015-05-27-2103-46M.LSFIR_020                                                 6
 STAT SP IPHASW D HRMM SECON CODA AMPLIT PERI AZIMU VELO AIN AR TRES W  DIS CAZ7
 LSVCISZ EPg  0A  2104 2.695                             162   -0.1010 1.14 230 
 LSVCISZ  IAML A  2104 3.275       14.35 0.10                          1.14 230 
 LSVNISZ EPg  1A  21 4  2.61                             144   -0.08 7 2.50 342 
 LSVNISZ ESg  0A  21 4  3.65                             144    0.0410 2.50 342 
 LSVNISZ  IAML A  21 4  3.90       18.78 0.10                          2.50 342 
 LSVEISZ EPg  1A  21 4  2.85                             137    0.08 7 3.09 129 
 LSVEISZ ESg  0A  21 4  3.76                             137    0.0010 3.09 129 
 LSVEISZ  IAML A  21 4  4.13        4.38 0.10                          3.09 129 
 LSVWISZ EPg  0A  21 4  2.90                             121    0.0510 4.84 267 
 LSVWISZ ESg  1A  21 4  3.89                             121   -0.01 7 4.84 267 
 LSVWISZ  IAML A  21 4  3.99       10.92 0.06                          4.84 267 
 LSVSISZ EPg  2A  21 4  2.97                             119   -0.04 5 5.04 211 
 LSVSISZ ESg  0A  21 4  4.22                             119    0.0210 5.04 211 
 LSVSISZ  IAML A  21 4  4.50        2.12 0.13                          5.04 211 
                                                                                
 2015  528 0330 14.0 L  37.286 -32.296  2.3  wcc  5 0.2-1.5Lwcc                1
 GAP=196        0.21       0.8     1.8  1.7 -0.4213E+00  0.1354E+01  0.2632E-01E
 2015  528 0330 13.967  37.28586  -32.29619    2.291  0.150                    H
 ACTION:UPD 19-03-08 15:46 OP:wcc  STATUS:               ID:20150528033013 L   I
 2015-05-28-0329-58M.LSFIR_020                                                 6
 STAT SP IPHASW D HRMM SECON CODA AMPLIT PERI AZIMU VELO AIN AR TRES W  DIS CAZ7
 LSVCISZ EPg  3A  033014.484                             139   -0.40 2 1.55  67 
 LSVCISZ ESg  0A  033015.624                             139   -0.0310 1.55  67 
 LSVWISZ  IAML A   33015.110         8.6 0.10                          2.78 294 
 LSVSISZ EPg  1A   330 15.03                             115    0.04 7 2.97 186 
 LSVSISZ  IAML A   330 16.34        1.09 0.16                          2.97 186 
 LSVNISZ EPg  3A   33014.770                             106   -0.36 2 4.03  22 
 LSVNISZ ESg  1A   33016.160                             106    0.07 7 4.03  22 
 LSVEISZ ESg  2A   33016.450                             103    0.05 5 4.75  97 
                                                                                
 2015  529 0304  4.6 L  37.303 -32.276  3.3  wcc  4 0.1-1.3Lwcc                1
 GAP=230        0.17       1.5     0.8  2.7  0.6762E+00  0.9688E+00  0.1752E+01E
 2015  529 0304  4.577  37.30302  -32.27607    3.282  0.061                    H
 ACTION:UPD 19-03-08 15:46 OP:wcc  STATUS:               ID:20150529030404 L   I
 2015-05-29-0303-50M.LSFIR_020                                                 6
 STAT SP IPHASW D HRMM SECON CODA AMPLIT PERI AZIMU VELO AIN AR TRES W  DIS CAZ7
 LSVCISZ EPg  0A  0304 5.632                             148    0.0210 1.34 195 
 LSVCISZ  IAML A  0304 6.182        7.30 0.10                          1.34 195 
 LSVEISZ EPg  2A   3 4  5.78                             105    0.03 5 3.84 130 
 LSVEISZ ESg  0A   3 4  6.69                             105   -0.0310 3.84 130 
 LSVEISZ  IAML A   3 4  6.98        1.75 0.10                          3.84 130 
 LSVWISZ EPg  2A   3 4  5.86                             100    0.14 5 4.39 260 
 LSVWISZ ESg  0A   3 4  6.62                             100   -0.0510 4.39 260 
 LSVWISZ  IAML A   3 4  6.94        9.41 0.13                          4.39 260 
 LSVSISZ EPg  3A   3 4  5.88                              97   -0.11 2 5.29 204 
 LSVSISZ ESg  1A   3 4  7.21                              97    0.04 7 5.29 204 
 LSVSISZ  IAML A   3 4 25.01        0.95 0.42                          5.29 204 
                                                                                
 2015  530 0342 16.9 L  37.291 -32.281  2.1  wcc  5 0.2-0.8Lwcc                1
 GAP=169        0.32       1.0     0.8  1.3  0.2544E+00  0.5602E-02 -0.1408E+00E
 2015  530 0342 16.870  37.29128  -32.28117    2.101  0.209                    H
 ACTION:UPD 19-03-08 15:46 OP:wcc  STATUS:               ID:20150530034216 L   I
 2015-05-30-0342-02M.LSFIR_020                                                 6
 STAT SP IPHASW D HRMM SECON CODA AMPLIT PERI AZIMU VELO AIN AR TRES W  DIS CAZ7
 LSVCIS1 EPg  3   034216.950                             177   -0.69 2 0.10  82 
 LSVCISZ ESg  0A  034218.280                             177    0.0010 0.10  82 
 LSVCISZ  IAML A  034218.430       31.07 0.06                          0.10  82 
 LSVNISZ EPg  2    34217.395                             109   -0.45 5 3.14   4 
 LSVNISZ ESg  0A   34218.730                             109    0.0710 3.14   4 
 LSVNISZ  IAML A   34219.100        50.6 0.10                          3.14   4 
 LSVEISZ EPg  2A   34218.000                             105    0.03 5 3.58 109 
 LSVEISZ ESg  0A   34218.910                             105    0.0410 3.58 109 
 LSVWISZ ESg  0A   34218.830                             102    0.0410 3.90 278 
 LSVWISZ  IAML A   34219.050        29.7 0.10                          3.90 278 
 LSVSISZ  IAML A   34219.590         2.2 0.13                          3.92 205 
                                                                                
 2015  530 0349 42.2 L  37.291 -32.280  2.0  wcc  4 0.0-0.9Lwcc                1
 GAP=109        0.15       1.2     0.6  0.6  0.4217E+00  0.1595E+00  0.3418E+00E
 2015  530 0349 42.177  37.29081  -32.28009    1.970  0.016                    H
 ACTION:UPD 19-03-08 15:46 OP:wcc  STATUS:               ID:20150530034942 L   I
 2015-05-30-0349-27M.LSFIR_020                                                 6
 STAT SP IPHASW D HRMM SECON CODA AMPLIT PERI AZIMU VELO AIN AR TRES W  DIS CAZ7
 LSVCISZ EPg  0A  034942.890                             178   -0.0310 0.07 359 
 LSVCISZ ESg  0A  034943.550                             178    0.0210 0.07 359 
 LSVCISZ  IAML A  034943.690       28.76 0.13                          0.07 359 
 LSVEISZ EPg  0A   349 43.25                             103    0.0010 3.48 109 
 LSVEISZ  IAML A   349 44.46        7.42 0.10                          3.48 109 
 LSVSISZ EPg  1A   349 43.36                             101   -0.00 7 3.91 207 
 LSVSISZ  IAML A   349 44.84        4.76 0.13                          3.91 207 
 LSVWISZ EPg  0A   349 43.26                             100    0.0210 4.01 278 
 LSVWISZ ESg  0A   349 44.12                             100   -0.0110 4.01 278 
 LSVWISZ  IAML A   349 44.44       39.03 0.13                          4.01 278 
                                                                                
 2015  530 1507 47.7 L  37.285 -32.269  1.7  wcc  5 0.1-1.3Lwcc                1
 GAP=123        0.18       0.6     1.2  2.3 -0.4443E+00 -0.3223E-01  0.6078E-01E
 2015  530 1507 47.667  37.28483  -32.26910    1.680  0.097                    H
 ACTION:UPD 19-03-08 15:46 OP:wcc  STATUS:               ID:20150530150745 L   I
 2015-05-30-1507-27M.LSFIR_020                                                 6
 STAT SP IPHASW D HRMM SECON CODA AMPLIT PERI AZIMU VELO AIN AR TRES W  DIS CAZ7
 LSVCISZ EPg  1A  150748.459                             135    0.01 7 1.22 307 
 LSVCISZ  IAML A  1508 1.309        4.54 0.45                          1.22 307 
 LSVEISZ EPg  2A  15 7 48.53                             108    0.02 5 2.36 101 
 LSVEISZ  IAML A  15 7 51.12        1.77 0.10                          2.36 101 
 LSVSISZ EPg  3A  15 7 48.95                              97    0.09 2 3.94 224 
 LSVSISZ ESg  0A  15 7 49.84                              97   -0.0210 3.94 224 
 LSVSISZ  IAML A  15 7 51.12        3.47 0.13                          3.94 224 
 LSVNISZ EPg  0A  15 7 48.78                              97   -0.0210 3.95 347 
 LSVNISZ  IAML A  15 7 49.18        9.59 0.13                          3.95 347 
 LSVWISZ ESg  3A  15 7 50.41                              94    0.36 2 5.09 284 
 LSVWISZ  IAML A  15 7 53.18        9.09 0.13                          5.09 284 
                                                                                
