 2015  630 1228 20.0 L  37.294 -32.278  2.0  wcc  5 0.0-1.5Lwcc                1
 GAP=117        0.15       0.3     0.4  0.6  0.2929E-01 -0.1494E-03 -0.7911E-02E
 2015  630 1228 19.986  37.29361  -32.27775    1.981  0.047                    H
 ACTION:UPD 19-03-08 15:46 OP:wcc  STATUS:               ID:20150630122819 L   I
 2015-06-30-1228-04M.LSFIR_020                                                 6
 STAT SP IPHASW D HRMM SECON CODA AMPLIT PERI AZIMU VELO AIN AR TRES W  DIS CAZ7
 LSVCISZ ESg  0A  122821.346                             169   -0.0110 0.32 220 
 LSVCISZ  IAML A  122821.506        4.72 0.06                          0.32 220 
 LSVNISZ EPg  2A  1228 20.86                             109   -0.05 5 2.88 358 
 LSVNISZ ESg  0A  1228 21.71                             109    0.0410 2.88 358 
 LSVNISZ  IAML A  1228 21.77        4.08 0.10                          2.88 358 
 LSVEISZ EPg  1A  1228 21.01                             104   -0.03 7 3.40 115 
 LSVEISZ ESg  0A  1228 21.92                             104    0.0110 3.40 115 
 LSVEISZ  IAML A  1228 27.18        1.75 0.54                          3.40 115 
 LSVWISZ EPg  2A  1228 21.14                              99    0.05 5 4.18 274 
 LSVWISZ ESg  0A  1228 21.96                              99   -0.0410 4.18 274 
 LSVWISZ  IAML A  1228 51.11       11.10 0.16                          4.18 274 
 LSVSISZ EPg  3A  1228 21.16                              99   -0.08 2 4.28 207 
 LSVSISZ ESg  2A  1228 22.40                              99    0.11 5 4.28 207 
 LSVSISZ  IAML A  1228 36.98        0.85 0.48                          4.28 207 
                                                                                
 2015  630 2136 15.1 L  37.289 -32.280  0.9  wcc  5 0.0-0.4Lwcc                1
 GAP=105        0.17       0.3     0.4  0.4 -0.5986E-02  0.1883E-01  0.7197E-02E
 2015  630 2136 15.060  37.28932  -32.27972    0.925  0.041                    H
 ACTION:UPD 19-03-08 15:46 OP:wcc  STATUS:               ID:20150630213615 L   I
 2015-06-30-2136-00M.LSFIR_020                                                 6
 STAT SP IPHASW D HRMM SECON CODA AMPLIT PERI AZIMU VELO AIN AR TRES W  DIS CAZ7
 LSVCISZ ESg  0A  213616.016                             165    0.0010 0.23 352 
 LSVCISZ  IAML A  213616.756       75.58 0.10                          0.23 352 
 LSVNISZ EPg  0A  2136 16.14                              93   -0.0110 3.35   1 
 LSVNISZ ESg  0A  2136 17.07                              93    0.0110 3.35   1 
 LSVNISZ  IAML A  2136 17.12       77.92 0.13                          3.35   1 
 LSVEISZ EPg  0A  2136 16.18                              93   -0.0210 3.39 106 
 LSVEISZ  IAML A  2136 17.52       21.93 0.10                          3.39 106 
 LSVSISZ EPg  0A  2136 16.34                              93    0.0010 3.78 208 
 LSVSISZ  IAML A  2136 45.11       27.68 0.19                          3.78 208 
 LSVWISZ EPg  0A  2136 16.37                              92    0.0910 4.07 281 
 LSVWISZ ESg  0A  2136 17.24                              92   -0.0610 4.07 281 
 LSVWISZ  IAML A  2136 17.96      159.52 0.10                          4.07 281 
                                                                                
 2015  630 2141 25.3 L  37.293 -32.264  3.1  wcc  5 0.1-0.8Lwcc                1
 GAP=152        0.18       0.8     1.3  2.8  0.4740E+00  0.2556E+01  0.3421E-01E
 2015  630 2141 25.346  37.29295  -32.26360    3.115  0.089                    H
 ACTION:UPD 19-03-08 15:46 OP:wcc  STATUS:               ID:20150630214125 L   I
 2015-06-30-2141-11M.LSFIR_020                                                 6
 STAT SP IPHASW D HRMM SECON CODA AMPLIT PERI AZIMU VELO AIN AR TRES W  DIS CAZ7
 LSVCISZ EPg  0A  214126.386                             142    0.0210 1.47 263 
 LSVCISZ  IAML A  214153.586       29.75 0.10                          1.47 263 
 LSVEISZ EPg  2A  2141 26.48                             122    0.18 5 2.28 127 
 LSVEISZ ESg  0A  2141 27.04                             122   -0.0410 2.28 127 
 LSVEISZ  IAML A  2141 54.37        8.59 0.10                          2.28 127 
 LSVNISZ EPg  3A  2141 26.36                             104   -0.04 2 3.25 335 
 LSVNISZ ESg  0A  2141 27.28                             104    0.0110 3.25 335 
 LSVNISZ  IAML A  2141 54.38       26.27 0.10                          3.25 335 
 LSVSISZ ESg  3A  2141 28.10                              93    0.26 2 4.93 221 
 LSVSISZ  IAML A  2141 54.95        1.81 0.10                          4.93 221 
 LSVWISZ EPg  1A  2141 26.60                              93   -0.04 7 5.44 274 
 LSVWISZ ESg  2A  2141 27.64                              93   -0.08 5 5.44 274 
 LSVWISZ  IAML A  2141 54.81       16.86 0.16                          5.44 274 
                                                                                
 2015  630 2156  4.1 L  37.291 -32.278  1.8  wcc  5 0.1-0.5Lwcc                1
 GAP=111        0.20       0.5     0.6  0.7 -0.1241E-01  0.4631E-01  0.1174E-01E
 2015  630 2156  4.120  37.29067  -32.27810    1.829  0.095                    H
 ACTION:UPD 19-03-08 15:46 OP:wcc  STATUS:               ID:20150630215604 L   I
 2015-06-30-2155-48M.LSFIR_020                                                 6
 STAT SP IPHASW D HRMM SECON CODA AMPLIT PERI AZIMU VELO AIN AR TRES W  DIS CAZ7
 LSVCISZ ESg  0A  2156 5.476                             173    0.0110 0.20 295 
 LSVCISZ  IAML A  2156 5.576       93.56 0.10                          0.20 295 
 LSVNISZ EPg  0A  2156  5.02                             104   -0.0810 3.20 359 
 LSVNISZ ESg  0A  2156  6.01                             104    0.1010 3.20 359 
 LSVNISZ  IAML A  2156  6.40       84.66 0.10                          3.20 359 
 LSVEISZ EPg  0A  2156  5.16                             103    0.0110 3.30 110 
 LSVEISZ  IAML A  2156  6.39       25.88 0.10                          3.30 110 
 LSVSISZ EPg  0A  2156  5.28                              99   -0.0410 3.98 209 
 LSVSISZ ESg  3A  2156  6.75                              99    0.44 2 3.98 209 
 LSVSISZ  IAML A  2156  6.95        6.38 0.10                          3.98 209 
 LSVWISZ EPg  0A  2156  5.21                              98   -0.0110 4.18 278 
 LSVWISZ ESg  0A  2156  6.12                              98   -0.0110 4.18 278 
 LSVWISZ  IAML A  2156  6.81       54.10 0.10                          4.18 278 
                                                                                
 2015  630 2157 23.0 L  37.291 -32.273  2.9  wcc  5 0.1-0.8Lwcc                1
 GAP=124        0.17       0.6     0.8  1.7  0.2615E+00  0.8619E+00  0.4152E+00E
 2015  630 2157 22.955  37.29145  -32.27295    2.852  0.085                    H
 ACTION:UPD 19-03-08 15:46 OP:wcc  STATUS:               ID:20150630215722 L   I
 2015-06-30-2157-08M.LSFIR_020                                                 6
 STAT SP IPHASW D HRMM SECON CODA AMPLIT PERI AZIMU VELO AIN AR TRES W  DIS CAZ7
 LSVCISZ EPg  0A  215723.846                             164   -0.0410 0.63 270 
 LSVCISZ  IAML A  215724.466       32.35 0.10                          0.63 270 
 LSVEISZ EPg  1A  2157 23.99                             119    0.01 7 2.91 114 
 LSVEISZ ESg  0A  2157 24.87                             119    0.0410 2.91 114 
 LSVEISZ  IAML A  2157 25.28        8.77 0.10                          2.91 114 
 LSVNISZ EPg  2A  2157 23.93                             116   -0.06 5 3.16 350 
 LSVNISZ ESg  0A  2157 24.88                             116    0.0310 3.16 350 
 LSVNISZ  IAML A  2157 25.21       28.34 0.10                          3.16 350 
 LSVSISZ EPg  2A  2157 24.19                             104   -0.05 5 4.29 214 
 LSVSISZ ESg  3A  2157 25.65                             104    0.34 2 4.29 214 
 LSVSISZ  IAML A  2157 25.71        2.20 0.13                          4.29 214 
 LSVWISZ EPg  0A  2157 24.12                             101   -0.0410 4.63 276 
 LSVWISZ ESg  3A  2157 25.35                             101    0.18 2 4.63 276 
 LSVWISZ  IAML A  2157 25.72       19.13 0.16                          4.63 276 
                                                                                
 2015  630 2204 28.7 L  37.288 -32.282  2.4  wcc  4 0.1-0.8Lwcc                1
 GAP=158        0.18       0.4     0.6  1.8 -0.3769E-01 -0.2165E+00  0.5141E-01E
 2015  630 2204 28.730  37.28772  -32.28216    2.390  0.063                    H
 ACTION:UPD 19-03-08 15:46 OP:wcc  STATUS:               ID:20150630220428 L   I
 2015-06-30-2204-13M.LSFIR_020                                                 6
 STAT SP IPHASW D HRMM SECON CODA AMPLIT PERI AZIMU VELO AIN AR TRES W  DIS CAZ7
 LSVCISZ EPg  0A  220429.606                             167    0.0410 0.45  24 
 LSVCISZ  IAML A  220430.386       37.69 0.06                          0.45  24 
 LSVSISZ EPg  2A  22 4 30.03                             110    0.17 5 3.52 207 
 LSVSISZ ESg  0A  22 4 30.75                             110   -0.0510 3.52 207 
 LSVSISZ  IAML A  22 4 31.70        3.27 0.13                          3.52 207 
 LSVNISZ EPg  1A  22 4 29.74                             110   -0.06 7 3.54   5 
 LSVNISZ ESg  0A  22 4 30.68                             110   -0.0110 3.54   5 
 LSVNISZ  IAML A  22 4 31.05       41.65 0.10                          3.54   5 
 LSVEISZ EPg  0A  22 4 29.88                             109    0.0410 3.56 103 
 LSVEISZ ESg  0A  22 4 30.72                             109   -0.0310 3.56 103 
 LSVEISZ  IAML A  22 4 31.12       14.64 0.10                          3.56 103 
                                                                                
 2015  630 2211  7.4 L  37.287 -32.281  2.3  wcc  4 0.1-0.9Lwcc                1
 GAP=155        0.19       0.4     0.6  1.8 -0.3415E-01 -0.1682E+00  0.3604E-01E
 2015  630 2211  7.375  37.28726  -32.28115    2.318  0.063                    H
 ACTION:UPD 19-03-08 15:46 OP:wcc  STATUS:               ID:20150630221107 L   I
 2015-06-30-2210-52M.LSFIR_020                                                 6
 STAT SP IPHASW D HRMM SECON CODA AMPLIT PERI AZIMU VELO AIN AR TRES W  DIS CAZ7
 LSVCISZ EPg  0A  2211 8.256                             166    0.0610 0.47  11 
 LSVCISZ  IAML A  2211 8.936       28.70 0.06                          0.47  11 
 LSVEISZ EPg  0A  2211  8.50                             108    0.0410 3.46 102 
 LSVEISZ ESg  0A  2211  9.32                             108   -0.0410 3.46 102 
 LSVEISZ  IAML A  2211  9.75       10.81 0.06                          3.46 102 
 LSVSISZ EPg  2A  2211  8.66                             108    0.16 5 3.52 208 
 LSVSISZ ESg  0A  2211  9.38                             108   -0.0510 3.52 208 
 LSVSISZ  IAML A  2211 10.19        2.81 0.13                          3.52 208 
 LSVNISZ EPg  1A  2211  8.40                             108   -0.05 7 3.58   3 
 LSVNISZ ESg  0A  2211  9.32                             108   -0.0210 3.58   3 
 LSVNISZ  IAML A  2211  9.76       28.93 0.10                          3.58   3 
                                                                                
 2015  7 4 0615 50.7 L  37.269 -32.275  2.3  wcc  5 0.1-0.9Lwcc                1
 GAP=180        0.22       2.2     1.0  2.4  0.1398E+01  0.1460E+01  0.3360E+01E
 2015  7 4 0615 50.684  37.26882  -32.27473    2.341  0.093                    H
 ACTION:UPD 19-03-08 15:46 OP:wcc  STATUS:               ID:20150704061550 L   I
 2015-07-04-0615-32M.LSFIR_020                                                 6
 STAT SP IPHASW D HRMM SECON CODA AMPLIT PERI AZIMU VELO AIN AR TRES W  DIS CAZ7
 LSVSISZ EPg  3A   615 51.77                             121    0.15 2 2.47 245 
 LSVSISZ  IAML A   615 54.41        2.28 0.16                          2.47 245 
 LSVCISZ ESg  0A  061552.689                             121    0.0310 2.55 349 
 LSVCISZ  IAML A  061552.949       18.51 0.13                          2.55 349 
 LSVEISZ ESg  0A   615 52.49                             113   -0.0610 3.11  65 
 LSVEISZ  IAML A   615 52.73        9.02 0.16                          3.11  65 
 LSVWISZ EPg  3A   615 51.99                              97   -0.04 2 5.37 304 
 LSVWISZ ESg  1A   615 53.00                              97   -0.14 7 5.37 304 
 LSVWISZ  IAML A   615 54.47       15.12 0.10                          5.37 304 
 LSVNISZ EPg  0A   615 52.26                              96    0.1010 5.64 356 
 LSVNISZ  IAML A   615 52.96        8.98 0.10                          5.64 356 
                                                                                
 2015  7 5 1850 13.9 L  37.293 -32.280  3.3  wcc  4 0.0-0.3Lwcc                1
 GAP=111        0.16       0.7     0.6  2.2  0.1579E+00  0.5336E+00  0.4666E+00E
 2015  7 5 1850 13.880  37.29264  -32.27952    3.315  0.044                    H
 ACTION:UPD 19-03-08 15:46 OP:wcc  STATUS:               ID:20150705185013 L   I
 2015-07-05-1849-54M.LSFIR_020                                                 6
 STAT SP IPHASW D HRMM SECON CODA AMPLIT PERI AZIMU VELO AIN AR TRES W  DIS CAZ7
 LSVCISZ EPg  0A  185014.886                             176    0.0310 0.15 201 
 LSVCISZ  IAML A  185029.866      326.45 0.35                          0.15 201 
 LSVNISZ EPg  2A  1850 14.88                             115   -0.02 5 2.98   1 
 LSVNISZ ESg  0A  1850 15.76                             115    0.0110 2.98   1 
 LSVNISZ  IAML A  1850 16.19       31.21 0.10                          2.98   1 
 LSVEISZ EPg  3A  1850 15.04                             108    0.04 2 3.50 112 
 LSVEISZ ESg  0A  1850 15.92                             108   -0.0210 3.50 112 
 LSVEISZ  IAML A  1850 16.23        3.79 0.06                          3.50 112 
 LSVWISZ EPg  2A  1850 15.09                             102    0.12 5 4.03 275 
 LSVWISZ ESg  0A  1850 15.84                             102   -0.0410 4.03 275 
 LSVWISZ  IAML A  1850 16.45       29.61 0.10                          4.03 275 
                                                                                
 2015  7 7 0837 55.2 L  37.283 -32.285  1.7  wcc  4 0.0-1.5Lwcc                1
 GAP=113        0.15       0.4     0.5  0.8  0.1903E-01  0.1943E+00  0.1199E+00E
 2015  7 7 0837 55.179  37.28315  -32.28458    1.691  0.045                    H
 ACTION:UPD 19-03-08 15:46 OP:wcc  STATUS:               ID:20150707083755 L   I
 2015-07-07-0837-40M.LSFIR_020                                                 6
 STAT SP IPHASW D HRMM SECON CODA AMPLIT PERI AZIMU VELO AIN AR TRES W  DIS CAZ7
 LSVCISZ ESg  0A  083756.563                             142    0.0010 1.00  23 
 LSVCISZ  IAML A  083756.613       13.22 0.10                          1.00  23 
 LSVSISZ EPg  3A   837 56.10                             102   -0.07 2 2.98 207 
 LSVSISZ ESg  0A   837 57.03                             102    0.0310 2.98 207 
 LSVSISZ  IAML A   837 57.35        1.10 0.16                          2.98 207 
 LSVEISZ EPg  1A   837 56.25                              98   -0.04 7 3.70  94 
 LSVEISZ ESg  3A   837 57.37                              98    0.15 2 3.70  94 
 LSVEISZ  IAML A   837 57.55        0.93 0.06                          3.70  94 
 LSVWISZ EPg  0A   837 56.19                              97   -0.0310 3.84 292 
 LSVWISZ ESg  0A   837 57.10                              97    0.0210 3.84 292 
 LSVWISZ  IAML A   837 57.85        8.98 0.16                          3.84 292 
 LSVNISZ EPg  4    83756.262                              97   -0.08 0 4.06   7 
                                                                                
 2015  7 7 2303  0.9 L  37.291 -32.280  1.1  wcc  5 0.0-1.4Lwcc                1
 GAP= 97        0.15       0.4     0.3  0.4  0.3173E-01  0.7434E-03 -0.1077E-01E
 2015  7 7 2303  0.904  37.29109  -32.28024    1.103  0.040                    H
 ACTION:UPD 19-03-08 15:46 OP:wcc  STATUS:               ID:20150707230300 L   I
 2015-07-07-2302-44M.LSFIR_020                                                 6
 STAT SP IPHASW D HRMM SECON CODA AMPLIT PERI AZIMU VELO AIN AR TRES W  DIS CAZ7
 LSVCISZ ESg  0A  2303 1.871                             178   -0.0510 0.04  19 
 LSVCISZ  IAML A  2303 2.481        5.62 0.10                          0.04  19 
 LSVNISZ EPg  3A  23 3  1.87                              93   -0.00 2 3.16   2 
 LSVNISZ ESg  0A  23 3  2.68                              93    0.0010 3.16   2 
 LSVNISZ  IAML A  23 3  3.04       12.47 0.10                          3.16   2 
 LSVEISZ EPg  1A  23 3  1.99                              92    0.00 7 3.50 109 
 LSVEISZ ESg  0A  23 3  2.88                              92   -0.0010 3.50 109 
 LSVEISZ  IAML A  23 3  3.27        2.14 0.13                          3.50 109 
 LSVSISZ EPg  2A  23 3  2.12                              92    0.00 5 3.94 206 
 LSVSISZ  IAML A  23 3  3.38        1.78 0.19                          3.94 206 
 LSVWISZ EPg  1A  23 3  2.09                              92    0.10 7 3.99 278 
 LSVWISZ ESg  0A  23 3  2.89                              92   -0.0110 3.99 278 
 LSVWISZ  IAML A  23 3  3.19       12.84 0.13                          3.99 278 
                                                                                
 2015  7 9 1313 22.6 L  37.298 -32.283  2.5  wcc  4 0.1-0.6Lwcc                1
 GAP=154        0.22       0.6     0.9  2.2 -0.7471E-01  0.6798E+00  0.6172E+00E
 2015  7 9 1313 22.598  37.29777  -32.28270    2.478  0.074                    H
 ACTION:UPD 19-03-08 15:46 OP:wcc  STATUS:               ID:20150709131322 L   I
 2015-07-09-1313-07M.LSFIR_020                                                 6
 STAT SP IPHASW D HRMM SECON CODA AMPLIT PERI AZIMU VELO AIN AR TRES W  DIS CAZ7
 LSVCISZ EPg  0A  131323.428                             160   -0.0410 0.74 162 
 LSVCISZ  IAML A  131324.198       25.45 0.10                          0.74 162 
 LSVNISZ EPg  0A  1313 23.39                             125   -0.0910 2.43   8 
 LSVNISZ ESg  0A  1313 24.30                             125    0.0810 2.43   8 
 LSVNISZ  IAML A  1313 24.33       36.72 0.13                          2.43   8 
 LSVWISZ EPg  1A  1313 23.76                             110    0.12 7 3.74 267 
 LSVWISZ ESg  0A  1313 24.45                             110   -0.0510 3.74 267 
 LSVWISZ  IAML A  1313 24.86       47.37 0.10                          3.74 267 
 LSVSISZ EPg  1A  1313 23.88                             105   -0.04 7 4.53 200 
 LSVSISZ ESg  0A  1313 25.08                             105    0.0610 4.53 200 
 LSVSISZ  IAML A  1313 25.43        7.26 0.13                          4.53 200 
                                                                                
