 2015  511 2201 36.1 L  37.295 -32.278  3.5  wcc  5 0.0-0.9Lwcc                1
 GAP=117        0.13       0.5     0.5  1.5  0.7904E-01  0.3802E+00  0.4198E+00E
 2015  511 2201 36.114  37.29458  -32.27833    3.520  0.019                    H
 ACTION:UPD 19-03-08 15:46 OP:wcc  STATUS:               ID:20150511220136 L   I
 2015-05-11-2201-21M.LSFIR_020                                                 6
 STAT SP IPHASW D HRMM SECON CODA AMPLIT PERI AZIMU VELO AIN AR TRES W  DIS CAZ7
 LSVCISZ EPg  0A  220137.137                             171    0.0110 0.39 204 
 LSVCISZ  IAML A  220137.697       15.49 0.10                          0.39 204 
 LSVNISZ EPg  2A  22 1 37.12                             120   -0.00 5 2.77 359 
 LSVNISZ ESg  0A  22 1 37.97                             120    0.0110 2.77 359 
 LSVNISZ  IAML A  22 1 38.37       28.34 0.10                          2.77 359 
 LSVEISZ EPg  1A  22 1 37.27                             108    0.02 7 3.49 116 
 LSVEISZ ESg  0A  22 1 38.16                             108   -0.0310 3.49 116 
 LSVEISZ  IAML A  22 1 38.45        3.20 0.10                          3.49 116 
 LSVWISZ EPg  0A  22 1 37.24                             100    0.0210 4.12 272 
 LSVWISZ ESg  0A  22 1 38.11                             100   -0.0310 4.12 272 
 LSVWISZ  IAML A  22 1 38.59       19.12 0.13                          4.12 272 
 LSVSISZ EPg  2A  22 1 37.41                              99    0.01 5 4.36 206 
 LSVSISZ ESg  0A  22 1 38.47                              99    0.0110 4.36 206 
 LSVSISZ  IAML A  22 1 38.85        1.57 0.10                          4.36 206 
                                                                                
 2015  512 0709  6.5 L  37.295 -32.277  2.1  wcc  5 0.1-0.9Lwcc                1
 GAP=123        0.20       0.4     0.6  0.8 -0.3767E-01  0.3951E-01  0.1952E-01E
 2015  512 0709  6.527  37.29525  -32.27661    2.138  0.067                    H
 ACTION:UPD 19-03-08 15:46 OP:wcc  STATUS:               ID:20150512070906 L   I
 2015-05-12-0708-51M.LSFIR_020                                                 6
 STAT SP IPHASW D HRMM SECON CODA AMPLIT PERI AZIMU VELO AIN AR TRES W  DIS CAZ7
 LSVCISZ ESg  0A  0709 7.966                             163   -0.0110 0.53 216 
 LSVCISZ  IAML A  0709 8.126       23.23 0.06                          0.53 216 
 LSVNISZ EPg  0A   7 9  7.38                             115   -0.0510 2.70 356 
 LSVNISZ ESg  0A   7 9  8.26                             115    0.0910 2.70 356 
 LSVNISZ  IAML A   7 9  8.30       21.32 0.10                          2.70 356 
 LSVEISZ EPg  0A   7 9  7.54                             107   -0.0510 3.39 118 
 LSVEISZ  IAML A   7 9  8.85        5.30 0.13                          3.39 118 
 LSVWISZ EPg  2A   7 9  7.72                             101    0.07 5 4.27 271 
 LSVWISZ ESg  0A   7 9  8.50                             101   -0.0910 4.27 271 
 LSVWISZ  IAML A   7 9  8.89       30.57 0.06                          4.27 271 
 LSVSISZ EPg  2A   7 9  7.79                             100   -0.04 5 4.49 207 
 LSVSISZ ESg  0A   7 9  9.01                             100    0.0910 4.49 207 
 LSVSISZ  IAML A   7 9  9.39        3.79 0.16                          4.49 207 
                                                                                
 2015  512 0714 56.9 L  37.295 -32.274  1.8  wcc  4 0.1-1.5Lwcc                1
 GAP=129        0.15       0.3     0.5  0.7  0.3283E-02 -0.1008E+00  0.2695E-01E
 2015  512 0714 56.862  37.29517  -32.27407    1.829  0.054                    H
 ACTION:UPD 19-03-08 15:46 OP:wcc  STATUS:               ID:20150512071456 L   I
 2015-05-12-0714-41M.LSFIR_020                                                 6
 STAT SP IPHASW D HRMM SECON CODA AMPLIT PERI AZIMU VELO AIN AR TRES W  DIS CAZ7
 LSVCISZ ESg  0A  071458.236                             156   -0.0210 0.68 232 
 LSVCISZ  IAML A  071458.376        5.50 0.06                          0.68 232 
 LSVNISZ EPg  3A   714 57.66                             109   -0.09 2 2.74 351 
 LSVNISZ ESg  0A   714 58.51                             109    0.0210 2.74 351 
 LSVNISZ  IAML A   714 58.99        8.83 0.13                          2.74 351 
 LSVEISZ EPg  1A   714 57.83                             104   -0.04 7 3.19 120 
 LSVEISZ ESg  0A   714 58.73                             104    0.0210 3.19 120 
 LSVEISZ  IAML A   714 59.11        2.44 0.10                          3.19 120 
 LSVSISZ EPg  3A   714 57.98                              97   -0.20 2 4.59 210 
 LSVSISZ ESg  0A   714 59.30                              97    0.0310 4.59 210 
 LSVSISZ  IAML A   714 59.65        1.10 0.10                          4.59 210 
                                                                                
 2015  512 1321  5.9 L  37.308 -32.275  0.2  wcc  4 0.0-1.7Lwcc                1
 GAP=154        0.17       0.2     1.2  1.4  0.6195E-01  0.1026E+01  0.1374E+00E
 2015  512 1321  5.918  37.30781  -32.27459    0.197  0.019                    H
 ACTION:UPD 19-03-08 15:46 OP:wcc  STATUS:               ID:20150512132106 L   I
 2015-05-12-1320-51M.LSFIR_020                                                 6
 STAT SP IPHASW D HRMM SECON CODA AMPLIT PERI AZIMU VELO AIN AR TRES W  DIS CAZ7
 LSVNISZ ESg  0A  1321  6.99                             109    0.0110 1.36 343 
 LSVNISZ  IAML A  1321  7.39        1.97 0.10                          1.36 343 
 LSVCISZ ESg  1A  1321 7.706                             105    0.02 7 1.89 195 
 LSVCISZ  IAML A  1321 8.926        4.30 0.38                          1.89 195 
 LSVEISZ EPg  3A  1321  7.74                              95   -0.04 2 4.11 137 
 LSVEISZ  IAML A  1321 29.34        1.22 0.35                          4.11 137 
 LSVWISZ EPg  0A  1321  7.93                              94   -0.0210 4.64 254 
 LSVWISZ  IAML A  1321 33.91        8.01 0.19                          4.64 254 
                                                                                
 2015  515 1429 13.8 L  37.292 -32.278  2.2  wcc  4 0.0-0.9Lwcc                1
 GAP=132        0.15       0.5     0.6  1.4  0.1754E+00  0.4739E-01  0.1430E+00E
 2015  515 1429 13.773  37.29236  -32.27753    2.213  0.024                    H
 ACTION:UPD 19-03-08 15:46 OP:wcc  STATUS:               ID:20150515142913 L   I
 2015-05-15-1428-58M.LSFIR_020                                                 6
 STAT SP IPHASW D HRMM SECON CODA AMPLIT PERI AZIMU VELO AIN AR TRES W  DIS CAZ7
 LSVCISZ EPg  0A  142914.559                             172   -0.0110 0.25 245 
 LSVCISZ  IAML A  142915.319       17.22 0.10                          0.25 245 
 LSVNISZ EPg  3A  1429 14.66                             113   -0.08 2 3.02 358 
 LSVNISZ ESg  0A  1429 15.54                             113    0.0110 3.02 358 
 LSVNISZ  IAML A  1429 16.04       25.07 0.10                          3.02 358 
 LSVEISZ EPg  0A  1429 14.80                             110   -0.0310 3.32 113 
 LSVEISZ ESg  0A  1429 15.72                             110    0.0210 3.32 113 
 LSVEISZ  IAML A  1429 16.16        3.02 0.10                          3.32 113 
 LSVWISZ EPg  1A  1429 14.91                             103    0.02 7 4.21 276 
 LSVWISZ  IAML A  1429 15.99       15.34 0.13                          4.21 276 
                                                                                
 2015  515 1433 25.6 L  37.288 -32.283  2.1  wcc  4 0.1-0.6Lwcc                1
 GAP=180        0.36       1.2     1.1  3.0  0.2406E-01  0.1458E+00 -0.1354E-02E
 2015  515 1433 25.639  37.28823  -32.28334    2.054  0.136                    H
 ACTION:UPD 19-03-08 15:46 OP:wcc  STATUS:               ID:20150515143325 L   I
 2015-05-15-1433-11M.LSFIR_020                                                 6
 STAT SP IPHASW D HRMM SECON CODA AMPLIT PERI AZIMU VELO AIN AR TRES W  DIS CAZ7
 LSVCISZ EPg  0A  143326.459                             165    0.0510 0.45  39 
 LSVCISZ  IAML A  143349.549       38.91 0.10                          0.45  39 
 LSVNISZ EPg  0A  1433 26.94                             105    0.2610 3.49   6 
 LSVNISZ ESg  0A  1433 27.40                             105   -0.1510 3.49   6 
 LSVNISZ  IAML A  1433 50.38       56.90 0.13                          3.49   6 
 LSVEISZ EPg  0A  1433 26.64                             104   -0.1110 3.67 103 
 LSVEISZ  IAML A  1433 50.35        5.67 0.13                          3.67 103 
 LSVWISZ EPg  1A  1433 26.68                             103    0.02 7 3.78 283 
 LSVWISZ ESg  0A  1433 27.45                             103   -0.0610 3.78 283 
 LSVWISZ  IAML A  1433 50.44       30.91 0.13                          3.78 283 
                                                                                
 2015  515 1433 48.0 L  37.291 -32.279  2.5  wcc  4 0.0-0.6Lwcc                1
 GAP=169        0.17       0.6     0.9  1.6  0.1191E+00  0.2683E+00  0.3477E+00E
 2015  515 1433 48.045  37.29069  -32.27906    2.492  0.033                    H
 ACTION:UPD 19-03-08 15:46 OP:wcc  STATUS:               ID:20150515143348 L   I
 2015-05-15-1432-58M.LSFIR_020                                                 6
 STAT SP IPHASW D HRMM SECON CODA AMPLIT PERI AZIMU VELO AIN AR TRES W  DIS CAZ7
 LSVCISZ EPg  0A  143348.879                             177   -0.0110 0.12 310 
 LSVCISZ  IAML A  143349.559       38.91 0.10                          0.12 310 
 LSVNISZ EPg  2A  1433 48.97                             116   -0.09 5 3.20   0 
 LSVNISZ ESg  0A  1433 49.93                             116    0.0210 3.20   0 
 LSVNISZ  IAML A  1433 50.30       61.63 0.13                          3.20   0 
 LSVEISZ EPg  0A  1433 49.13                             113    0.0010 3.38 109 
 LSVEISZ  IAML A  1433 50.33        5.67 0.13                          3.38 109 
 LSVWISZ EPg  0A  1433 49.16                             107    0.0110 4.10 278 
 LSVWISZ  IAML A  1433 50.46       30.91 0.13                          4.10 278 
                                                                                
 2015  515 1433 48.0 L  37.291 -32.279  2.5  wcc  4 0.0-0.6Lwcc                1
 GAP=170        0.16       0.6     0.9  1.5  0.1097E+00  0.2527E+00  0.2752E+00E
 2015  515 1433 48.040  37.29055  -32.27938    2.518  0.033                    H
 ACTION:UPD 19-03-08 15:46 OP:wcc  STATUS:               ID:20150515143349dL   I
 2015-05-15-1433-33M.LSFIR_020                                                 6
 STAT SP IPHASW D HRMM SECON CODA AMPLIT PERI AZIMU VELO AIN AR TRES W  DIS CAZ7
 LSVCISZ EPg  0A  143348.879                             177   -0.0110 0.11 326 
 LSVCISZ  IAML A  143349.559       38.91 0.10                          0.11 326 
 LSVNISZ EPg  2A  1433 48.97                             113   -0.09 5 3.21   1 
 LSVNISZ ESg  0A  1433 49.93                             113    0.0210 3.21   1 
 LSVNISZ  IAML A  1433 50.30       61.63 0.13                          3.21   1 
 LSVEISZ EPg  0A  1433 49.13                             111    0.0010 3.41 109 
 LSVEISZ  IAML A  1433 50.33        5.67 0.13                          3.41 109 
 LSVWISZ EPg  0A  1433 49.15                             104    0.0110 4.07 279 
 LSVWISZ  IAML A  1433 50.44       30.91 0.13                          4.07 279 
                                                                                
 2015  517 0450  8.8 L  37.293 -32.279  2.5  wcc  5 0.1-0.1Lwcc                1
 GAP=113        0.19       0.5     0.7  1.7  0.1471E+00  0.4674E+00  0.4153E+00E
 2015  517 0450  8.793  37.29301  -32.27893    2.468  0.053                    H
 ACTION:UPD 19-03-08 15:46 OP:wcc  STATUS:               ID:20150517045008 L   I
 2015-05-17-0449-53M.LSFIR_020                                                 6
 STAT SP IPHASW D HRMM SECON CODA AMPLIT PERI AZIMU VELO AIN AR TRES W  DIS CAZ7
 LSVCISZ EPg  0A  0450 9.616                             174   -0.0210 0.21 210 
 LSVCISZ  IAML A  045024.786      178.61 0.48                          0.21 210 
 LSVNISZ EPg  0A   450  9.65                             118   -0.1110 2.94 360 
 LSVNISZ ESg  0A   450 10.63                             118    0.0610 2.94 360 
 LSVNISZ  IAML A   450 11.11      154.04 0.10                          2.94 360 
 LSVEISZ EPg  0A   450  9.91                             112    0.0210 3.47 113 
 LSVEISZ ESg  0A   450 10.81                             112    0.0110 3.47 113 
 LSVEISZ  IAML A   450 11.21       43.49 0.10                          3.47 113 
 LSVWISZ EPg  0A   450  9.94                             107    0.0410 4.08 275 
 LSVWISZ  IAML A   450 11.12       94.58 0.10                          4.08 275 
 LSVSISZ EPg  0A   450 10.04                             107   -0.0110 4.18 206 
 LSVSISZ  IAML A   450 11.48       14.55 0.16                          4.18 206 
                                                                                
 2015  517 0608 48.2 L  37.284 -32.286  1.7  wcc  5 0.1-1.2Lwcc                1
 GAP=110        0.18       0.3     0.6  0.8 -0.5822E-01  0.2527E+00  0.1431E-02E
 2015  517 0608 48.204  37.28371  -32.28568    1.697  0.058                    H
 ACTION:UPD 19-03-08 15:46 OP:wcc  STATUS:               ID:20150517060848 L   I
 2015-05-17-0608-33M.LSFIR_020                                                 6
 STAT SP IPHASW D HRMM SECON CODA AMPLIT PERI AZIMU VELO AIN AR TRES W  DIS CAZ7
 LSVCISZ EPg  0A  060848.926                             143   -0.0310 0.99  30 
 LSVCISZ ESg  0A  060849.606                             143    0.0210 0.99  30 
 LSVCISZ  IAML A  060849.726       18.00 0.06                          0.99  30 
 LSVSISZ EPg  1A   6 8 49.11                             102   -0.09 7 2.99 205 
 LSVSISZ ESg  0A   6 8 50.09                             102    0.0610 2.99 205 
 LSVSISZ  IAML A   6 8 50.55        1.98 0.06                          2.99 205 
 LSVWISZ EPg  1A   6 8 49.32                              98    0.10 7 3.73 291 
 LSVWISZ ESg  0A   6 8 50.00                              98   -0.0610 3.73 291 
 LSVWISZ  IAML A   6 8 50.42       12.97 0.06                          3.73 291 
 LSVEISZ EPg  2A   6 8 49.29                              98   -0.05 5 3.80  95 
 LSVEISZ  IAML A   6 8 50.58        2.23 0.06                          3.80  95 
 LSVNISZ EPg  2A   6 8 49.35                              97   -0.00 5 4.02   8 
 LSVNISZ ESg  0A   6 8 50.34                              97    0.0310 4.02   8 
 LSVNISZ  IAML A   6 8 50.68       10.26 0.10                          4.02   8 
                                                                                
 2015  518 0402 38.9 L  37.290 -32.273  1.8  wcc  4 0.2-1.2Lwcc                1
 GAP=166        0.54       3.0     1.8  2.1  0.1973E+01 -0.8310E+00 -0.1521E+01E
 2015  518 0402 38.867  37.29020  -32.27269    1.800  0.213                    H
 ACTION:UPD 19-03-08 15:46 OP:wcc  STATUS:               ID:20150518040238 L   I
 2015-05-18-0402-20M.LSFIR_020                                                 6
 STAT SP IPHASW D HRMM SECON CODA AMPLIT PERI AZIMU VELO AIN AR TRES W  DIS CAZ7
 LSVCISZ EPg  0A  040240.014                             154    0.4110 0.67 281 
 LSVCISZ ESg  0A  040240.014                             154   -0.2010 0.67 281 
 LSVCISZ  IAML A  0403 1.644        5.00 0.54                          0.67 281 
 LSVEISZ EPg  0A   4 2 39.69                             102   -0.1110 2.84 112 
 LSVEISZ  IAML A   4 2 40.24        4.25 0.16                          2.84 112 
 LSVNISZ EPg  0A   4 2 39.83                              99   -0.0310 3.30 350 
 LSVNISZ  IAML A   4 2 40.20        8.51 0.10                          3.30 350 
 LSVWISZ ESg  0A   4 2 40.99                              94   -0.0610 4.67 278 
 LSVWISZ  IAML A   4 2 41.68       11.39 0.13                          4.67 278 
                                                                                
 2015  519 0801 23.7 L  37.259 -32.304  1.3  wcc  4 0.0-0.9Lwcc                1
 GAP=258        0.17       3.0     1.6  1.0  0.3846E+01 -0.9552E+00 -0.2655E+01E
 2015  519 0801 23.722  37.25857  -32.30419    1.274  0.001                    H
 ACTION:UPD 19-03-08 15:46 OP:wcc  STATUS:               ID:20150519080123 L   I
 2015-05-19-0801-06M.LSFIR_020                                                 6
 STAT SP IPHASW D HRMM SECON CODA AMPLIT PERI AZIMU VELO AIN AR TRES W  DIS CAZ7
 LSVSISZ ESg  0A   8 1 24.60                             158    0.0010 0.39  78 
 LSVSISZ  IAML A   8 1 24.93       18.26 0.13                          0.39  78 
 LSVCISZ EPg  0A  080125.122                              95   -0.0010 4.22  30 
 LSVCISZ  IAML A  080125.522        6.99 0.10                          4.22  30 
 LSVWISZ EPg  0A   8 1 24.94                              94    0.0010 4.54 336 
 LSVWISZ  IAML A   8 1 25.18       15.69 0.06                          4.54 336 
 LSVEISZ EPg  0A   8 1 25.37                              93   -0.0010 5.96  66 
 LSVEISZ  IAML A   8 1 25.67        7.81 0.19                          5.96  66 
                                                                                
 2015  521 0149  9.3 L  37.303 -32.271  4.8  wcc  5 0.0-0.2Lwcc                1
 GAP=155        0.15       0.6     0.7  1.2  0.1032E+00  0.2516E+00  0.3717E+00E
 2015  521 0149  9.304  37.30329  -32.27146    4.836  0.032                    H
 ACTION:UPD 19-03-08 15:46 OP:wcc  STATUS:               ID:20150521014909 L   I
 2015-05-21-0148-54M.LSFIR_020                                                 6
 STAT SP IPHASW D HRMM SECON CODA AMPLIT PERI AZIMU VELO AIN AR TRES W  DIS CAZ7
 LSVCISZ EPg  0A  014910.558                             157    0.0210 1.53 210 
 LSVCISZ  IAML A  014911.138       40.55 0.10                          1.53 210 
 LSVNISZ EPg  0A   149 10.35                             151   -0.0210 1.92 340 
 LSVNISZ ESg  0A   149 11.28                             151    0.0310 1.92 340 
 LSVNISZ  IAML A   149 11.63       91.96 0.10                          1.92 340 
 LSVEISZ EPg  0A   149 10.54                             132   -0.0010 3.56 135 
 LSVEISZ ESg  0A   149 11.54                             132   -0.0310 3.56 135 
 LSVEISZ  IAML A   149 11.54       11.67 0.13                          3.56 135 
 LSVWISZ EPg  0A   149 10.61                             121    0.0410 4.80 260 
 LSVWISZ ESg  0A   149 11.56                             121   -0.0610 4.80 260 
 LSVWISZ  IAML A   149 12.02       36.70 0.13                          4.80 260 
 LSVSISZ EPg  0A   149 10.77                             117   -0.0210 5.49 207 
 LSVSISZ ESg  0A   149 12.07                             117    0.0410 5.49 207 
 LSVSISZ  IAML A   149 12.26        9.62 0.13                          5.49 207 
                                                                                
