 2016  519 0433 29.0 L  37.275 -32.288  6.3  wcc  4 0.2 0.2Lwcc                1
 GAP=226        0.47     999.9   999.9999.9  0.7587E+08 -0.1111E+09 -0.9411E+08E
 ACTION:UPD 20-02-26 15:57 OP:sb   STATUS:               ID:20160519043329 L   I
 2016-05-19-0433-10M.VNRC__020                                                 6
 STAT SP IPHASW D HRMM SECON CODA AMPLIT PERI AZIMU VELO AIN AR TRES W  DIS CAZ7
 LSVWIS1  Sg  0A   433 31.34                             139   -0.0910 4.05 306 
 LSVWIS1  IAML A   433 31.58       52.03 0.13                          4.05 306 
 LSVWISZ IPg       433 27.23                                                    
 LSVWISZ ISg       433 31.31                                                    
 LSVNISZ  IAML A   433 30.90        54.0 0.10                          5.05   9 
 LSVNISZ IPg       433 26.60                                                    
 LSVNISZ ISg       433 30.48                                                    
 LSVEISZ  IAML A   433 31.75        18.4 0.16                          4.04  80 
 LSVEISZ IPg       433 26.69                                                    
 LSVEISZ ISg       433 30.48                                                    
 LSVCISZ  IAML A   433 30.99        67.6 0.10                          1.99  20 
 LSVCISZ IPg       433 26.88                                                    
 LSVCISZ ISg       433 30.72                                                    
 LSVSISZ IPg       433 27.34                                                    
 LSVSISZ ISg       433 31.84                                                    
