 2015  7 9 2011 10.7 L  37.292 -32.270  1.9  wcc  5 0.1-0.7Lwcc                1
 GAP=131        0.17       0.3     0.5  0.7  0.1830E-01  0.1446E-01  0.1533E-01E
 2015  7 9 2011 10.733  37.29186  -32.27032    1.942  0.053                    H
 ACTION:UPD 19-03-08 15:46 OP:wcc  STATUS:               ID:20150709201110 L   I
 2015-07-09-2010-55M.LSFIR_020                                                 6
 STAT SP IPHASW D HRMM SECON CODA AMPLIT PERI AZIMU VELO AIN AR TRES W  DIS CAZ7
 LSVCISZ EPg  0A  201111.508                             150   -0.0110 0.87 267 
 LSVCISZ ESg  0A  201112.148                             150   -0.0210 0.87 267 
 LSVCISZ  IAML A  201112.278       42.56 0.10                          0.87 267 
 LSVEISZ ESg  0A  2011 12.42                             109    0.0010 2.72 117 
 LSVEISZ  IAML A  2011 12.83       17.75 0.16                          2.72 117 
 LSVNISZ EPg  2A  2011 11.66                             105   -0.05 5 3.16 346 
 LSVNISZ ESg  0A  2011 12.57                             105    0.0510 3.16 346 
 LSVNISZ  IAML A  2011 12.82       48.79 0.13                          3.16 346 
 LSVSISZ EPg  2A  2011 11.99                              98   -0.04 5 4.47 216 
 LSVSISZ ESg  0A  2011 13.16                              98    0.0610 4.47 216 
 LSVSISZ  IAML A  2011 13.68        1.74 0.29                          4.47 216 
 LSVWISZ EPg  0A  2011 11.87                              97   -0.1010 4.85 275 
 LSVWISZ ESg  2A  2011 13.07                              97    0.08 5 4.85 275 
 LSVWISZ  IAML A  2011 13.12       24.76 0.16                          4.85 275 
                                                                                
 2015  710 0731 40.9 L  37.300 -32.271  3.1  wcc  4 0.1-0.9Lwcc                1
 GAP=226        0.19       2.7     2.2  1.3  0.2638E+01 -0.5287E+00 -0.1956E+01E
 2015  710 0731 40.877  37.29993  -32.27071    3.059  0.086                    H
 ACTION:UPD 19-03-08 15:46 OP:wcc  STATUS:               ID:20150710073140 L   I
 2015-07-10-0731-23M.LSFIR_020                                                 6
 STAT SP IPHASW D HRMM SECON CODA AMPLIT PERI AZIMU VELO AIN AR TRES W  DIS CAZ7
 LSVCISZ ESg  0A  073142.707                             148    0.0110 1.26 221 
 LSVCISZ  IAML A  073143.117        4.60 0.10                          1.26 221 
 LSVEISZ EPg  2A   731 41.99                             108    0.03 5 3.25 131 
 LSVEISZ  IAML A   731 44.05        8.06 0.19                          3.25 131 
 LSVWISZ EPg  0A   731 42.11                              97    0.0210 4.82 265 
 LSVWISZ  IAML A   731 42.75       25.33 0.16                          4.82 265 
 LSVSISZ EPg  2A   731 42.12                              96   -0.17 5 5.20 210 
 LSVSISZ ESg  3A   731 43.65                              96    0.19 2 5.20 210 
 LSVSISZ  IAML A   731 43.73        2.99 0.16                          5.20 210 
                                                                                
 2015  711 0431 39.4 L  37.287 -32.276  1.9  wcc  4 0.1-1.5Lwcc                1
 GAP=134        0.17       0.8     2.0  2.6 -0.5242E+00  0.2878E+01  0.6215E+00E
 2015  711 0431 39.387  37.28670  -32.27648    1.878  0.059                    H
 ACTION:UPD 19-03-08 15:46 OP:wcc  STATUS:               ID:20150711043139 L   I
 2015-07-11-0431-24M.LSFIR_020                                                 6
 STAT SP IPHASW D HRMM SECON CODA AMPLIT PERI AZIMU VELO AIN AR TRES W  DIS CAZ7
 LSVCISZ EPg  0A  043140.155                             159    0.0010 0.61 328 
 LSVCISZ  IAML A  0432 9.615        4.55 0.42                          0.61 328 
 LSVEISZ EPg  3A   431 40.28                             107   -0.09 2 3.04 103 
 LSVEISZ  IAML A   431 59.98        4.48 0.16                          3.04 103 
 LSVSISZ ESg  0A   431 41.47                             102   -0.0010 3.68 214 
 LSVSISZ  IAML A   431 46.55        0.78 0.29                          3.68 214 
 LSVWISZ EPg  2A   431 40.59                              99    0.06 5 4.41 284 
 LSVWISZ ESg  3A   431 41.32                              99   -0.17 2 4.41 284 
 LSVWISZ  IAML A   431 41.64        8.55 0.16                          4.41 284 
                                                                                
 2015  711 0711 17.5 L  37.288 -32.288  2.3  wcc  4 0.1-1.4Lwcc                1
 GAP=137        0.20       0.6     0.5  1.0  0.5259E-01  0.1512E+00  0.1845E+00E
 2015  711 0711 17.479  37.28817  -32.28752    2.261  0.064                    H
 ACTION:UPD 19-03-08 15:46 OP:wcc  STATUS:               ID:20150711071117 L   I
 2015-07-11-0711-02M.LSFIR_020                                                 6
 STAT SP IPHASW D HRMM SECON CODA AMPLIT PERI AZIMU VELO AIN AR TRES W  DIS CAZ7
 LSVCISZ EPg  0A  071118.415                             158    0.1110 0.75  61 
 LSVCISZ  IAML A  071118.955        4.73 0.16                          0.75  61 
 LSVCISZ ESg  0A  071118.975                             158   -0.0210 0.75  61 
 LSVSISZ EPg  2A   711 18.59                             110    0.01 5 3.39 199 
 LSVSISZ ESg  0A   711 19.49                             110    0.0010 3.39 199 
 LSVSISZ  IAML A   711 19.57        2.17 0.13                          3.39 199 
 LSVWISZ EPg  0A   711 18.50                             110    0.0610 3.42 285 
 LSVWISZ ESg  0A   711 19.16                             110   -0.0910 3.42 285 
 LSVWISZ  IAML A   711 20.20       10.86 0.13                          3.42 285 
 LSVEISZ EPg  3A   711 18.73                             106    0.06 2 4.03 102 
 LSVEISZ ESg  0A   711 19.59                             106   -0.0710 4.03 102 
 LSVEISZ  IAML A   711 20.01        2.33 0.10                          4.03 102 
                                                                                
 2015  712 2217 44.4 L  37.289 -32.263  1.0  wcc  4 0.0-1.8Lwcc                1
 GAP=141        0.16       1.3     0.9  2.8  0.1094E+01 -0.2157E+01 -0.3195E+01E
 2015  712 2217 44.368  37.28890  -32.26268    1.003  0.030                    H
 ACTION:UPD 19-03-08 15:46 OP:wcc  STATUS:               ID:20150712221744 L   I
 2015-07-12-2217-29M.LSFIR_020                                                 6
 STAT SP IPHASW D HRMM SECON CODA AMPLIT PERI AZIMU VELO AIN AR TRES W  DIS CAZ7
 LSVCISZ EPg  3A  221745.281                             113    0.11 2 1.57 280 
 LSVCISZ ESg  0A  221745.831                             113   -0.0110 1.57 280 
 LSVCISZ  IAML A  2218 3.281        3.70 0.35                          1.57 280 
 LSVEISZ ESg  0A  2217 45.75                             103   -0.0010 1.97 118 
 LSVEISZ  IAML A  2217 47.00        1.76 0.10                          1.97 118 
 LSVNISZ EPg  0A  2217 45.54                              95   -0.0010 3.69 337 
 LSVNISZ  IAML A  2217 47.95        3.44 0.35                          3.69 337 
 LSVSISZ EPg  3A  2217 45.86                              93    0.00 2 4.66 225 
 LSVSISZ  IAML A  2217 46.22        0.75 0.35                          4.66 225 
                                                                                
 2015  717 1609 53.2 L  37.274 -32.301  2.9  wcc  5 0.0-0.8Lwcc                1
 GAP=204        0.17       0.6     1.3  1.6  0.1924E+00 -0.1192E+01 -0.5846E+00E
 2015  717 1609 53.217  37.27419  -32.30085    2.896  0.001                    H
 ACTION:UPD 19-03-08 15:47 OP:wcc  STATUS:               ID:20150717160953 L   I
 2015-07-17-1609-35M.LSFIR_020                                                 6
 STAT SP IPHASW D HRMM SECON CODA AMPLIT PERI AZIMU VELO AIN AR TRES W  DIS CAZ7
 LSVSISZ EPg  4   16 951.360                             141   -2.74 0 1.65 177 
 LSVSISZ ESg  1A  16 954.840                             141   -0.00 7 1.65 177 
 LSVSISZ  IAML A  16 956.760         5.4 0.13                          1.65 177 
 LSVCIS1 EPg  4   160952.072                             125   -2.29 0 2.65  44 
 LSVCISZ ESg  0A  160955.322                             125    0.0010 2.65  44 
 LSVCISZ  IAML A  160958.542       17.23 0.61                          2.65  44 
 LSVWISZ EPg  4   16 951.503                             115   -2.68 0 3.22 319 
 LSVWISZ  IAML A  16 955.170        44.6 0.10                          3.22 319 
 LSVEISZ EPg  4   16 952.235                             100   -2.40 0 5.18  82 
 LSVEISZ ESg  0A  16 955.810                             100   -0.0010 5.18  82 
 LSVEISZ  IAML A  16 956.150         4.4 0.19                          5.18  82 
 LSVNISZ EPg  4   16 952.240                              99   -2.40 0 5.39  21 
 LSVNISZ ESg  0A  16 955.820                              99   -0.0010 5.39  21 
 LSVNISZ  IAML A  16 956.120         4.2 0.19                          5.39  21 
                                                                                
 2015  718 1349  1.3 L  37.297 -32.277  2.9  wcc  5 0.1-0.4Lwcc                1
 GAP=125        0.19       0.5     0.6  1.8  0.1121E+00  0.6040E+00  0.5534E+00E
 2015  718 1349  1.301  37.29665  -32.27672    2.888  0.059                    H
 ACTION:UPD 19-03-08 15:47 OP:wcc  STATUS:               ID:20150718134901 L   I
 2015-07-18-1348-46M.LSFIR_020                                                 6
 STAT SP IPHASW D HRMM SECON CODA AMPLIT PERI AZIMU VELO AIN AR TRES W  DIS CAZ7
 LSVCISZ EPg  0A  1349 2.200                             164   -0.0310 0.65 207 
 LSVCISZ  IAML A  1349 2.900       61.91 0.10                          0.65 207 
 LSVNISZ EPg  0A  1349  2.22                             126   -0.0210 2.54 355 
 LSVNISZ ESg  0A  1349  3.10                             126    0.0710 2.54 355 
 LSVNISZ  IAML A  1349  3.58       92.96 0.10                          2.54 355 
 LSVEISZ EPg  3A  1349  2.43                             113    0.01 2 3.47 121 
 LSVEISZ ESg  0A  1349  3.34                             113   -0.0110 3.47 121 
 LSVEISZ  IAML A  1349  3.72       16.03 0.13                          3.47 121 
 LSVWISZ EPg  0A  1349  2.46                             105    0.0110 4.26 269 
 LSVWISZ ESg  0A  1349  3.35                             105   -0.0510 4.26 269 
 LSVWISZ  IAML A  1349  3.58       36.60 0.10                          4.26 269 
 LSVSISZ EPg  0A  1349  2.57                             103   -0.0810 4.63 206 
 LSVSISZ ESg  0A  1349  3.88                             103    0.1110 4.63 206 
 LSVSISZ  IAML A  1349  4.37        6.67 0.10                          4.63 206 
                                                                                
 2015  720 0942  6.2 L  37.289 -32.283  1.5  wcc  4 0.2-1.7Lwcc                1
 GAP=161        0.43       1.0     2.5  1.4 -0.7052E+00  0.6393E-01  0.5848E-01E
 2015  720 0942  6.204  37.28947  -32.28283    1.500  0.181                    H
 ACTION:UPD 19-03-08 15:47 OP:wcc  STATUS:               ID:20150720094206 L   I
 2015-07-20-0941-51M.LSFIR_020                                                 6
 STAT SP IPHASW D HRMM SECON CODA AMPLIT PERI AZIMU VELO AIN AR TRES W  DIS CAZ7
 LSVCISZ EPg  0A  0942 7.176                             165    0.3210 0.32  49 
 LSVCISZ ESg  0A  0942 7.176                             165   -0.2310 0.32  49 
 LSVCISZ  IAML A  094221.066        4.45 0.58                          0.32  49 
 LSVNISZ ESg  0A   942  8.00                              94   -0.0510 3.35   6 
 LSVNISZ  IAML A   942  8.40        6.49 0.22                          3.35   6 
 LSVEISZ EPg  0A   942  7.32                              93    0.0110 3.66 105 
 LSVEISZ  IAML A   942  8.31        1.20 0.16                          3.66 105 
 LSVSISZ EPg  3A   942  7.43                              93    0.09 2 3.67 204 
 LSVSISZ ESg  1A   942  8.18                              93   -0.11 7 3.67 204 
 LSVSISZ  IAML A   942 10.18        0.93 0.32                          3.67 204 
                                                                                
 2015  720 1607  5.4 L  37.292 -32.280  2.5  wcc  5 0.1-0.8Lwcc                1
 GAP=110        0.17       0.5     0.6  1.5  0.1023E+00  0.3376E+00  0.3666E+00E
 2015  720 1607  5.388  37.29200  -32.27969    2.487  0.058                    H
 ACTION:UPD 19-03-08 15:47 OP:wcc  STATUS:               ID:20150720160705 L   I
 2015-07-20-1606-50M.LSFIR_020                                                 6
 STAT SP IPHASW D HRMM SECON CODA AMPLIT PERI AZIMU VELO AIN AR TRES W  DIS CAZ7
 LSVCISZ EPg  0A  1607 6.206                             178   -0.0310 0.08 209 
 LSVCISZ  IAML A  1607 6.806       21.45 0.13                          0.08 209 
 LSVNISZ EPg  1A  16 7  6.31                             117   -0.07 7 3.05   1 
 LSVNISZ ESg  0A  16 7  7.20                             117   -0.0010 3.05   1 
 LSVNISZ  IAML A  16 7  7.81       52.22 0.13                          3.05   1 
 LSVEISZ EPg  0A  16 7  6.52                             112    0.0310 3.49 111 
 LSVEISZ  IAML A  16 7  7.43        4.09 0.13                          3.49 111 
 LSVEISZ ESg  0A  16 7  7.43                             112    0.0310 3.49 111 
 LSVWISZ EPg  0A  16 7  6.51                             108    0.0310 4.02 276 
 LSVWISZ ESg  2A  16 7  7.55                             108    0.16 5 4.02 276 
 LSVWISZ  IAML A  16 7  7.70       30.10 0.10                          4.02 276 
 LSVSISZ EPg  0A  16 7  6.56                             108   -0.0610 4.05 206 
 LSVSISZ  IAML A  16 7  7.88        5.40 0.10                          4.05 206 
                                                                                
 2015  720 2325  8.1 L  37.279 -32.268  2.0  wcc  4 0.0-1.6Lwcc                1
 GAP=148        0.17       0.7     0.7  2.9 -0.2573E+00  0.3802E+00  0.5053E-01E
 2015  720 2325  8.097  37.27868  -32.26820    2.017  0.004                    H
 ACTION:UPD 19-03-08 15:47 OP:wcc  STATUS:               ID:20150720232508 L   I
 2015-07-20-2324-53M.LSFIR_020                                                 6
 STAT SP IPHASW D HRMM SECON CODA AMPLIT PERI AZIMU VELO AIN AR TRES W  DIS CAZ7
 LSVCISZ EPg  0A  2325 9.005                             128   -0.0010 1.76 323 
 LSVCISZ  IAML A  232538.155        4.89 0.48                          1.76 323 
 LSVEISZ EPg  0A  2325  8.94                             118    0.0110 2.25  84 
 LSVEISZ  IAML A  2325  9.39        1.92 0.16                          2.25  84 
 LSVSISZ ESg  0A  2325 10.13                             104   -0.0010 3.54 233 
 LSVSISZ  IAML A  2325 10.47        0.77 0.13                          3.54 233 
 LSVWISZ EPg  1A  2325  9.44                              97    0.00 7 5.37 291 
 LSVWISZ  IAML A  2325  9.92        3.83 0.10                          5.37 291 
                                                                                
 2015  721 0546 50.2 L  37.297 -32.270  3.8  wcc  4 0.0-1.2Lwcc                1
 GAP=219        0.14       1.0     1.1  2.7  0.2279E+00  0.2151E+01  0.6400E+00E
 2015  721 0546 50.151  37.29744  -32.27041    3.814  0.033                    H
 ACTION:UPD 19-03-08 15:47 OP:wcc  STATUS:               ID:20150721054650 L   I
 2015-07-21-0546-17M.LSFIR_020                                                 6
 STAT SP IPHASW D HRMM SECON CODA AMPLIT PERI AZIMU VELO AIN AR TRES W  DIS CAZ7
 LSVCISZ EPg  0A  054651.235                             157    0.0010 1.09 232 
 LSVCISZ  IAML A  054651.755        7.59 0.10                          1.09 232 
 LSVEISZ EPg  2A   546 51.32                             122    0.07 5 3.06 127 
 LSVEISZ ESg  0A   546 52.14                             122   -0.0210 3.06 127 
 LSVEISZ  IAML A   546 52.52        3.16 0.06                          3.06 127 
 LSVWISZ EPg  1A   546 51.34                             103   -0.02 7 4.83 268 
 LSVWISZ ESg  3A   546 52.43                             103    0.06 2 4.83 268 
 LSVWISZ  IAML A   546 52.49        4.58 0.06                          4.83 268 
 LSVSISZ EPg  3A   546 51.47                             102   -0.05 2 4.98 212 
 LSVSISZ ESg  0A   546 52.67                             102    0.0110 4.98 212 
 LSVSISZ  IAML A   546 52.88        0.98 0.10                          4.98 212 
                                                                                
 2015  721 1611 57.7 L  37.288 -32.286  2.9  wcc  4 0.1-1.0Lwcc                1
 GAP=148        0.18       0.4     0.8  2.4 -0.9860E-01  0.5160E+00 -0.9616E-01E
 2015  721 1611 57.682  37.28765  -32.28627    2.870  0.056                    H
 ACTION:UPD 19-03-08 15:47 OP:wcc  STATUS:               ID:20150721161157 L   I
 2015-07-21-1611-42M.LSFIR_020                                                 6
 STAT SP IPHASW D HRMM SECON CODA AMPLIT PERI AZIMU VELO AIN AR TRES W  DIS CAZ7
 LSVCISZ EPg  0A  161158.594                             163   -0.0210 0.69  53 
 LSVCISZ  IAML A  161159.184       13.57 0.10                          0.69  53 
 LSVSISZ EPg  1A  1611 58.72                             113   -0.09 7 3.37 201 
 LSVSISZ ESg  0A  1611 59.81                             113    0.0610 3.37 201 
 LSVSISZ  IAML A  1611 59.99        2.22 0.13                          3.37 201 
 LSVWISZ EPg  2A  1611 58.81                             111    0.11 5 3.54 285 
 LSVWISZ ESg  0A  1611 59.52                             111   -0.0310 3.54 285 
 LSVWISZ  IAML A  1611 60.00       12.07 0.06                          3.54 285 
 LSVNISZ EPg  2A  1611 58.77                             111   -0.02 5 3.59  10 
 LSVNISZ ESg  0A  1611 59.74                             111    0.0310 3.59  10 
 LSVNISZ  IAML A  1612  0.08        8.30 0.10                          3.59  10 
                                                        
