 2015  530 2105 45.1 L  37.292 -32.274  2.3  wcc  5 0.1-0.4Lwcc                1
 GAP=124        0.25       0.6     0.7  2.0  0.1907E+00  0.7340E+00  0.4711E+00E
 2015  530 2105 45.063  37.29213  -32.27359    2.340  0.082                    H
 ACTION:UPD 19-03-08 15:46 OP:wcc  STATUS:               ID:20150530210545 L   I
 2015-05-30-2105-30M.LSFIR_020                                                 6
 STAT SP IPHASW D HRMM SECON CODA AMPLIT PERI AZIMU VELO AIN AR TRES W  DIS CAZ7
 LSVCISZ EPg  0A  210545.959                             163    0.0610 0.58 262 
 LSVCISZ  IAML A  210546.669       62.86 0.10                          0.58 262 
 LSVEISZ EPg  0A  21 5 46.21                             114    0.1510 2.99 115 
 LSVEISZ ESg  0A  21 5 46.75                             114   -0.1410 2.99 115 
 LSVEISZ  IAML A  21 5 47.07       24.71 0.13                          2.99 115 
 LSVNISZ EPg  0A  21 5 46.01                             113   -0.0410 3.08 351 
 LSVNISZ ESg  0A  21 5 46.87                             113    0.0110 3.08 351 
 LSVNISZ  IAML A  21 5 47.29       93.77 0.10                          3.08 351 
 LSVSISZ EPg  0A  21 5 46.36                             102    0.0210 4.33 213 
 LSVSISZ  IAML A  21 5 48.07        9.19 0.13                          4.33 213 
 LSVWISZ EPg  0A  21 5 46.27                             101    0.0210 4.56 275 
 LSVWISZ ESg  0A  21 5 47.16                             101   -0.0810 4.56 275 
 LSVWISZ  IAML A  21 5 47.51       48.65 0.13                          4.56 275 
                                                                                
 2015  6 1 1009  3.9 L  37.298 -32.289  2.1  wcc  4 0.0-1.2Lwcc                1
 GAP=210        0.15       0.5     0.3  0.7  0.5406E-01  0.4598E-01  0.4312E-01E
 2015  6 1 1009  3.918  37.29818  -32.28862    2.106  0.022                    H
 ACTION:UPD 19-03-08 15:46 OP:wcc  STATUS:               ID:20150601100903 L   I
 2015-06-01-1008-49M.LSFIR_020                                                 6
 STAT SP IPHASW D HRMM SECON CODA AMPLIT PERI AZIMU VELO AIN AR TRES W  DIS CAZ7
 LSVCISZ EPg  0A  1009 4.785                             147    0.0410 1.07 135 
 LSVCISZ ESg  0A  1009 5.425                             147   -0.0110 1.07 135 
 LSVCISZ  IAML A  1009 5.505        9.36 0.06                          1.07 135 
 LSVWISZ EPg  0A  10 9  4.85                             107    0.0110 3.22 266 
 LSVWISZ ESg  0A  10 9  5.57                             107   -0.0310 3.22 266 
 LSVWISZ  IAML A  10 9  6.39       22.46 0.10                          3.22 266 
 LSVSISZ ESg  0A  10 9  6.29                             100    0.0110 4.43 193 
 LSVSISZ  IAML A  10 9  6.42        1.37 0.10                          4.43 193 
 LSVEISZ EPg  1A  10 9  5.20                             100    0.01 7 4.49 116 
 LSVEISZ ESg  0A  10 9  6.22                             100   -0.0310 4.49 116 
 LSVEISZ  IAML A  10 9  6.65        2.83 0.10                          4.49 116 
                                                                                
 2015  6 1 1049  6.2 L  37.295 -32.276  3.3  wcc  4 0.1-1.1Lwcc                1
 GAP=207        0.19       1.2     0.7  2.3  0.3954E+00  0.7181E+00  0.7520E+00E
 2015  6 1 1049  6.187  37.29510  -32.27600    3.336  0.061                    H
 ACTION:UPD 19-03-08 15:46 OP:wcc  STATUS:               ID:20150601104906 L   I
 2015-06-01-1048-51M.LSFIR_020                                                 6
 STAT SP IPHASW D HRMM SECON CODA AMPLIT PERI AZIMU VELO AIN AR TRES W  DIS CAZ7
 LSVCISZ EPg  0A  1049 7.215                             167    0.0410 0.55 222 
 LSVCISZ  IAML A  1049 7.745       11.78 0.06                          0.55 222 
 LSVNISZ EPg  4   1049 7.169                             120   -0.01 0 2.72 354 
 LSVEISZ EPg  0A  1049  7.31                             110    0.0210 3.33 119 
 LSVEISZ ESg  0A  1049  8.16                             110   -0.0510 3.33 119 
 LSVEISZ  IAML A  1049  8.17        3.83 0.13                          3.33 119 
 LSVWISZ EPg  1A  1049  7.43                             100    0.11 7 4.33 271 
 LSVWISZ ESg  0A  1049  8.19                             100   -0.0710 4.33 271 
 LSVWISZ  IAML A  1049  8.55       12.83 0.16                          4.33 271 
 LSVSISZ EPg  2A  1049  7.41                              99   -0.08 5 4.50 208 
 LSVSISZ ESg  1A  1049  8.61                              99    0.04 7 4.50 208 
 LSVSISZ  IAML A  1049  9.33        1.40 0.22                          4.50 208 
                                                                                
 2015  6 1 1052 39.3 L  37.292 -32.279  2.1  wcc  5 0.1-1.0Lwcc                1
 GAP=112        0.16       0.5     0.4  0.6  0.5049E-01  0.6929E-01  0.7181E-01E
 2015  6 1 1052 39.316  37.29185  -32.27882    2.133  0.061                    H
 ACTION:UPD 19-03-08 15:46 OP:wcc  STATUS:               ID:20150601105239 L   I
 2015-06-01-1052-21M.LSFIR_020                                                 6
 STAT SP IPHASW D HRMM SECON CODA AMPLIT PERI AZIMU VELO AIN AR TRES W  DIS CAZ7
 LSVCIS1 EPg  2   105240.277                             176    0.19 5 0.12 246 
 LSVCISZ ESg  0A  105240.705                             176   -0.0310 0.12 246 
 LSVCISZ  IAML A  105240.805       21.84 0.10                          0.12 246 
 LSVNISZ EPg  2   105240.215                             110   -0.07 5 3.07 360 
 LSVEISZ EPg  3A  1052 40.40                             107    0.02 2 3.41 111 
 LSVEISZ ESg  0A  1052 41.25                             107   -0.0110 3.41 111 
 LSVEISZ  IAML A  1052 41.41        7.61 0.19                          3.41 111 
 LSVSISZ EPg  1A  1052 40.47                             102   -0.07 7 4.07 207 
 LSVSISZ ESg  0A  1052 41.57                             102    0.0210 4.07 207 
 LSVSISZ  IAML A  1052 42.45        2.45 0.32                          4.07 207 
 LSVWISZ EPg  0A  1052 40.45                             102    0.0410 4.10 276 
 LSVWISZ ESg  0A  1052 41.30                             102   -0.0110 4.10 276 
 LSVWISZ  IAML A  1052 41.65       18.49 0.10                          4.10 276 
                                                                                
 2015  6 1 1554 51.2 L  37.300 -32.260  4.9  wcc  4 0.0-0.4Lwcc                1
 GAP=255        0.15       1.4     1.5  2.1 -0.6322E-01  0.5524E-01  0.2331E+01E
 2015  6 1 1554 51.213  37.29982  -32.26041    4.859  0.008                    H
 ACTION:UPD 19-03-08 15:46 OP:wcc  STATUS:               ID:20150601155451 L   I
 2015-06-01-1554-36M.LSFIR_020                                                 6
 STAT SP IPHASW D HRMM SECON CODA AMPLIT PERI AZIMU VELO AIN AR TRES W  DIS CAZ7
 LSVCISZ EPg  0A  155452.465                             151   -0.0110 1.98 242 
 LSVCISZ  IAML A  155453.035       28.88 0.10                          1.98 242 
 LSVNISZ EPg  0A  1554 52.34                             141   -0.0010 2.74 323 
 LSVNISZ ESg  0A  1554 53.29                             141    0.0110 2.74 323 
 LSVNISZ  IAML A  1554 53.64       29.17 0.10                          2.74 323 
 LSVSISZ EPg  0A  1554 52.74                             116    0.0110 5.70 218 
 LSVSISZ  IAML A  1554 54.16        3.67 0.16                          5.70 218 
 LSVWISZ EPg  0A  1554 52.59                             115   -0.0010 5.72 266 
 LSVWISZ ESg  1A  1554 53.73                             115   -0.00 7 5.72 266 
 LSVWISZ  IAML A  1554 54.16       24.31 0.10                          5.72 266 
                                                                                
 2015  6 1 1638 37.7 L  37.296 -32.280  1.9  wcc  4 0.1-1.4Lwcc                1
 GAP=184        0.17       0.4     0.9  0.8 -0.1050E+00  0.4628E+00 -0.5707E-01E
 2015  6 1 1638 37.693  37.29587  -32.27960    1.932  0.065                    H
 ACTION:UPD 19-03-08 15:46 OP:wcc  STATUS:               ID:20150601163837 L   I
 2015-06-01-1638-22M.LSFIR_020                                                 6
 STAT SP IPHASW D HRMM SECON CODA AMPLIT PERI AZIMU VELO AIN AR TRES W  DIS CAZ7
 LSVCISZ ESg  0A  163839.035                             162   -0.0310 0.50 185 
 LSVCISZ  IAML A  163839.135        7.35 0.10                          0.50 185 
 LSVNISZ EPg  3A  1638 38.45                             110   -0.11 2 2.62   1 
 LSVNISZ ESg  0A  1638 39.32                             110    0.0410 2.62   1 
 LSVNISZ  IAML A  1638 39.72        7.69 0.10                          2.62   1 
 LSVWISZ EPg  1A  1638 38.72                              99   -0.04 7 4.01 270 
 LSVWISZ ESg  0A  1638 39.63                              99   -0.0110 4.01 270 
 LSVWISZ  IAML A  1638 40.26        6.85 0.10                          4.01 270 
 LSVSISZ EPg  3A  1638 38.75                              98   -0.23 2 4.44 204 
 LSVSISZ ESg  0A  1638 40.10                              98    0.0510 4.44 204 
 LSVSISZ  IAML A  1638 40.35        0.96 0.13                          4.44 204 
                                                                                
 2015  6 1 1724  1.7 L  37.292 -32.278  2.3  wcc  5 0.1-0.3Lwcc                1
 GAP=115        0.22       0.5     0.7  1.2  0.7008E-01  0.1616E+00  0.1300E+00E
 2015  6 1 1724  1.665  37.29206  -32.27763    2.284  0.096                    H
 ACTION:UPD 19-03-08 15:46 OP:wcc  STATUS:               ID:20150601172401 L   I
 2015-06-01-1723-46M.LSFIR_020                                                 6
 STAT SP IPHASW D HRMM SECON CODA AMPLIT PERI AZIMU VELO AIN AR TRES W  DIS CAZ7
 LSVCISZ EPg  0A  1724 2.475                             173    0.0010 0.23 251 
 LSVCIS1 ESg  2   1724 3.073                             173   -0.07 5 0.23 251 
 LSVCISZ  IAML A  1724 3.265      134.48 0.10                          0.23 251 
 LSVNISZ EPg  0A  1724  2.61                             114   -0.0310 3.05 358 
 LSVNISZ ESg  0A  1724  3.53                             114    0.0810 3.05 358 
 LSVNISZ  IAML A  1724  3.96      130.00 0.13                          3.05 358 
 LSVEISZ EPg  0A  1724  2.72                             111   -0.0010 3.32 112 
 LSVEISZ ESg  0A  1724  3.60                             111    0.0010 3.32 112 
 LSVEISZ  IAML A  1724  3.62       32.59 0.13                          3.32 112 
 LSVSISZ EPg  0A  1724  2.80                             106   -0.1110 4.14 209 
 LSVSISZ ESg  2A  1724  4.26                             106    0.32 5 4.14 209 
 LSVSISZ  IAML A  1724  5.89        6.70 0.26                          4.14 209 
 LSVWISZ EPg  0A  1724  2.77                             105   -0.0110 4.21 276 
 LSVWISZ  IAML A  1724  4.02       54.09 0.16                          4.21 276 
                                                                                
 2015  6 1 1752 30.4 L  37.293 -32.277  2.4  wcc  5 0.0-0.1Lwcc                1
 GAP=118        0.15       0.4     0.4  1.1  0.4370E-01  0.1471E+00  0.1697E+00E
 2015  6 1 1752 30.357  37.29314  -32.27699    2.400  0.040                    H
 ACTION:UPD 19-03-08 15:46 OP:wcc  STATUS:               ID:20150601175230 L   I
 2015-06-01-1752-15M.LSFIR_020                                                 6
 STAT SP IPHASW D HRMM SECON CODA AMPLIT PERI AZIMU VELO AIN AR TRES W  DIS CAZ7
 LSVCISZ EPg  0A  175231.215                             170    0.0310 0.34 235 
 LSVCIS1 ESg  3   175231.808                             170   -0.07 2 0.34 235 
 LSVCISZ  IAML A  175231.955      114.55 0.10                          0.34 235 
 LSVNISZ EPg  0A  1752 31.24                             116   -0.0810 2.93 357 
 LSVNISZ ESg  0A  1752 32.15                             116    0.0310 2.93 357 
 LSVNISZ  IAML A  1752 32.63      169.10 0.13                          2.93 357 
 LSVEISZ EPg  0A  175231.460                             112    0.0410 3.32 115 
 LSVEISZ ESg  1   175232.283                             112   -0.02 7 3.32 115 
 LSVEISZ  IAML A  175232.480        55.2 0.16                          3.32 115 
 LSVWISZ EPg  0A  1752 31.51                             104    0.0210 4.25 274 
 LSVWISZ ESg  0A  1752 32.43                             104    0.0010 4.25 274 
 LSVWISZ  IAML A  1752 32.90       97.05 0.13                          4.25 274 
 LSVSISZ EPg  0A  1752 31.60                             104   -0.0310 4.27 208 
 LSVSISZ  IAML A  1752 33.34       13.47 0.13                          4.27 208 
                                                                                
 2015  6 5 1946 19.2 L  37.296 -32.292  2.6  wcc  4 0.1-0.7Lwcc                1
 GAP=116        0.16       0.5     0.6  1.2 -0.8262E-01  0.3683E+00 -0.1240E+00E
 2015  6 5 1946 19.210  37.29647  -32.29236    2.643  0.059                    H
 ACTION:UPD 19-03-08 15:46 OP:wcc  STATUS:               ID:20150605194619 L   I
 2015-06-05-1946-04M.LSFIR_020                                                 6
 STAT SP IPHASW D HRMM SECON CODA AMPLIT PERI AZIMU VELO AIN AR TRES W  DIS CAZ7
 LSVCISZ EPg  0A  194620.166                             150    0.0210 1.22 117 
 LSVCISZ ESg  0A  194620.916                             150   -0.0110 1.22 117 
 LSVNISZ EPg  2A  1946 20.01                             121   -0.16 5 2.82  25 
 LSVNISZ ESg  0A  1946 20.99                             121    0.0210 2.82  25 
 LSVNISZ  IAML A  1946 21.37       15.85 0.13                          2.82  25 
 LSVWISZ EPg  1A  1946 20.19                             119    0.08 7 2.88 269 
 LSVWISZ ESg  0A  1946 20.82                             119   -0.0310 2.88 269 
 LSVWISZ  IAML A  1946 21.14       26.52 0.13                          2.88 269 
 LSVSISZ EPg  3A  194620.510                             107    0.03 2 4.18 189 
 LSVSISZ ESg  2A  194621.500                             107   -0.03 5 4.18 189 
                                                                                
 2015  6 9 0503 39.0 L  37.301 -32.274  2.6  wcc  4 0.0-1.4Lwcc                1
 GAP=218        0.15       0.8     1.4  2.6  0.3625E+00  0.2563E+01  0.1432E+01E
 2015  6 9 0503 38.975  37.30132  -32.27414    2.609  0.030                    H
 ACTION:UPD 19-03-08 15:46 OP:wcc  STATUS:               ID:20150609050339 L   I
 2015-06-09-0503-24M.LSFIR_020                                                 6
 STAT SP IPHASW D HRMM SECON CODA AMPLIT PERI AZIMU VELO AIN AR TRES W  DIS CAZ7
 LSVCISZ EPg  0A  050339.900                             149   -0.0110 1.22 206 
 LSVCISZ  IAML A  050340.540        3.63 0.10                          1.22 206 
 LSVNISZ EPg  2A   5 3 39.77                             132   -0.05 5 2.06 348 
 LSVNISZ ESg  0A   5 3 40.53                             132    0.0110 2.06 348 
 LSVNISZ  IAML A   5 3 43.16        6.73 0.22                          2.06 348 
 LSVWISZ EPg  2A   5 3 40.21                             104    0.04 5 4.53 263 
 LSVWISZ ESg  1A   5 3 41.14                             104   -0.01 7 4.53 263 
 LSVWISZ  IAML A   5 3 41.35        5.15 0.06                          4.53 263 
 LSVSISZ ESg  3A   5 3 41.70                             100    0.06 2 5.19 206 
 LSVSISZ  IAML A   5 3 41.76        0.86 0.13                          5.19 206 
                                                                                
 2015  610 1214 27.0 L  37.292 -32.271  4.2  wcc  5 0.1-0.8Lwcc                1
 GAP=130        0.17       0.6     1.0  2.0  0.1008E+00  0.1094E+01  0.2583E+00E
 2015  610 1214 27.011  37.29231  -32.27112    4.239  0.055                    H
 ACTION:UPD 19-03-08 15:46 OP:wcc  STATUS:               ID:20150610121427 L   I
 2015-06-10-1214-12M.LSFIR_020                                                 6
 STAT SP IPHASW D HRMM SECON CODA AMPLIT PERI AZIMU VELO AIN AR TRES W  DIS CAZ7
 LSVCISZ EPg  0A  121428.147                             165    0.0110 0.80 263 
 LSVCISZ  IAML A  121428.627       15.83 0.10                          0.80 263 
 LSVEISZ EPg  0A  1214 28.15                             133    0.0410 2.81 117 
 LSVEISZ ESg  0A  1214 29.02                             133   -0.0110 2.81 117 
 LSVEISZ  IAML A  1214 29.18        8.07 0.19                          2.81 117 
 LSVNISZ EPg  1A  1214 27.97                             129   -0.15 7 3.10 347 
 LSVNISZ ESg  0A  1214 29.06                             129    0.0310 3.10 347 
 LSVNISZ  IAML A  1214 29.30       21.70 0.13                          3.10 347 
 LSVSISZ EPg  3A  1214 28.35                             115    0.01 2 4.46 215 
 LSVSISZ ESg  0A  1214 29.41                             115   -0.0310 4.46 215 
 LSVSISZ  IAML A  1214 31.78        1.20 0.19                          4.46 215 
 LSVWISZ EPg  0A  1214 28.28                             113    0.0410 4.78 275 
 LSVWISZ  IAML A  1214 30.00       13.79 0.13                          4.78 275 
                                                                                
 2015  612 0525 32.4 L  37.293 -32.286  2.1  wcc  4 0.0-1.5Lwcc                1
 GAP=195        0.15       0.6     1.2  2.3  0.1977E+00  0.1961E+01  0.5781E+00E
 2015  612 0525 32.423  37.29314  -32.28564    2.100  0.021                    H
 ACTION:UPD 19-03-08 15:46 OP:wcc  STATUS:               ID:20150612052532 L   I
 2015-06-12-0525-18M.LSFIR_020                                                 6
 STAT SP IPHASW D HRMM SECON CODA AMPLIT PERI AZIMU VELO AIN AR TRES W  DIS CAZ7
 LSVCISZ EPg  0A  052533.204                             163   -0.0010 0.53 111 
 LSVCISZ  IAML A  052537.944        4.95 0.45                          0.53 111 
 LSVWISZ EPg  1A   525 33.41                             106    0.02 7 3.49 275 
 LSVWISZ ESg  2A   525 34.18                             106   -0.02 5 3.49 275 
 LSVWISZ  IAML A   525 34.53        8.05 0.19                          3.49 275 
 LSVSISZ EPg  3A   525 33.55                             103   -0.07 2 3.96 199 
 LSVSISZ ESg  0A   525 34.62                             103    0.0010 3.96 199 
 LSVSISZ  IAML A   525 35.09        1.01 0.10                          3.96 199 
 LSVEISZ EPg  3A   52533.610                             103    0.00 2 4.03 110 
                                                                                
 2015  613 0355 53.7 L  37.292 -32.278  2.1  wcc  5 0.0-0.7Lwcc                1
 GAP=114        0.16       0.7     0.5  1.3  0.1082E+00  0.1819E+00  0.3141E+00E
 2015  613 0355 53.736  37.29193  -32.27800    2.147  0.035                    H
 ACTION:UPD 19-03-08 15:46 OP:wcc  STATUS:               ID:20150613035553 L   I
 2015-06-13-0355-35M.LSFIR_020                                                 6
 STAT SP IPHASW D HRMM SECON CODA AMPLIT PERI AZIMU VELO AIN AR TRES W  DIS CAZ7
 LSVCISZ EPg  0A  035554.532                             174    0.0210 0.20 252 
 LSVCISZ  IAML A  035555.332       41.80 0.06                          0.20 252 
 LSVNISZ EPg  3A   355 54.69                             111   -0.01 2 3.06 358 
 LSVNISZ ESg  2A   355 55.50                             111   -0.01 5 3.06 358 
 LSVNISZ  IAML A   355 56.38       65.19 0.10                          3.06 358 
 LSVEISZ EPg  0A   355 54.76                             108   -0.0310 3.34 112 
 LSVEISZ  IAML A   355 56.09        3.76 0.06                          3.34 112 
 LSVSISZ EPg  0A   355 54.97                             103    0.0010 4.11 208 
 LSVSISZ  IAML A   355 56.41        3.69 0.16                          4.11 208 
 LSVWISZ EPg  0A   355 54.90                             102    0.0610 4.17 276 
 LSVWISZ ESg  0A   355 55.71                             102   -0.0510 4.17 276 
 LSVWISZ  IAML A   355 56.10       41.59 0.06                          4.17 276 
                                                                                
