 2015  613 1548 47.7 L  37.285 -32.285  2.3  wcc  5 0.0-0.9Lwcc                1
 GAP=107        0.14       0.4     0.5  1.4  0.4404E-01  0.1323E+00  0.1131E+00E
 2015  613 1548 47.682  37.28547  -32.28458    2.339  0.019                    H
 ACTION:UPD 19-03-08 15:46 OP:wcc  STATUS:               ID:20150613154847 L   I
 2015-06-13-1548-32M.LSFIR_020                                                 6
 STAT SP IPHASW D HRMM SECON CODA AMPLIT PERI AZIMU VELO AIN AR TRES W  DIS CAZ7
 LSVCISZ EPg  0A  154848.531                             158    0.0010 0.77  31 
 LSVCISZ  IAML A  154849.151       67.52 0.10                          0.77  31 
 LSVSISZ EPg  1A  1548 48.75                             112   -0.00 7 3.21 205 
 LSVSISZ  IAML A  1548 50.25        1.69 0.13                          3.21 205 
 LSVEISZ EPg  0A  1548 48.85                             107    0.0310 3.73  98 
 LSVEISZ ESg  0A  1548 49.73                             107   -0.0310 3.73  98 
 LSVEISZ  IAML A  1548 50.10        4.47 0.10                          3.73  98 
 LSVWISZ EPg  0A  1548 48.70                             106   -0.0110 3.75 288 
 LSVWISZ  IAML A  1548 51.13       12.35 0.10                          3.75 288 
 LSVNISZ EPg  2A  1548 48.81                             106    0.01 5 3.81   7 
 LSVNISZ ESg  0A  1548 49.73                             106    0.0010 3.81   7 
 LSVNISZ  IAML A  1548 50.19       31.05 0.10                          3.81   7 
                                                                                
 2015  616 1832 28.2 L  37.277 -32.283  1.1  wcc  4 0.1-0.8Lwcc                1
 GAP=135        0.20       0.9     0.6  2.7  0.3935E-01  0.2406E+00  0.1852E+01E
 2015  616 1832 28.226  37.27687  -32.28268    1.092  0.082                    H
 ACTION:UPD 19-03-08 15:46 OP:wcc  STATUS:               ID:20150616183228 L   I
 2015-06-16-1832-10M.LSFIR_020                                                 6
 STAT SP IPHASW D HRMM SECON CODA AMPLIT PERI AZIMU VELO AIN AR TRES W  DIS CAZ7
 LSVCISZ ESg  0A  183229.744                             116    0.0110 1.63   8 
 LSVCISZ  IAML A  183229.794       12.06 0.13                          1.63   8 
 LSVSISZ EPg  1A  1832 29.19                             102    0.04 7 2.48 218 
 LSVSISZ  IAML A  1832 31.45       19.62 0.13                          2.48 218 
 LSVEISZ ESg  1A  1832 30.36                              97   -0.01 7 3.54  83 
 LSVEISZ  IAML A  1832 30.69       10.28 0.10                          3.54  83 
 LSVWISZ EPg  2A  1832 29.30                              95   -0.19 5 4.30 300 
 LSVWISZ ESg  2A  1832 30.63                              95    0.09 5 4.30 300 
 LSVWISZ  IAML A  1832 31.15       73.06 0.13                          4.30 300 
                                                                                
 2015  619 1604 32.6 L  37.294 -32.281  1.8  wcc  4 0.0-1.2Lwcc                1
 GAP=154        0.16       0.3     0.8  0.7 -0.7727E-01  0.3378E+00 -0.3903E-01E
 2015  619 1604 32.614  37.29412  -32.28143    1.801  0.047                    H
 ACTION:UPD 19-03-08 15:46 OP:wcc  STATUS:               ID:20150619160432 L   I
 2015-06-19-1604-14M.LSFIR_020                                                 6
 STAT SP IPHASW D HRMM SECON CODA AMPLIT PERI AZIMU VELO AIN AR TRES W  DIS CAZ7
 LSVCISZ ESg  0A  160433.938                             168   -0.0210 0.32 159 
 LSVCISZ  IAML A  160434.048       10.89 0.10                          0.32 159 
 LSVNISZ EPg  3A  16 4 33.39                             107   -0.13 2 2.83   4 
 LSVNISZ ESg  0A  16 4 34.29                             107    0.0210 2.83   4 
 LSVNISZ  IAML A  16 4 34.74       18.13 0.13                          2.83   4 
 LSVWISZ EPg  1A  16 4 33.67                              99    0.02 7 3.85 273 
 LSVWISZ ESg  0A  16 4 34.49                              99   -0.0110 3.85 273 
 LSVWISZ  IAML A  16 4 34.82       17.43 0.10                          3.85 273 
 LSVSISZ EPg  2A  16 4 33.75                              98   -0.10 5 4.20 203 
 LSVSISZ ESg  0A  16 4 34.92                              98    0.0410 4.20 203 
 LSVSISZ  IAML A  16 4 36.26        0.70 0.29                          4.20 203 
                                                                                
 2015  621 2340  6.6 L  37.295 -32.276  3.4  wcc  4 0.0-1.4Lwcc                1
 GAP=208        0.14       0.7     0.6  1.7  0.1490E+00  0.4938E+00  0.3180E+00E
 2015  621 2340  6.618  37.29514  -32.27586    3.355  0.017                    H
 ACTION:UPD 19-03-08 15:46 OP:wcc  STATUS:               ID:20150621234006 L   I
 2015-06-21-2339-51M.LSFIR_020                                                 6
 STAT SP IPHASW D HRMM SECON CODA AMPLIT PERI AZIMU VELO AIN AR TRES W  DIS CAZ7
 LSVCISZ EPg  0A  2340 7.624                             166    0.0110 0.56 222 
 LSVCISZ  IAML A  2340 8.264        8.54 0.10                          0.56 222 
 LSVEISZ EPg  1A  2340  7.74                             111    0.02 7 3.33 119 
 LSVEISZ ESg  0A  2340  8.62                             111   -0.0210 3.33 119 
 LSVEISZ  IAML A  2340  8.62        2.98 0.13                          3.33 119 
 LSVWISZ EPg  0A  2340 7.770                             101    0.0110 4.34 271 
 LSVWISZ ESg  0A  2340 8.680                             101   -0.0210 4.34 271 
 LSVSISZ EPg  2A  2340  7.89                             100   -0.03 5 4.51 208 
 LSVSISZ ESg  0A  2340  9.01                             100    0.0110 4.51 208 
 LSVSISZ  IAML A  2340  9.73        1.10 0.13                          4.51 208 
                                                                                
 2015  622 0218 14.3 L  37.290 -32.277  2.9  wcc  5 0.1-0.3Lwcc                1
 GAP=112        0.19       0.6     0.9  2.1  0.2011E+00  0.1226E+01  0.4392E+00E
 2015  622 0218 14.342  37.28977  -32.27690    2.897  0.113                    H
 ACTION:UPD 19-03-08 15:46 OP:wcc  STATUS:               ID:20150622021814 L   I
 2015-06-22-0217-59M.LSFIR_020                                                 6
 STAT SP IPHASW D HRMM SECON CODA AMPLIT PERI AZIMU VELO AIN AR TRES W  DIS CAZ7
 LSVCISZ EPg  0A  021815.254                             172   -0.0110 0.34 303 
 LSVCISZ  IAML A  021815.984       70.45 0.06                          0.34 303 
 LSVEISZ EPg  3    21814.852                             117   -0.56 2 3.17 108 
 LSVEISZ ESg  0A   21816.330                             117    0.0310 3.17 108 
 LSVEISZ  IAML A   21816.380        27.7 0.13                          3.17 108 
 LSVNISZ EPg  0A   218 15.39                             115   -0.0110 3.31 357 
 LSVNISZ ESg  0A   218 16.30                             115    0.0110 3.31 357 
 LSVNISZ  IAML A   218 16.62       54.29 0.13                          3.31 357 
 LSVSISZ EPg  0A   218 15.58                             108    0.0110 3.95 211 
 LSVSISZ  IAML A   218 17.47        9.11 0.19                          3.95 211 
 LSVWISZ EPg  0A   218 15.51                             105    0.0110 4.30 279 
 LSVWISZ  IAML A   218 17.27       64.97 0.10                          4.30 279 
                                                                                
 2015  622 0511 51.5 L  37.280 -32.275  3.8  wcc  4 0.1-1.3Lwcc                1
 GAP=135        0.17       1.1     0.8  2.9 -0.3227E+00  0.1502E+01 -0.1821E+01E
 2015  622 0511 51.495  37.28006  -32.27505    3.827  0.051                    H
 ACTION:UPD 19-03-08 15:46 OP:wcc  STATUS:               ID:20150622051151 L   I
 2015-06-22-0511-37M.LSFIR_020                                                 6
 STAT SP IPHASW D HRMM SECON CODA AMPLIT PERI AZIMU VELO AIN AR TRES W  DIS CAZ7
 LSVCISZ EPg  0A  051152.673                             152    0.0810 1.34 340 
 LSVCISZ  IAML A  051153.093       11.77 0.06                          1.34 340 
 LSVEISZ EPg  1A   511 52.60                             125    0.03 7 2.84  89 
 LSVEISZ ESg  0A   511 53.40                             125   -0.0610 2.84  89 
 LSVEISZ  IAML A   511 53.80        2.34 0.13                          2.84  89 
 LSVSISZ EPg  3A   511 52.74                             120    0.10 2 3.19 224 
 LSVSISZ ESg  0A   511 53.58                             120   -0.0110 3.19 224 
 LSVSISZ  IAML A   511 58.99        1.04 0.38                          3.19 224 
 LSVWISZ EPg  1A   511 52.68                             104   -0.02 7 4.75 292 
 LSVWISZ ESg  0A   511 53.66                             104   -0.0410 4.75 292 
 LSVWISZ  IAML A   511 53.82        4.22 0.10                          4.75 292 
                                                                                
 2015  622 1730 11.2 L  37.295 -32.277  3.3  wcc  4 0.1-0.8Lwcc                1
 GAP=211        0.19       0.6     1.3  2.4  0.2364E-01  0.1513E+01  0.8022E+00E
 2015  622 1730 11.189  37.29475  -32.27697    3.300  0.066                    H
 ACTION:UPD 19-03-08 15:46 OP:wcc  STATUS:               ID:20150622173011 L   I
 2015-06-22-1729-56M.LSFIR_020                                                 6
 STAT SP IPHASW D HRMM SECON CODA AMPLIT PERI AZIMU VELO AIN AR TRES W  DIS CAZ7
 LSVCISZ EPg  0A  173012.162                             169   -0.0110 0.46 217 
 LSVCISZ  IAML A  173012.842       12.19 0.13                          0.46 217 
 LSVNISZ EPg  1A  1730 12.14                             120   -0.04 7 2.75 356 
 LSVNISZ ESg  0A  1730 13.04                             120    0.0310 2.75 356 
 LSVNISZ  IAML A  1730 13.37       25.45 0.10                          2.75 356 
 LSVWISZ EPg  2A  1730 12.50                             102    0.19 5 4.24 272 
 LSVWISZ ESg  0A  1730 13.21                             102   -0.0310 4.24 272 
 LSVWISZ  IAML A  1730 14.01       13.90 0.13                          4.24 272 
 LSVSISZ EPg  0A  1730 12.42                             101   -0.0610 4.43 207 
 LSVSISZ ESg  0A  1730 13.60                             101    0.0510 4.43 207 
 LSVSISZ  IAML A  1730 13.70        2.89 0.16                          4.43 207 
                                                                                
 2015  622 2054 25.7 L  37.284 -32.299  1.0  wcc  4 0.0-1.2Lwcc                1
 GAP=120        0.15       0.3     0.6  2.1 -0.6006E-01  0.7330E+00 -0.6444E-01E
 2015  622 2054 25.709  37.28413  -32.29943    1.016  0.013                    H
 ACTION:UPD 19-03-08 15:46 OP:wcc  STATUS:               ID:20150622205425 L   I
 2015-06-22-2054-08M.LSFIR_020                                                 6
 STAT SP IPHASW D HRMM SECON CODA AMPLIT PERI AZIMU VELO AIN AR TRES W  DIS CAZ7
 LSVCISZ ESg  0A  205427.322                             107   -0.0010 1.89  65 
 LSVCISZ  IAML A  205441.772        4.77 0.32                          1.89  65 
 LSVWISZ EPg  3A  2054 26.49                              98   -0.04 2 2.61 300 
 LSVWISZ ESg  2A  2054 27.21                              98    0.00 5 2.61 300 
 LSVWISZ  IAML A  2054 28.66       21.96 0.13                          2.61 300 
 LSVSISZ EPg  0A  2054 26.70                              98    0.0010 2.76 181 
 LSVSISZ  IAML A  2054 27.06       12.77 0.10                          2.76 181 
 LSVNISZ EPg  3A  2054 27.08                              94    0.03 2 4.32  25 
 LSVNISZ ESg  0A  2054 28.16                              94    0.0010 4.32  25 
 LSVNISZ  IAML A  2054 32.14        3.29 0.26                          4.32  25 
                                                                                
 2015  624 1750 11.3 L  37.287 -32.284  3.3  wcc  4 0.1-0.2Lwcc                1
 GAP=167        0.16       0.6     1.0  2.4 -0.1577E+00  0.8214E+00 -0.4547E+00E
 2015  624 1750 11.260  37.28741  -32.28388    3.263  0.064                    H
 ACTION:UPD 19-03-08 15:46 OP:wcc  STATUS:               ID:20150624175011 L   I
 2015-06-24-1749-52M.LSFIR_020                                                 6
 STAT SP IPHASW D HRMM SECON CODA AMPLIT PERI AZIMU VELO AIN AR TRES W  DIS CAZ7
 LSVCISZ EPg  0A  175012.258                             166    0.0210 0.56  37 
 LSVCISZ  IAML A  175032.388      171.62 0.45                          0.56  37 
 LSVSISZ EPg  3A  1750 12.64                             108    0.24 2 3.43 205 
 LSVSISZ ESg  0A  1750 13.32                             108   -0.0310 3.43 205 
 LSVSISZ  IAML A  1750 13.71       14.63 0.10                          3.43 205 
 LSVNISZ EPg  0A  1750 12.36                             107   -0.0110 3.59   7 
 LSVNISZ  IAML A  1750 14.41       46.69 0.22                          3.59   7 
 LSVWISZ EPg  3A  1750 12.21                             104   -0.10 2 3.75 285 
 LSVWISZ ESg  0A  1750 13.20                             104    0.0210 3.75 285 
 LSVWISZ  IAML A  1750 14.21       50.53 0.10                          3.75 285 
                                                                                
 2015  625 1009 44.3 L  37.282 -32.283  1.6  wcc  4 0.0-1.5Lwcc                1
 GAP=119        0.17       1.1     0.5  2.5  0.4217E-01  0.1394E+00  0.1489E+01E
 2015  625 1009 44.312  37.28172  -32.28310    1.647  0.000                    H
 ACTION:UPD 19-03-08 15:46 OP:wcc  STATUS:               ID:20150625100944 L   I
 2015-06-25-1009-29M.LSFIR_020                                                 6
 STAT SP IPHASW D HRMM SECON CODA AMPLIT PERI AZIMU VELO AIN AR TRES W  DIS CAZ7
 LSVCISZ EPg  1A  100945.077                             137   -0.00 7 1.11  14 
 LSVCISZ  IAML A  1010 5.877        5.28 0.48                          1.11  14 
 LSVSISZ EPg  1A  10 9 45.29                             101    0.00 7 2.90 211 
 LSVSISZ  IAML A  10 9 45.84        1.90 0.13                          2.90 211 
 LSVEISZ ESg  0A  10 9 46.30                              97   -0.0010 3.56  92 
 LSVEISZ  IAML A  10 9 46.80        1.92 0.22                          3.56  92 
 LSVWISZ EPg  1A  10 9 45.39                              96    0.00 7 4.02 293 
 LSVWISZ  IAML A  10 9 46.12        9.91 0.16                          4.02 293 
                                                                                
 2015  627 1020 20.7 L  37.295 -32.273  1.7  wcc  4 0.3-1.3Lwcc                1
 GAP=132        0.62       1.7     2.4  2.9  0.1040E+01 -0.2601E+01 -0.2298E+01E
 2015  627 1020 20.700  37.29523  -32.27302    1.721  0.252                    H
 ACTION:UPD 19-03-08 15:46 OP:wcc  STATUS:               ID:20150627102020 L   I
 2015-06-27-1020-04M.LSFIR_020                                                 6
 STAT SP IPHASW D HRMM SECON CODA AMPLIT PERI AZIMU VELO AIN AR TRES W  DIS CAZ7
 LSVCISZ ESg  0A  102022.043                             149    0.0010 0.76 236 
 LSVCISZ  IAML A  102041.113        5.24 0.45                          0.76 236 
 LSVNISZ ESg  0A  1020 22.03                             100   -0.2810 2.75 349 
 LSVNISZ EPg  0A  1020 22.03                             100    0.4510 2.75 349 
 LSVNISZ  IAML A  1020 22.77        7.46 0.10                          2.75 349 
 LSVEISZ EPg  0A  1020 21.56                              97   -0.1310 3.11 121 
 LSVEISZ  IAML A  1020 22.51        2.54 0.16                          3.11 121 
 LSVWISZ ESg  1A  1020 22.79                              93   -0.07 7 4.59 271 
 LSVWISZ  IAML A  1020 24.37       10.02 0.13                          4.59 271 
                                                                                
 2015  629 1405 32.4 L  37.291 -32.275  3.1  wcc  5 0.0-1.3Lwcc                1
 GAP=119        0.14       0.5     0.6  1.5  0.6662E-02  0.3806E+00  0.5800E-01E
 2015  629 1405 32.409  37.29109  -32.27481    3.070  0.041                    H
 ACTION:UPD 19-03-08 15:46 OP:wcc  STATUS:               ID:20150629140532 L   I
 2015-06-29-1405-00M.LSFIR_020                                                 6
 STAT SP IPHASW D HRMM SECON CODA AMPLIT PERI AZIMU VELO AIN AR TRES W  DIS CAZ7
 LSVCISZ EPg  0A  140533.368                             168    0.0110 0.47 274 
 LSVCISZ  IAML A  140533.928        7.39 0.06                          0.47 274 
 LSVEISZ EPg  1A  14 5 33.48                             112    0.02 7 3.05 112 
 LSVEISZ ESg  0A  14 5 34.35                             112    0.0110 3.05 112 
 LSVEISZ  IAML A  14 5 34.76        2.95 0.10                          3.05 112 
 LSVNISZ EPg  1   14 533.411                             110   -0.04 7 3.17 353 
 LSVSISZ EPg  2A  14 5 33.64                             100   -0.02 5 4.17 212 
 LSVSISZ ESg  0A  14 5 34.68                             100   -0.0210 4.17 212 
 LSVSISZ  IAML A  14 5 35.14        1.17 0.10                          4.17 212 
 LSVWISZ EPg  0A  14 5 33.58                              99    0.0110 4.47 277 
 LSVWISZ ESg  3A  14 5 34.71                              99    0.18 2 4.47 277 
 LSVWISZ  IAML A  14 5 34.78        6.85 0.06                          4.47 277 
                                                                                
 2015  630 1221 19.7 L  37.296 -32.273  3.5  wcc  4 0.0-1.2Lwcc                1
 GAP=135        0.14       0.6     0.7  2.1  0.1290E+00  0.4855E+00  0.9367E+00E
 2015  630 1221 19.665  37.29593  -32.27255    3.543  0.009                    H
 ACTION:UPD 19-03-08 15:46 OP:wcc  STATUS:               ID:20150630122119 L   I
 2015-06-30-1221-03M.LSFIR_020                                                 6
 STAT SP IPHASW D HRMM SECON CODA AMPLIT PERI AZIMU VELO AIN AR TRES W  DIS CAZ7
 LSVCISZ EPg  0A  122120.706                             160    0.0110 0.84 233 
 LSVCISZ  IAML A  122121.286        9.33 0.06                          0.84 233 
 LSVNISZ EPg  2A  1221 20.65                             122   -0.02 5 2.68 348 
 LSVNISZ ESg  0A  1221 21.50                             122    0.0010 2.68 348 
 LSVNISZ  IAML A  1221 23.92       10.23 0.22                          2.68 348 
 LSVEISZ EPg  0A  1221 20.75                             115   -0.0010 3.12 123 
 LSVEISZ ESg  0A  1221 21.65                             115   -0.0010 3.12 123 
 LSVEISZ  IAML A  1221 22.03        3.96 0.10                          3.12 123 
 LSVSISZ EPg  3A  1221 21.03                              97    0.03 2 4.73 211 
 LSVSISZ ESg  0A  1221 22.10                              97   -0.0110 4.73 211 
 LSVSISZ  IAML A  1221 22.53        1.04 0.13                          4.73 211 
                                                                                
