UH1    ?    ?    ? P      ? 20100527 1656 26.1300 GAU  2.00e-02 -1.00e+00 -1.00e+00 -1.00e+00
UH1    ?    ?    ? S      ? 20100527 1656 27.4600 GAU  3.00e-02 -1.00e+00 -1.00e+00 -1.00e+00
UH2    ?    ?    ? P      ? 20100527 1656 26.0400 GAU  3.00e-02 -1.00e+00 -1.00e+00 -1.00e+00
UH2    ?    ?    ? S      ? 20100527 1656 27.2700 GAU  6.00e-02 -1.00e+00 -1.00e+00 -1.00e+00
UH3    ?    ?    ? P      ? 20100527 1656 25.9300 GAU  2.00e-02 -1.00e+00 -1.00e+00 -1.00e+00
UH3    ?    ?    ? S      ? 20100527 1656 27.1000 GAU  6.00e-02 -1.00e+00 -1.00e+00 -1.00e+00
UH4    ?    ?    ? P      ? 20100527 1656 26.9250 GAU  6.00e-02 -1.00e+00 -1.00e+00 -1.00e+00
UH4    ?    ?    ? S      ? 20100527 1656 28.9000 GAU  1.10e-01 -1.00e+00 -1.00e+00 -1.00e+00
