Origin Time       1996/08/11 03:12:00
Lat.              38.920
Long.             140.630
Depth. (km)       7
Mag.              5.9
Station Code      AKT013
Station Lat.      39.6069
Station Long.     140.3213
Station Height(m) 34
Record Time       1996/08/11 03:12:39
Sampling Freq(Hz) 100Hz
Duration Time(s)  59
Dir.              E-W
Scale Factor      2000(gal)/8388608
Max. Acc. (gal)   4.383
Last Correction   1996/08/11 03:00:00
Memo.             A dummy comment
[...]
  -17995   -18026   -17973   -18004   -18021   -17974   -17961   -17980 
  -18075   -18061   -17999   -17845   -17928   -18091   -18074   -18052 
  -18022   -17937   -17995   -17991   -18076   -18074   -18019   -17952 
  -17947   -18041   -18115   -18115   -18043   -17925   -17899   -17920 
  -18041   -18128   -18141   -17923   -17836   -17908   -18068   -18215 
  -18099   -17900   -17922   -18052   -18134   -18041   -17993   -17996 
  -18028   -18088   -18069   -18002   -18003   -18038   -18080   -17961 
  -18034   -18069   -18056   -17975   -18015   -17998   -18051   -18044 
  -17983   -17982   -18040   -18099   -18016   -17923   -17992   -18167 
  -18085   -17991   -17848   -17969   -18160   -18104   -17911   -17891 
  -18089   -18143   -17973   -17859   -17963   -18137   -18127   -17932 
  -17877   -17994   -18125   -18115   -17980   -17919   -17954   -18060 
  -18056   -17973   -17994   -17976   -17949   -17948   -17971   -18056 
  -18034   -17938   -17914   -17959   -18076   -18081   -17973   -17874 
  -17921   -17993   -17994   -17985   -18010   -18027   -17941   -17847 
  -17986   -18173   -18082   -17978   -17950   -18026   -18104   -18025 
  -17975   -17968   -18074   -18047   -17960   -17944   -17977   -18070 
  -18018   -17831   -17828   -17962   -18045   -18082   -18030   -17908 
  -17820   -17868   -17957   -17992   -17911   -17722   -17678   -17937 
  -18158   -18045   -17929   -17829   -17928   -17990   -18075   -18157 
  -18079   -18008   -17935   -18018   -18126   -18112   -17940   -17913 
  -17940   -18185   -18216   -18110   -17769   -17652   -17924   -18313 
  -18369   -17970   -17686   -17773   -17930   -18029   -18119   -18097 
  -17828   -17562   -17390   -17659   -18294   -18517   -18108   -17806 
  -17887   -18183   -18450   -18333   -18253   -18401   -18391   -18178 
  -18183   -18598   -18814   -18338   -17469   -17243   -18318   -19303 
  -19057   -18063   -17195   -17157   -18011   -18699   -18712   -18295 
  -17737   -17350   -17804   -18774   -19032   -18095   -16634   -16524 
  -18254   -20045   -20128   -18356   -16765   -17023   -18466   -19359 
  -18647   -17426   -17176   -17716   -18769   -19715   -19617   -18420 
  -16952   -16321   -17328   -18753   -18779   -17732   -17031   -16992 
  -17522   -18300   -18532   -18127   -17607   -17533   -18049   -18587 
  -18860   -18419   -17601   -17173   -17857   -19054   -19504   -18447 
  -16728   -15853   -15798   -16330   -17333   -18399   -19174   -19409 
  -18844   -18053   -17535   -17270   -17260   -17201   -17168   -17550 
  -18274   -18800   -18286   -16595   -16288   -18133   -19511   -18983 
  -17469   -16100   -16293   -17670   -18248   -18294   -19109   -19893 
  -19327   -18074   -17038   -16492   -16717   -16724   -17263   -19019 
  -19975   -18659   -17113   -16940   -18329   -20391   -21567   -21214 
  -19243   -16963   -16092   -17089   -18625   -19693   -19851   -18797 
  -17121   -16903   -18307   -19514   -18987   -17215   -16379   -16418 
  -16474   -17416   -18751   -18932   -18458   -18958   -19656   -18830 
  -16850   -14945   -14894   -17613   -20460   -21066   -20305   -19309 
  -18698   -17806   -17304   -18408   -19372   -17906   -15250   -14158 
  -15764   -18481   -20345   -19915   -18071   -16789   -16212   -15279 
  -14618   -15308   -18063   -20686   -20459   -18646   -17047   -16376 
  -16754   -17164   -16953   -16177   -16543   -17973   -18673   -17993 
  -16577   -15822   -16474   -16906   -16655   -15892   -14292   -13717 
  -15909   -19127   -21344   -22533   -22319   -20316   -17428   -14901 
  -14047   -14861   -16264   -18143   -19378   -19063   -18214   -17378 
  -16802   -17661   -19821   -20220   -18443   -17222   -17773   -18995 
  -19345   -18392   -17736   -18751   -19870   -18105   -13425   -10304 
  -12333   -17193   -20778   -22170   -23138   -24102   -23850   -21709 
  -19179   -18042   -18580   -19097   -17797   -15098   -14642   -17849 
  -21443   -22556   -21343   -18878   -16307   -15180   -15938   -17073 
  -17641   -18882   -21199   -23195   -23165   -20559   -16399   -13531 
  -14303   -18309   -21407   -20080   -16515   -15288   -18835   -23335 
  -23173   -18767   -15080   -16221   -20834   -23875   -22598   -18770 
  -15752   -15357   -17867   -21041   -21375   -18733   -16596   -17004 
  -19161   -20743   -20429   -18285   -14951   -12975   -13918   -16548 
  -18376   -18240   -18123   -19941   -21713   -20740   -18340   -16670 
  -14254   -11457   -12428   -17893   -23980   -25930   -22304   -16916 
  -14152   -14230   -15207   -15390   -15778   -18566   -22702   -24322 
  -20721   -14995   -12199   -14148   -18718   -21487   -20379   -17516 
  -15103   -14942   -16945   -19208   -21076   -20467   -16516   -13146 
  -14242   -17836   -20083   -19706   -17650   -17061   -19500   -22180 
  -21618   -18120   -16131   -18434   -20944   -18757   -13526   -10821 
  -12821   -16778   -19815   -20319   -18291   -16542   -17039   -18418 
  -18282   -15826   -13434   -14363   -19184   -24228   -24356   -19610 
  -15856   -16575   -19093   -19590   -18995   -19668   -19928   -17753 
  -15206   -14889   -15020   -14167   -14489   -16473   -18098   -18566 
  -18218   -17613   -16992   -17515   -18456   -16870   -13846   -14586 
  -21288   -27645   -26307   -19153   -14075   -13731   -15551   -16587 
  -17086   -18722   -20262   -20050   -19287   -19419   -19706   -19309 
  -17974   -15601   -14429   -17050   -20652   -21272   -19021   -15758 
  -12866   -11545   -12844   -15284   -15841   -13893   -12496   -15899 
  -22724   -26143   -21901   -13451    -8981   -13197   -21518   -25949 
  -23874   -18441   -15273   -16485   -19625   -21635   -21447   -19684 
  -18445   -18735   -20113   -22044   -22681   -20297   -18716   -22526 
  -28347   -29878   -25513   -18889   -16305   -19524   -22247   -19288 
  -13461   -11289   -13588   -16440   -17750   -18125   -18140   -16033 
  -11399    -8371   -11245   -18446   -24198   -24557   -21790   -20287 
  -20913   -21596   -20208   -17812   -16794   -18194   -20678   -21192 
  -19436   -17653   -16963   -17324   -18584   -19617   -19605   -18321 
  -16291   -14374   -14635   -18675   -23356   -23704   -20507   -17942 
  -17892   -19346   -19231   -15908   -12080   -11847   -15716   -18368 
  -16279   -12261   -11395   -14889   -19470   -21285   -19908   -17732 
  -16790   -17317   -16955   -15168   -13572   -13336   -14636   -17064 
  -18638   -17825   -15119   -13186   -15556   -22605   -30187   -32208 
  -27126   -20604   -18810   -21348   -22810   -20907   -17361   -15363 
  -15830   -15773   -13987   -12285   -12276   -14612   -17937   -20724 
  -21890   -20900   -18550   -16231   -16021   -17561   -17320   -13464 
   -8395    -8183   -15418   -24381   -27027   -22054   -15637   -14033 
  -17319   -20487   -20159   -17701   -15952   -15095   -14983   -16236 
  -17252   -16077   -14018   -13804   -15516   -17448   -18635   -18636 
  -17625   -18004   -19960   -20677   -19078   -16915   -15677   -16628 
  -19124   -21158   -22279   -22812   -20535   -16240   -14672   -17213 
  -19907   -19736   -17440   -16150   -17598   -19639   -18826   -15256 
  -13168   -15050   -18729   -19739   -16814   -13583   -12854   -14348 
  -16664   -17908   -17076   -14972   -14067   -15785   -19074   -21594 
  -22332   -21649   -20361   -19961   -21542   -22223   -18941   -13817 
  -11687   -14369   -18933   -21373   -19544   -14796   -11889   -14691 
  -21616   -25973   -22923   -15587   -11742   -16218   -25128   -29235 
  -25300   -17820   -13352   -15347   -21166   -24400   -21060   -14621 
  -11128   -13288   -18793   -22930   -22559   -19763   -18256   -18897 
  -20552   -22319   -23638   -23861   -22597   -20061   -17636   -17772 
  -19988   -20000   -16749   -14247   -15438   -18625   -19899   -18222 
  -15222   -13906   -15230   -16351   -15057   -13421   -13221   -14330 
  -16706   -19723   -21296   -19987   -17390   -16717   -18496   -20586 
  -20388   -17414   -15302   -16308   -19401   -22286   -22175   -18704 
  -15017   -14089   -15971   -18135   -17897   -14982   -12274   -12929 
  -16073   -18029   -16905   -13857   -11609   -12473   -15431   -18155 
  -20055   -21516   -21937   -21587   -21739   -22415   -22407   -21087 
  -19869   -20234   -21521   -20571   -16605   -13150   -14376   -19539 
  -23553   -22837   -18589   -15284   -16035   -19166   -21096   -20633 
  -18198   -14474   -12076   -13795   -18447   -21134   -18824   -13858 
  -11728   -13627   -16819   -18684   -19178   -19464   -20190   -19501 
  -16658   -15031   -17140   -20975   -23206   -22267   -18686   -15027 
  -13970   -15695   -18097   -18352   -15550   -12475   -13316   -17619 
  -20630   -19966   -17763   -17716   -20289   -21400   -19896   -19443 
  -20874   -22378   -23213   -23603   -23451   -22412   -19544   -14934 
  -11380   -12452   -17187   -20809   -19086   -14399   -11374   -11685 
  -13003   -13099   -13009   -13715   -14531   -13802   -11426   -10496 
  -13601   -18471   -20398   -17773   -14135   -12899   -14347   -17122 
  -18393   -16264   -14010   -14319   -15581   -16589   -17172   -16971 
  -17578   -20402   -23842   -25571   -25032   -22808   -20379   -19719 
  -20853   -21672   -20765   -19056   -18779   -21179   -24337   -24219 
  -19589   -15278   -15137   -17290   -18222   -17934   -18513   -19365 
  -17863   -14310   -12087   -13417   -16737   -17988   -15690   -13475 
  -15103   -19515   -22297   -20847   -17669   -17053   -20732   -25820 
  -28105   -25875   -20377   -15147   -13913   -17483   -22189   -23283 
  -20965   -18946   -19011   -19686   -19179   -17308   -14657   -12672 
  -13015   -14585   -15942   -16633   -15570   -12562   -10005   -11019 
  -14671   -17154   -16321   -14357   -14891   -18495   -21758   -21908 
  -20233   -19340   -20196   -20610   -19437   -17931   -17775   -18460 
  -18223   -16359   -15177   -17034   -20195   -21194   -19368   -16610 
  -14860   -14449   -14715   -15993   -18071   -19231   -19216   -18533 
  -17803   -17700   -17781   -17140   -15366   -14253   -16079   -19874 
  -22509   -22233   -20429   -18948   -18195   -18345   -18903   -19139 
  -19403   -18960   -17225   -15946   -17181   -20803   -23719   -23847 
  -21937   -19927   -19640   -20392   -21072   -21305   -21043   -20962 
  -20277   -17975   -15428   -14826   -16448   -18491   -19017   -17262 
  -14592   -12914   -11678   -10332   -10494   -13028   -15748   -16632 
  -15473   -14227   -14665   -16432   -17691   -17101   -16111   -16537 
  -18175   -20110   -21927   -21942   -19454   -17674   -19285   -21824 
  -21070   -17676   -15522   -16702   -19709   -21013   -18300   -14346 
  -12915   -14856   -18275   -19869   -17649   -13099    -8922    -7429 
   -9381   -13316   -16714   -17796   -16220   -14283   -14317   -15700 
  -16925   -18088   -19329   -20001   -20215   -20326   -20265   -20616 
  -21559   -22170   -21148   -18694   -16690   -15913   -16113   -17761 
  -19961   -21896   -22961   -22241   -20380   -19334   -20177   -22569 
  -24111   -22417   -18226   -15875   -17736   -20356   -20406   -18780 
  -18073   -19116   -19634   -17737   -14335   -12324   -13462   -15852 
  -17167   -17487   -17311   -16602   -15716   -15407   -16660   -18580 
  -19318   -17633   -15008   -15051   -17817   -19589   -19332   -19207 
  -19928   -19898   -18660   -17775   -18446   -18950   -17860   -16645 
  -17573   -19952   -20907   -19599   -17383   -16265   -17027   -18439 
  -19225   -19061   -18430   -18248   -18386   -18918   -19344   -18469 
  -16993   -16007   -15653   -15373   -14845   -15684   -18026   -19907 
  -20602   -20366   -19980   -19466   -18841   -18508   -18642   -18253 
  -16479   -13439   -11150   -12015   -14550   -15938   -15136   -13420 
  -13609   -16045   -18507   -18727   -16855   -15377   -15516   -16930 
  -18702   -19661   -20330   -20874   -20291   -19259   -18929   -18787 
  -17607   -16229   -16510   -19303   -22213   -22207   -19401   -16187 
  -15131   -17170   -20846   -23625   -23190   -20099   -17375   -18048 
  -22119   -25527   -24246   -18872   -14264   -14007   -17057   -20245 
  -21600   -20411   -17493   -15209   -15293   -17843   -21432   -22865 
  -20909   -18297   -18109   -20964   -24866   -27269   -26778   -23258 
  -18645   -16437   -16284   -16209   -17700   -20254   -19622   -15588 
  -12140   -10627   -10971   -14114   -18228   -19426   -17800   -15099 
  -12293   -10580   -11260   -15018   -19977   -23177   -23648   -22570 
  -21157   -19583   -18926   -20318   -21941   -21149   -18593   -16743 
  -16890   -18117   -18645   -19657   -21466   -21473   -19160   -15876 
  -13228   -15049   -21588   -25971   -24469   -20771   -17986   -16554 
  -17555   -21542   -26430   -28170   -24352   -18560   -15694   -15570 
  -17336   -19514   -18017   -13335   -11261   -14025   -18033   -19689 
  -19725   -20329   -20327   -17317   -12871   -10061   -11211   -16144 
  -20275   -19507   -15033   -10411    -9718   -14845   -21371   -21747 
  -15693    -9892   -10195   -16119   -22255   -24441   -23715   -22994 
  -22308   -20373   -18297   -18369   -19060   -16171   -11290   -10060 
  -13360   -17258   -19898   -21725   -21487   -18645   -15455   -14085 
  -14886   -16654   -16675   -16465   -19064   -22527   -21948   -16578 
  -10032    -7762   -12394   -20253   -24342   -22988   -20672   -21509 
  -24070   -24544   -22783   -20811   -20815   -23136   -24073   -20539 
  -16447   -17217   -21017   -22617   -21865   -22829   -25422   -24036 
  -16030    -7175    -6043   -14080   -22875   -24095   -19095   -15010 
  -14868   -18183   -22973   -24122   -17368    -6084      377    -3965 
  -15606   -25155   -27558   -23779   -18718   -18889   -24399   -26728 
  -22070   -15598   -13590   -17634   -22301   -20966   -15845   -14607 
  -18697   -21316   -19415   -17060   -16714   -18392   -21107   -21455 
  -18856   -17120   -19075   -20503   -17359   -12270    -9586   -11323 
  -15776   -17219   -13965   -12592   -17457   -23814   -25994   -25218 
  -23871   -20162   -14615   -11988   -15581   -22403   -25408   -22699 
  -19015   -18027   -17718   -15335   -13224   -15518   -20962   -23707 
  -20478   -15480   -15240   -20517   -25561   -25778   -23197   -21203 
  -19373   -16712   -14936   -15267   -15618   -13898   -12333   -15062 
  -21006   -23294   -19438   -15004   -16150   -22304   -27046   -26005 
  -21940   -21250   -24363   -26559   -25221   -22159   -18352   -14242 
  -11802   -15243   -25291   -34355   -35310   -29352   -23137   -22455 
  -25899   -28022   -26724   -24499   -22949   -20460   -17359   -17311 
  -20081   -22113   -20666   -17297   -15434   -15271   -15919   -18015 
  -20307   -20932   -18984   -15365   -12785   -13151   -16200   -18845 
  -19098   -17766   -15674   -13290   -12309   -13289   -14970   -15859 
  -16209   -15991   -14378   -11705    -9503   -10572   -14807   -18192 
  -18339   -16841   -16211   -17900   -20459   -21922   -22160   -21590 
  -21005   -21098   -21792   -21207   -17558   -13251   -12417   -15151 
  -18322   -19216   -17190   -13559   -10608   -12569   -21584   -31242 
  -34079   -30986   -27023   -26671   -29855   -31821   -29581   -25475 
  -23478   -23795   -23458   -22418   -21381   -19293   -17352   -17679 
  -18929   -18164   -15110   -12979   -14083   -16841   -18611   -18640 
  -18491   -20989   -26041   -29408   -26929   -18142    -9224    -7360 
  -14021   -23828   -28937   -25511   -17091   -12184   -15649   -23359 
  -27179   -22755   -13200    -6056    -5683    -9839   -13491   -14092 
  -13019   -13172   -16504   -20571   -21928   -19737   -15470   -12348 
  -13126   -16576   -18485   -17584   -17545   -20241   -21761   -19714 
  -16288   -13865   -12817   -12057   -10061    -7593    -7793   -11677 
  -17588   -22742   -23888   -19972   -14128   -10828   -11098   -12863 
  -13610   -12210    -9024    -6472    -7406   -13050   -21154   -25454 
  -21644   -13875   -10812   -15357   -21299   -20757   -12264    -2780 
     -18    -5145   -14794   -22888   -24417   -19718   -14280   -14230 
  -19267   -23506   -23901   -19967   -13297    -7943    -8929   -17750 
  -27583   -30072   -24669   -16349   -10280   -10291   -16251   -23573 
  -26930   -25070   -20008   -15414   -15038   -18716   -22381   -22735 
  -20741   -19556   -21178   -22539   -20677   -16983   -15778   -17526 
  -17518   -13014    -8350    -9021   -14072   -17193   -15196   -12534 
  -14384   -18452   -18907   -14941   -11167   -10194   -11316   -12289 
  -11410    -9771    -9209   -10484   -11756    -9754    -5304    -4467 
  -10116   -18283   -22833   -21255   -15222   -10335   -11252   -15752 
  -16864   -13074   -10140   -12347   -17975   -22193   -21967   -18051 
  -13949   -12847   -14685   -17091   -17858   -14936    -7746    -1245 
   -2722   -12852   -22855   -24563   -18427   -11392    -9861   -12674 
  -14777   -16488   -20122   -22606   -20071   -14600   -11616   -14083 
  -19206   -22476   -21772   -18675   -15274   -13371   -14202   -16418 
  -17842   -18173   -18241   -18870   -19089   -18055   -16790   -16382 
  -16272   -14711   -13114   -14401   -17782   -20468   -21401   -20622 
  -19109   -18652   -19280   -19856   -19365   -17817   -16750   -18088 
  -20467   -21300   -20388   -18915   -17498   -15580   -13730   -14221 
  -18912   -24502   -25184   -19597   -13052   -12436   -17587   -21102 
  -19226   -15656   -14493   -16027   -18229   -18795   -16717   -12802 
   -9155    -8161   -10595   -13305   -14261   -15224   -16871   -17661 
  -16298   -13586   -12416   -14327   -16803   -15626    -9631    -3150 
   -2463    -8205   -14958   -19042   -20975   -21178   -18856   -15096 
  -12288   -11683   -13184   -15295   -16837   -17634   -17721   -16684 
  -14041   -11943   -13938   -20101   -25047   -24292   -19615   -16652 
  -17998   -20730   -20708   -18685   -18560   -20291   -20895   -20692 
  -21998   -24694   -26698   -26294   -23824   -21258   -21030   -23646 
  -26382   -26904   -25436   -23405   -21247   -18507   -15716   -15024 
  -17981   -22043   -23093   -19837   -15296   -13879   -16453   -19606 
  -19310   -15956   -13617   -15808   -21402   -25107   -23923   -20497 
  -18652   -19723   -22694   -25062   -24625   -20024   -13238    -9225 
  -11582   -17815   -21401   -19667   -16438   -16295   -19085   -22278 
  -24323   -24814   -22850   -19225   -16772   -17823   -22004   -25300 
  -23940   -18530   -13058   -11609   -14560   -18501   -19124   -14937 
  -10313   -11106   -17704   -25153   -28248   -25517   -19793   -16151 
  -17567   -22186   -25326   -23782   -17541   -10523    -8162   -12795 
  -20916   -25710   -24182   -18764   -13259   -10407   -11881   -17228 
  -22662   -23986   -20854   -17328   -17149   -18688   -17978   -16132 
  -16920   -20174   -23490   -25110   -24636   -22311   -18662   -15753 
  -16545   -21459   -26585   -27073   -23023   -19737   -21913   -27549 
  -30620   -29242   -27162   -26646   -26930   -26637   -25556   -25564 
  -26829   -26502   -24001   -23038   -25168   -26887   -25747   -24127 
  -26134   -30626   -31898   -27497   -20907   -17049   -18538   -24384 
  -29138   -28140   -22096   -15702   -13089   -14649   -16203   -15089 
  -14321   -16736   -20408   -22403   -21157   -18201   -16676   -17586 
  -18827   -18466   -17275   -17763   -19745   -19721   -16631   -12987 
  -11224   -11593   -13840   -16700   -18552   -17854   -14699   -12477 
  -14110   -18643   -21907   -20361   -14355    -8711    -7626   -10681 
