#  2025    5   14   14   35   60.000000   40.2254   10.4496   9.4080   3.50  0.0   0.0   0.0       20202331
FUR   3.52199909  1.0000  P
WET   5.86199909  1.0000  S
#  2025    5   14   15   43    5.280000   40.2227   10.4497   9.7740   NaN   0.0   0.0   0.0       20202429
UBR   2.46399997  1.0000  P
WERD  4.16799997  1.0000  X