#  2025    5   14   14   35   35.510000   40.2254   10.4496   9.408   3.5  0.0   0.0   0.0       20202331
FUR   3.5220  1.0  P
WET   5.8620  1.0  S
#  2025    5   14   15   43    5.280000   40.2227   10.4497   9.774   1.8  0.5   0.4   0.3       20202429
UBR   2.4640  0.7  P
WERD  4.1680  1.0  X
