<?xml version="1.0" encoding="UTF-8"?>
<seiscomp xmlns="http://geofon.gfz-potsdam.de/ns/seiscomp3-schema/0.10" version="0.10">
  <EventParameters publicID="smi:local/defb553b-df5f-45a3-a633-590b7e6e4c14">
    <pick publicID="smi:ca.seismo/pick/solid/arrid/19521225.0428001/19521225.0430003">
      <time>
        <value>1952-12-25T04:30:40.000000Z</value>
      </time>
      <waveformID networkCode="CN" stationCode="OTT" locationCode="" channelCode="SZ"/>
      <phaseHint>A</phaseHint>
      <creationInfo>
        <agencyID>GSC</agencyID>
        <creationTime>1995-02-15T00:00:00.000000Z</creationTime>
        <version>GSC</version>
      </creationInfo>
    </pick>
    <amplitude publicID="smi:ca.seismo/amplitude/solid/arrid/19521225.0428001/19521225.0430003">
      <type>AMN</type>
      <amplitude>
        <value>3.06496844253e-07</value>
      </amplitude>
      <period>
        <value>0.5</value>
      </period>
      <unit>m/s</unit>
      <pickID>smi:ca.seismo/pick/solid/arrid/19521225.0428001/19521225.0430003</pickID>
      <waveformID networkCode="CN" stationCode="OTT" locationCode="" channelCode="SZ"/>
    </amplitude>
    <origin publicID="smi:ca.seismo/origin/solid/19521225.0428001">
      <time>
        <value>1952-12-25T04:28:30.000000Z</value>
        <uncertainty>0.0</uncertainty>
      </time>
      <latitude>
        <value>43.725</value>
        <uncertainty>0.06</uncertainty>
      </latitude>
      <longitude>
        <value>-81.147</value>
        <uncertainty>0.09</uncertainty>
      </longitude>
      <depth>
        <value>20</value>
        <uncertainty>0</uncertainty>
      </depth>
      <timeFixed>false</timeFixed>
      <epicenterFixed>false</epicenterFixed>
      <methodID>smi:ca.seismo/system/module/GSC/unknown-0</methodID>
      <earthModelID>smi:ca.seismo/1dcvl/unknown-10</earthModelID>
      <quality>
        <usedPhaseCount>5</usedPhaseCount>
        <usedStationCount>3</usedStationCount>
        <depthPhaseCount>0</depthPhaseCount>
        <standardError>0.66</standardError>
        <azimuthalGap>357.0</azimuthalGap>
        <minimumDistance>4.22681</minimumDistance>
      </quality>
      <uncertainty>
        <minHorizontalUncertainty>0</minHorizontalUncertainty>
        <maxHorizontalUncertainty>0</maxHorizontalUncertainty>
        <azimuthMaxHorizontalUncertainty>0.0</azimuthMaxHorizontalUncertainty>
      </uncertainty>
      <type>hypocenter</type>
      <evaluationMode>manual</evaluationMode>
      <evaluationStatus>preliminary</evaluationStatus>
      <creationInfo>
        <agencyID>GSC</agencyID>
        <author>GSC</author>
        <creationTime>1995-02-15T00:00:00.000000Z</creationTime>
        <version>JD</version>
      </creationInfo>
    </origin>
    <event publicID="smi:ca.seismo/event/evid/19521225.0428002">
      <preferredOriginID>smi:ca.seismo/origin/solid/19521225.0428002</preferredOriginID>
      <type>earthquake</type>
      <typeCertainty>known</typeCertainty>
      <originReference>smi:ca.seismo/origin/solid/19521225.0428001</originReference>
    </event>
  </EventParameters>
</seiscomp>
