<?xml version="1.0" encoding="UTF-8"?>
<seiscomp xmlns="http://geofon.gfz-potsdam.de/ns/seiscomp3-schema/0.10" version="0.10">
  <EventParameters publicID="smi:ca.seismo/catalog/pickfile.npf">
    <pick publicID="smi:ca.seismo/pick/solid/arrid/19521225.0428001/19521225.0429001">
      <time>
        <value>1952-12-25T04:29:33.000000Z</value>
        <uncertainty>0.5</uncertainty>
      </time>
      <waveformID networkCode="CN" stationCode="OTT" locationCode="" channelCode="SZ"/>
      <phaseHint>P</phaseHint>
      <creationInfo>
        <agencyID>GSC</agencyID>
        <creationTime>1995-02-15T00:00:00.000000Z</creationTime>
        <version>GSC</version>
      </creationInfo>
    </pick>
    <pick publicID="smi:ca.seismo/pick/solid/arrid/19521225.0428001/19521225.0429002">
      <time>
        <value>1952-12-25T04:29:41.000000Z</value>
      </time>
      <waveformID networkCode="CN" stationCode="OTT" locationCode="" channelCode="SZ"/>
      <phaseHint>P</phaseHint>
      <creationInfo>
        <agencyID>GSC</agencyID>
        <creationTime>1995-02-15T00:00:00.000000Z</creationTime>
        <version>GSC</version>
      </creationInfo>
    </pick>
    <pick publicID="smi:ca.seismo/pick/solid/arrid/19521225.0428001/19521225.0430001">
      <time>
        <value>1952-12-25T04:30:19.000000Z</value>
        <uncertainty>0.5</uncertainty>
      </time>
      <waveformID networkCode="CN" stationCode="OTT" locationCode="" channelCode="SZ"/>
      <phaseHint>S</phaseHint>
      <creationInfo>
        <agencyID>GSC</agencyID>
        <creationTime>1995-02-15T00:00:00.000000Z</creationTime>
        <version>GSC</version>
      </creationInfo>
    </pick>
    <pick publicID="smi:ca.seismo/pick/solid/arrid/19521225.0428001/19521225.0430002">
      <time>
        <value>1952-12-25T04:30:39.000000Z</value>
        <uncertainty>0.5</uncertainty>
      </time>
      <waveformID networkCode="CN" stationCode="OTT" locationCode="" channelCode="SZ"/>
      <phaseHint>S</phaseHint>
      <creationInfo>
        <agencyID>GSC</agencyID>
        <creationTime>1995-02-15T00:00:00.000000Z</creationTime>
        <version>GSC</version>
      </creationInfo>
    </pick>
    <pick publicID="smi:ca.seismo/pick/solid/arrid/19521225.0428001/19521225.0430003">
      <time>
        <value>1952-12-25T04:30:40.000000Z</value>
      </time>
      <waveformID networkCode="CN" stationCode="OTT" locationCode="" channelCode="SZ"/>
      <phaseHint>A</phaseHint>
      <creationInfo>
        <agencyID>GSC</agencyID>
        <creationTime>1995-02-15T00:00:00.000000Z</creationTime>
        <version>GSC</version>
      </creationInfo>
    </pick>
    <pick publicID="smi:ca.seismo/pick/solid/arrid/19521225.0428001/19521225.0430004">
      <time>
        <value>1952-12-25T04:30:48.000000Z</value>
        <uncertainty>0.5</uncertainty>
      </time>
      <waveformID networkCode="" stationCode="KLC" locationCode="" channelCode="SZ"/>
      <phaseHint>S</phaseHint>
      <creationInfo>
        <agencyID>GSC</agencyID>
        <creationTime>1995-02-15T00:00:00.000000Z</creationTime>
        <version>GSC</version>
      </creationInfo>
    </pick>
    <pick publicID="smi:ca.seismo/pick/solid/arrid/19521225.0428001/19521225.0431001">
      <time>
        <value>1952-12-25T04:31:53.000000Z</value>
        <uncertainty>0.5</uncertainty>
      </time>
      <waveformID networkCode="" stationCode="SHF" locationCode="" channelCode="SZ"/>
      <phaseHint>S</phaseHint>
      <creationInfo>
        <agencyID>GSC</agencyID>
        <creationTime>1995-02-15T00:00:00.000000Z</creationTime>
        <version>GSC</version>
      </creationInfo>
    </pick>
    <amplitude publicID="smi:ca.seismo/amplitude/solid/arrid/19521225.0428001/19521225.0430003">
      <type>AMN</type>
      <amplitude>
        <value>3.06496844253e-07</value>
      </amplitude>
      <period>
        <value>0.5</value>
      </period>
      <unit>m/s</unit>
      <pickID>smi:ca.seismo/pick/solid/arrid/19521225.0428001/19521225.0430003</pickID>
      <waveformID networkCode="CN" stationCode="OTT" locationCode="" channelCode="SZ"/>
    </amplitude>
    <origin publicID="smi:ca.seismo/origin/solid/19521225.0428001">
      <time>
        <value>1952-12-25T04:28:30.000000Z</value>
        <uncertainty>0.0</uncertainty>
      </time>
      <latitude>
        <value>43.725</value>
        <uncertainty>0.06</uncertainty>
      </latitude>
      <longitude>
        <value>-81.147</value>
        <uncertainty>0.09</uncertainty>
      </longitude>
      <depth>
        <value>20</value>
        <uncertainty>0</uncertainty>
      </depth>
      <timeFixed>false</timeFixed>
      <epicenterFixed>false</epicenterFixed>
      <methodID>smi:ca.seismo/system/module/GSC/unknown-0</methodID>
      <earthModelID>smi:ca.seismo/1dcvl/unknown-10</earthModelID>
      <quality>
        <usedPhaseCount>5</usedPhaseCount>
        <usedStationCount>3</usedStationCount>
        <depthPhaseCount>0</depthPhaseCount>
        <standardError>0.66</standardError>
        <azimuthalGap>357.0</azimuthalGap>
        <minimumDistance>4.22681</minimumDistance>
      </quality>
      <uncertainty>
        <minHorizontalUncertainty>0</minHorizontalUncertainty>
        <maxHorizontalUncertainty>0</maxHorizontalUncertainty>
        <azimuthMaxHorizontalUncertainty>0.0</azimuthMaxHorizontalUncertainty>
      </uncertainty>
      <type>hypocenter</type>
      <evaluationMode>manual</evaluationMode>
      <evaluationStatus>preliminary</evaluationStatus>
      <creationInfo>
        <agencyID>GSC</agencyID>
        <author>GSC</author>
        <creationTime>1995-02-15T00:00:00.000000Z</creationTime>
        <version>JD</version>
      </creationInfo>
      <comment>
        <text>NORTH WEST OF KITCHENER, ONTARIO</text>
        <id>smi:ca.seismo/comment/solid/comment_type/cmcnt/19521225.0428001/C/1</id>
        <creationInfo>
          <creationTime>1995-02-15T00:00:00.000000Z</creationTime>
          <version>English</version>
        </creationInfo>
      </comment>
      <comment>
        <text>43.85   80.97   ML=3.6 0428325          SMITH</text>
        <id>smi:ca.seismo/comment/solid/comment_type/cmcnt/19521225.0428001/I/1</id>
        <creationInfo>
          <creationTime>1995-02-15T00:00:00.000000Z</creationTime>
          <version>internal</version>
        </creationInfo>
      </comment>
      <comment>
        <text>43.85   80.97   ML=3.6 0428325          CEEF 1988</text>
        <id>smi:ca.seismo/comment/solid/comment_type/cmcnt/19521225.0428001/I/2</id>
        <creationInfo>
          <creationTime>1995-02-15T00:00:00.000000Z</creationTime>
          <version>internal</version>
        </creationInfo>
      </comment>
      <comment>
        <text/>
        <id>smi:ca.seismo/comment/solid/comment_type/cmcnt/19521225.0428001/I/3</id>
        <creationInfo>
          <creationTime>1995-02-15T00:00:00.000000Z</creationTime>
          <version>internal</version>
        </creationInfo>
      </comment>
      <comment>
        <text> SHF: AN EMERGENT PHASE WAS ALSO READ AT 3041</text>
        <id>smi:ca.seismo/comment/solid/comment_type/cmcnt/19521225.0428001/I/4</id>
        <creationInfo>
          <creationTime>1995-02-15T00:00:00.000000Z</creationTime>
          <version>internal</version>
        </creationInfo>
      </comment>
      <comment>
        <text> ODD LOCATION, SHOULD HAVE BEEN FELT, NEEDS TO BE CHECKED</text>
        <id>smi:ca.seismo/comment/solid/comment_type/cmcnt/19521225.0428001/I/5</id>
        <creationInfo>
          <creationTime>1995-02-15T00:00:00.000000Z</creationTime>
          <version>internal</version>
        </creationInfo>
      </comment>
      <comment>
        <text> CHECK N.E.S.A. OR U.S.C.G.S. FOR U.S. STATIONS.</text>
        <id>smi:ca.seismo/comment/solid/comment_type/cmcnt/19521225.0428001/I/6</id>
        <creationInfo>
          <creationTime>1995-02-15T00:00:00.000000Z</creationTime>
          <version>internal</version>
        </creationInfo>
      </comment>
      <comment>
        <text/>
        <id>smi:ca.seismo/comment/solid/comment_type/cmcnt/19521225.0428001/I/7</id>
        <creationInfo>
          <creationTime>1995-02-15T00:00:00.000000Z</creationTime>
          <version>internal</version>
        </creationInfo>
      </comment>
      <comment>
        <text> SHOULD CHECK NEWSPAPERS FOR FELT REPORTS</text>
        <id>smi:ca.seismo/comment/solid/comment_type/cmcnt/19521225.0428001/I/8</id>
        <creationInfo>
          <creationTime>1995-02-15T00:00:00.000000Z</creationTime>
          <version>internal</version>
        </creationInfo>
      </comment>
      <comment>
        <text> EVENT IS AT MIDNIGHT ON CHRISTMAS EVE AND IS</text>
        <id>smi:ca.seismo/comment/solid/comment_type/cmcnt/19521225.0428001/I/9</id>
        <creationInfo>
          <creationTime>1995-02-15T00:00:00.000000Z</creationTime>
          <version>internal</version>
        </creationInfo>
      </comment>
      <comment>
        <text> UNLIKELY TO BE A PLANNED EXPLOSION.</text>
        <id>smi:ca.seismo/comment/solid/comment_type/cmcnt/19521225.0428001/I/10</id>
        <creationInfo>
          <creationTime>1995-02-15T00:00:00.000000Z</creationTime>
          <version>internal</version>
        </creationInfo>
      </comment>
      <comment>
        <text> POSSIBILITY OF A MALICIOUS BLAST SHOULD BE RULED OUT.</text>
        <id>smi:ca.seismo/comment/solid/comment_type/cmcnt/19521225.0428001/I/11</id>
        <creationInfo>
          <creationTime>1995-02-15T00:00:00.000000Z</creationTime>
          <version>internal</version>
        </creationInfo>
      </comment>
      <comment>
        <text/>
        <id>smi:ca.seismo/comment/solid/comment_type/cmcnt/19521225.0428001/I/12</id>
        <creationInfo>
          <creationTime>1995-02-15T00:00:00.000000Z</creationTime>
          <version>internal</version>
        </creationInfo>
      </comment>
      <arrival>
        <pickID>smi:ca.seismo/pick/solid/arrid/19521225.0428001/19521225.0429001</pickID>
        <phase>Pn</phase>
        <azimuth>65.0</azimuth>
        <distance>4.226812</distance>
        <takeOffAngle>49.0</takeOffAngle>
        <timeResidual>0.14</timeResidual>
        <timeUsed>true</timeUsed>
        <weight>0.0</weight>
        <creationInfo>
          <agencyID>GSC</agencyID>
          <creationTime>1995-02-15T00:00:00.000000Z</creationTime>
          <version>GSC</version>
        </creationInfo>
      </arrival>
      <arrival>
        <pickID>smi:ca.seismo/pick/solid/arrid/19521225.0428001/19521225.0429002</pickID>
        <phase>Pg</phase>
        <azimuth>65.0</azimuth>
        <distance>4.226812</distance>
        <takeOffAngle>49.0</takeOffAngle>
        <timeResidual>-4.91</timeResidual>
        <timeUsed>true</timeUsed>
        <weight>0.0</weight>
        <creationInfo>
          <agencyID>GSC</agencyID>
          <creationTime>1995-02-15T00:00:00.000000Z</creationTime>
          <version>GSC</version>
        </creationInfo>
      </arrival>
      <arrival>
        <pickID>smi:ca.seismo/pick/solid/arrid/19521225.0428001/19521225.0430001</pickID>
        <phase>Sn</phase>
        <azimuth>65.0</azimuth>
        <distance>4.226812</distance>
        <takeOffAngle>49.0</takeOffAngle>
        <timeResidual>-0.2</timeResidual>
        <timeUsed>true</timeUsed>
        <weight>0.1</weight>
        <creationInfo>
          <agencyID>GSC</agencyID>
          <creationTime>1995-02-15T00:00:00.000000Z</creationTime>
          <version>GSC</version>
        </creationInfo>
      </arrival>
      <arrival>
        <pickID>smi:ca.seismo/pick/solid/arrid/19521225.0428001/19521225.0430002</pickID>
        <phase>Sg</phase>
        <azimuth>65.0</azimuth>
        <distance>4.226812</distance>
        <takeOffAngle>49.0</takeOffAngle>
        <timeResidual>-0.96</timeResidual>
        <timeUsed>true</timeUsed>
        <weight>2.1</weight>
        <creationInfo>
          <agencyID>GSC</agencyID>
          <creationTime>1995-02-15T00:00:00.000000Z</creationTime>
          <version>GSC</version>
        </creationInfo>
      </arrival>
      <arrival>
        <pickID>smi:ca.seismo/pick/solid/arrid/19521225.0428001/19521225.0430004</pickID>
        <phase>Sg</phase>
        <azimuth>10.0</azimuth>
        <distance>4.487615</distance>
        <takeOffAngle>49.0</takeOffAngle>
        <timeResidual>-0.08</timeResidual>
        <timeUsed>true</timeUsed>
        <weight>0.0</weight>
        <creationInfo>
          <agencyID>GSC</agencyID>
          <creationTime>1995-02-15T00:00:00.000000Z</creationTime>
          <version>GSC</version>
        </creationInfo>
      </arrival>
      <arrival>
        <pickID>smi:ca.seismo/pick/solid/arrid/19521225.0428001/19521225.0431001</pickID>
        <phase>Sg</phase>
        <azimuth>62.0</azimuth>
        <distance>6.565048</distance>
        <takeOffAngle>49.0</takeOffAngle>
        <timeResidual>1.09</timeResidual>
        <timeUsed>true</timeUsed>
        <weight>2.7</weight>
        <creationInfo>
          <agencyID>GSC</agencyID>
          <creationTime>1995-02-15T00:00:00.000000Z</creationTime>
          <version>GSC</version>
        </creationInfo>
      </arrival>
      <stationMagnitude publicID="smi:ca.seismo/stn_mag/solid/arrid/19521225.0428001/19521225.0430003">
        <originID>smi:ca.seismo/origin/solid/19521225.0428001</originID>
        <magnitude>
          <value>3.0</value>
        </magnitude>
        <type>MN</type>
        <amplitudeID>smi:ca.seismo/amplitude/solid/arrid/19521225.0428001/19521225.0430003</amplitudeID>
      </stationMagnitude>
      <magnitude publicID="smi:ca.seismo/magnitude/solid/magcnt/19521225.0428001/1">
        <magnitude>
          <value>3.0</value>
          <uncertainty>-0.0</uncertainty>
        </magnitude>
        <type>MN</type>
        <originID>smi:ca.seismo/origin/solid/19521225.0428001</originID>
        <stationCount>1</stationCount>
        <creationInfo>
          <agencyID>GSC</agencyID>
        </creationInfo>
        <stationMagnitudeContribution>
          <stationMagnitudeID>smi:ca.seismo/stn_mag/solid/arrid/19521225.0428001/19521225.0430003</stationMagnitudeID>
          <residual>-0.0</residual>
          <weight>1.0</weight>
        </stationMagnitudeContribution>
      </magnitude>
      <magnitude publicID="smi:ca.seismo/magnitude/solid/magcnt/19521225.0428001/2">
        <magnitude>
          <value>3.5</value>
        </magnitude>
        <type>ML</type>
        <originID>smi:ca.seismo/origin/solid/19521225.0428001</originID>
        <stationCount>1</stationCount>
        <creationInfo>
          <agencyID>GSC</agencyID>
        </creationInfo>
      </magnitude>
    </origin>
    <origin publicID="smi:ca.seismo/origin/solid/19521225.0428002">
      <time>
        <value>1952-12-25T04:28:32.500000Z</value>
        <uncertainty>0.0</uncertainty>
      </time>
      <latitude>
        <value>43.85</value>
        <uncertainty>0.0</uncertainty>
      </latitude>
      <longitude>
        <value>-80.97</value>
        <uncertainty>0.0</uncertainty>
      </longitude>
      <depth>
        <value>0</value>
        <uncertainty>0</uncertainty>
      </depth>
      <depthType>constrained by direct phases</depthType>
      <timeFixed>false</timeFixed>
      <epicenterFixed>false</epicenterFixed>
      <earthModelID>smi:ca.seismo/1dcvl/unknown</earthModelID>
      <quality>
        <usedPhaseCount>0</usedPhaseCount>
        <usedStationCount>0</usedStationCount>
        <depthPhaseCount>0</depthPhaseCount>
        <standardError>0.0</standardError>
        <azimuthalGap>0.0</azimuthalGap>
        <minimumDistance>0.0</minimumDistance>
      </quality>
      <uncertainty>
        <minHorizontalUncertainty>0</minHorizontalUncertainty>
        <maxHorizontalUncertainty>0</maxHorizontalUncertainty>
        <azimuthMaxHorizontalUncertainty>0.0</azimuthMaxHorizontalUncertainty>
      </uncertainty>
      <type>hypocenter</type>
      <evaluationMode>manual</evaluationMode>
      <evaluationStatus>final</evaluationStatus>
      <creationInfo>
        <agencyID>GSC</agencyID>
        <creationTime>1995-07-18T00:00:00.000000Z</creationTime>
        <version>CEEF91</version>
      </creationInfo>
      <comment>
        <text>MAP # :040P correction year:  -</text>
        <id>smi:ca.seismo/comment/solid/comment_type/cmcnt/19521225.0428002/C/1</id>
        <creationInfo>
          <creationTime>1995-07-18T00:00:00.000000Z</creationTime>
          <version>English</version>
        </creationInfo>
      </comment>
      <magnitude publicID="smi:ca.seismo/magnitude/solid/magcnt/19521225.0428002/1">
        <magnitude>
          <value>3.6</value>
          <uncertainty>-0.0</uncertainty>
        </magnitude>
        <type>ML</type>
        <originID>smi:ca.seismo/origin/solid/19521225.0428002</originID>
        <stationCount>0</stationCount>
        <creationInfo>
          <agencyID>GSC</agencyID>
        </creationInfo>
      </magnitude>
    </origin>
    <event publicID="smi:ca.seismo/event/evid/19521225.0428002">
      <preferredOriginID>smi:ca.seismo/origin/solid/19521225.0428002</preferredOriginID>
      <preferredMagnitudeID>smi:ca.seismo/magnitude/solid/magcnt/19521225.0428001/1</preferredMagnitudeID>
      <type>earthquake</type>
      <typeCertainty>known</typeCertainty>
      <originReference>smi:ca.seismo/origin/solid/19521225.0428001</originReference>
      <originReference>smi:ca.seismo/origin/solid/19521225.0428002</originReference>
    </event>
  </EventParameters>
</seiscomp>