<?xml version="1.0" encoding="UTF-8"?>
<q:quakeml xmlns:q="http://quakeml.org/xmlns/quakeml/1.2" xmlns="http://quakeml.org/xmlns/bed/1.2">
  <eventParameters publicID="smi:ca.seismo/catalog/pickfile.npf">
    <event publicID="smi:ca.seismo/event/evid/19521225.0428002">
      <pick publicID="smi:ca.seismo/pick/solid/arrid/19521225.0428001/19521225.0430003">
        <time>
          <value>1952-12-25T04:30:40.000000Z</value>
        </time>
        <waveformID networkCode="CN" stationCode="OTT" locationCode="" channelCode="SZ"/>
        <phaseHint>A</phaseHint>
        <creationInfo>
          <agencyID>GSC</agencyID>
          <creationTime>1995-02-15T00:00:00.000000Z</creationTime>
          <version>GSC</version>
        </creationInfo>
      </pick>
      <amplitude publicID="smi:ca.seismo/amplitude/solid/arrid/19521225.0428001/19521225.0430003">
        <type>AMN</type>
        <genericAmplitude>
          <value>3.06496844253e-07</value>
        </genericAmplitude>
        <period>
          <value>0.5</value>
        </period>
        <unit>m/s</unit>
        <pickID>smi:ca.seismo/pick/solid/arrid/19521225.0428001/19521225.0430003</pickID>
        <waveformID networkCode="CN" stationCode="OTT" locationCode="" channelCode="SZ"/>
      </amplitude>
      <stationMagnitude publicID="smi:ca.seismo/stn_mag/solid/arrid/19521225.0428001/19521225.0430003">
        <originID>smi:ca.seismo/origin/solid/19521225.0428001</originID>
        <mag>
          <value>3.0</value>
        </mag>
        <type>MN</type>
        <amplitudeID>smi:ca.seismo/amplitude/solid/arrid/19521225.0428001/19521225.0430003</amplitudeID>
      </stationMagnitude>
      <magnitude publicID="smi:ca.seismo/magnitude/solid/magcnt/19521225.0428001/1">
        <mag>
          <value>3.0</value>
          <uncertainty>-0.0</uncertainty>
        </mag>
        <type>MN</type>
        <originID>smi:ca.seismo/origin/solid/19521225.0428001</originID>
        <stationCount>1</stationCount>
        <creationInfo>
          <agencyID>GSC</agencyID>
        </creationInfo>
        <stationMagnitudeContribution>
          <stationMagnitudeID>smi:ca.seismo/stn_mag/solid/arrid/19521225.0428001/19521225.0430003</stationMagnitudeID>
          <residual>-0.0</residual>
          <weight>1.0</weight>
        </stationMagnitudeContribution>
      </magnitude>
      <magnitude publicID="smi:ca.seismo/magnitude/solid/magcnt/19521225.0428001/2">
        <mag>
          <value>3.5</value>
        </mag>
        <type>ML</type>
        <originID>smi:ca.seismo/origin/solid/19521225.0428001</originID>
        <stationCount>1</stationCount>
        <creationInfo>
          <agencyID>GSC</agencyID>
        </creationInfo>
      </magnitude>
      <pick publicID="smi:ca.seismo/pick/solid/arrid/19521225.0428001/19521225.0429001">
        <time>
          <value>1952-12-25T04:29:33.000000Z</value>
          <uncertainty>0.5</uncertainty>
        </time>
        <waveformID networkCode="CN" stationCode="OTT" locationCode="" channelCode="SZ"/>
        <phaseHint>P</phaseHint>
        <creationInfo>
          <agencyID>GSC</agencyID>
          <creationTime>1995-02-15T00:00:00.000000Z</creationTime>
          <version>GSC</version>
        </creationInfo>
      </pick>
      <pick publicID="smi:ca.seismo/pick/solid/arrid/19521225.0428001/19521225.0429002">
        <time>
          <value>1952-12-25T04:29:41.000000Z</value>
        </time>
        <waveformID networkCode="CN" stationCode="OTT" locationCode="" channelCode="SZ"/>
        <phaseHint>P</phaseHint>
        <creationInfo>
          <agencyID>GSC</agencyID>
          <creationTime>1995-02-15T00:00:00.000000Z</creationTime>
          <version>GSC</version>
        </creationInfo>
      </pick>
      <pick publicID="smi:ca.seismo/pick/solid/arrid/19521225.0428001/19521225.0430001">
        <time>
          <value>1952-12-25T04:30:19.000000Z</value>
          <uncertainty>0.5</uncertainty>
        </time>
        <waveformID networkCode="CN" stationCode="OTT" locationCode="" channelCode="SZ"/>
        <phaseHint>S</phaseHint>
        <creationInfo>
          <agencyID>GSC</agencyID>
          <creationTime>1995-02-15T00:00:00.000000Z</creationTime>
          <version>GSC</version>
        </creationInfo>
      </pick>
      <pick publicID="smi:ca.seismo/pick/solid/arrid/19521225.0428001/19521225.0430002">
        <time>
          <value>1952-12-25T04:30:39.000000Z</value>
          <uncertainty>0.5</uncertainty>
        </time>
        <waveformID networkCode="CN" stationCode="OTT" locationCode="" channelCode="SZ"/>
        <phaseHint>S</phaseHint>
        <creationInfo>
          <agencyID>GSC</agencyID>
          <creationTime>1995-02-15T00:00:00.000000Z</creationTime>
          <version>GSC</version>
        </creationInfo>
      </pick>
      <pick publicID="smi:ca.seismo/pick/solid/arrid/19521225.0428001/19521225.0430004">
        <time>
          <value>1952-12-25T04:30:48.000000Z</value>
          <uncertainty>0.5</uncertainty>
        </time>
        <waveformID networkCode="" stationCode="KLC" locationCode="" channelCode="SZ"/>
        <phaseHint>S</phaseHint>
        <creationInfo>
          <agencyID>GSC</agencyID>
          <creationTime>1995-02-15T00:00:00.000000Z</creationTime>
          <version>GSC</version>
        </creationInfo>
      </pick>
      <pick publicID="smi:ca.seismo/pick/solid/arrid/19521225.0428001/19521225.0431001">
        <time>
          <value>1952-12-25T04:31:53.000000Z</value>
          <uncertainty>0.5</uncertainty>
        </time>
        <waveformID networkCode="" stationCode="SHF" locationCode="" channelCode="SZ"/>
        <phaseHint>S</phaseHint>
        <creationInfo>
          <agencyID>GSC</agencyID>
          <creationTime>1995-02-15T00:00:00.000000Z</creationTime>
          <version>GSC</version>
        </creationInfo>
      </pick>
      <origin publicID="smi:ca.seismo/origin/solid/19521225.0428001">
        <time>
          <value>1952-12-25T04:28:30.000000Z</value>
          <uncertainty>0.0</uncertainty>
        </time>
        <latitude>
          <value>43.725</value>
          <uncertainty>0.06</uncertainty>
        </latitude>
        <longitude>
          <value>-81.147</value>
          <uncertainty>0.09</uncertainty>
        </longitude>
        <depth>
          <value>20000</value>
          <uncertainty>0</uncertainty>
        </depth>
        <timeFixed>false</timeFixed>
        <epicenterFixed>false</epicenterFixed>
        <methodID>smi:ca.seismo/system/module/GSC/unknown-0</methodID>
        <earthModelID>smi:ca.seismo/1dcvl/unknown-10</earthModelID>
        <quality>
          <usedPhaseCount>5</usedPhaseCount>
          <usedStationCount>3</usedStationCount>
          <depthPhaseCount>0</depthPhaseCount>
          <standardError>0.66</standardError>
          <azimuthalGap>357.0</azimuthalGap>
          <minimumDistance>4.22681</minimumDistance>
        </quality>
        <originUncertainty>
          <minHorizontalUncertainty>0</minHorizontalUncertainty>
          <maxHorizontalUncertainty>0</maxHorizontalUncertainty>
          <azimuthMaxHorizontalUncertainty>0.0</azimuthMaxHorizontalUncertainty>
        </originUncertainty>
        <type>hypocenter</type>
        <evaluationMode>manual</evaluationMode>
        <evaluationStatus>preliminary</evaluationStatus>
        <creationInfo>
          <agencyID>GSC</agencyID>
          <author>GSC</author>
          <creationTime>1995-02-15T00:00:00.000000Z</creationTime>
          <version>JD</version>
        </creationInfo>
        <comment id="smi:ca.seismo/comment/solid/comment_type/cmcnt/19521225.0428001/C/1">
          <text>NORTH WEST OF KITCHENER, ONTARIO</text>
          <creationInfo>
            <creationTime>1995-02-15T00:00:00.000000Z</creationTime>
            <version>English</version>
          </creationInfo>
        </comment>
        <comment id="smi:ca.seismo/comment/solid/comment_type/cmcnt/19521225.0428001/I/1">
          <text>43.85   80.97   ML=3.6 0428325          SMITH</text>
          <creationInfo>
            <creationTime>1995-02-15T00:00:00.000000Z</creationTime>
            <version>internal</version>
          </creationInfo>
        </comment>
        <comment id="smi:ca.seismo/comment/solid/comment_type/cmcnt/19521225.0428001/I/2">
          <text>43.85   80.97   ML=3.6 0428325          CEEF 1988</text>
          <creationInfo>
            <creationTime>1995-02-15T00:00:00.000000Z</creationTime>
            <version>internal</version>
          </creationInfo>
        </comment>
        <comment id="smi:ca.seismo/comment/solid/comment_type/cmcnt/19521225.0428001/I/3">
          <text/>
          <creationInfo>
            <creationTime>1995-02-15T00:00:00.000000Z</creationTime>
            <version>internal</version>
          </creationInfo>
        </comment>
        <comment id="smi:ca.seismo/comment/solid/comment_type/cmcnt/19521225.0428001/I/4">
          <text> SHF: AN EMERGENT PHASE WAS ALSO READ AT 3041</text>
          <creationInfo>
            <creationTime>1995-02-15T00:00:00.000000Z</creationTime>
            <version>internal</version>
          </creationInfo>
        </comment>
        <comment id="smi:ca.seismo/comment/solid/comment_type/cmcnt/19521225.0428001/I/5">
          <text> ODD LOCATION, SHOULD HAVE BEEN FELT, NEEDS TO BE CHECKED</text>
          <creationInfo>
            <creationTime>1995-02-15T00:00:00.000000Z</creationTime>
            <version>internal</version>
          </creationInfo>
        </comment>
        <comment id="smi:ca.seismo/comment/solid/comment_type/cmcnt/19521225.0428001/I/6">
          <text> CHECK N.E.S.A. OR U.S.C.G.S. FOR U.S. STATIONS.</text>
          <creationInfo>
            <creationTime>1995-02-15T00:00:00.000000Z</creationTime>
            <version>internal</version>
          </creationInfo>
        </comment>
        <comment id="smi:ca.seismo/comment/solid/comment_type/cmcnt/19521225.0428001/I/7">
          <text/>
          <creationInfo>
            <creationTime>1995-02-15T00:00:00.000000Z</creationTime>
            <version>internal</version>
          </creationInfo>
        </comment>
        <comment id="smi:ca.seismo/comment/solid/comment_type/cmcnt/19521225.0428001/I/8">
          <text> SHOULD CHECK NEWSPAPERS FOR FELT REPORTS</text>
          <creationInfo>
            <creationTime>1995-02-15T00:00:00.000000Z</creationTime>
            <version>internal</version>
          </creationInfo>
        </comment>
        <comment id="smi:ca.seismo/comment/solid/comment_type/cmcnt/19521225.0428001/I/9">
          <text> EVENT IS AT MIDNIGHT ON CHRISTMAS EVE AND IS</text>
          <creationInfo>
            <creationTime>1995-02-15T00:00:00.000000Z</creationTime>
            <version>internal</version>
          </creationInfo>
        </comment>
        <comment id="smi:ca.seismo/comment/solid/comment_type/cmcnt/19521225.0428001/I/10">
          <text> UNLIKELY TO BE A PLANNED EXPLOSION.</text>
          <creationInfo>
            <creationTime>1995-02-15T00:00:00.000000Z</creationTime>
            <version>internal</version>
          </creationInfo>
        </comment>
        <comment id="smi:ca.seismo/comment/solid/comment_type/cmcnt/19521225.0428001/I/11">
          <text> POSSIBILITY OF A MALICIOUS BLAST SHOULD BE RULED OUT.</text>
          <creationInfo>
            <creationTime>1995-02-15T00:00:00.000000Z</creationTime>
            <version>internal</version>
          </creationInfo>
        </comment>
        <comment id="smi:ca.seismo/comment/solid/comment_type/cmcnt/19521225.0428001/I/12">
          <text/>
          <creationInfo>
            <creationTime>1995-02-15T00:00:00.000000Z</creationTime>
            <version>internal</version>
          </creationInfo>
        </comment>
        <arrival publicID="smi:ca.seismo/pick/solid/arrid/19521225.0428001/19521225.0429001_smi_ca.seismo/origin/solid/19521225.0428001">
          <timeWeight>0.0</timeWeight>
          <pickID>smi:ca.seismo/pick/solid/arrid/19521225.0428001/19521225.0429001</pickID>
          <phase>Pn</phase>
          <azimuth>65.0</azimuth>
          <distance>4.226812</distance>
          <takeoffAngle>
            <value>49.0</value>
          </takeoffAngle>
          <timeResidual>0.14</timeResidual>
          <creationInfo>
            <agencyID>GSC</agencyID>
            <creationTime>1995-02-15T00:00:00.000000Z</creationTime>
            <version>GSC</version>
          </creationInfo>
        </arrival>
        <arrival publicID="smi:ca.seismo/pick/solid/arrid/19521225.0428001/19521225.0429002_smi_ca.seismo/origin/solid/19521225.0428001">
          <timeWeight>0.0</timeWeight>
          <pickID>smi:ca.seismo/pick/solid/arrid/19521225.0428001/19521225.0429002</pickID>
          <phase>Pg</phase>
          <azimuth>65.0</azimuth>
          <distance>4.226812</distance>
          <takeoffAngle>
            <value>49.0</value>
          </takeoffAngle>
          <timeResidual>-4.91</timeResidual>
          <creationInfo>
            <agencyID>GSC</agencyID>
            <creationTime>1995-02-15T00:00:00.000000Z</creationTime>
            <version>GSC</version>
          </creationInfo>
        </arrival>
        <arrival publicID="smi:ca.seismo/pick/solid/arrid/19521225.0428001/19521225.0430001_smi_ca.seismo/origin/solid/19521225.0428001">
          <timeWeight>0.1</timeWeight>
          <pickID>smi:ca.seismo/pick/solid/arrid/19521225.0428001/19521225.0430001</pickID>
          <phase>Sn</phase>
          <azimuth>65.0</azimuth>
          <distance>4.226812</distance>
          <takeoffAngle>
            <value>49.0</value>
          </takeoffAngle>
          <timeResidual>-0.2</timeResidual>
          <creationInfo>
            <agencyID>GSC</agencyID>
            <creationTime>1995-02-15T00:00:00.000000Z</creationTime>
            <version>GSC</version>
          </creationInfo>
        </arrival>
        <arrival publicID="smi:ca.seismo/pick/solid/arrid/19521225.0428001/19521225.0430002_smi_ca.seismo/origin/solid/19521225.0428001">
          <timeWeight>2.1</timeWeight>
          <pickID>smi:ca.seismo/pick/solid/arrid/19521225.0428001/19521225.0430002</pickID>
          <phase>Sg</phase>
          <azimuth>65.0</azimuth>
          <distance>4.226812</distance>
          <takeoffAngle>
            <value>49.0</value>
          </takeoffAngle>
          <timeResidual>-0.96</timeResidual>
          <creationInfo>
            <agencyID>GSC</agencyID>
            <creationTime>1995-02-15T00:00:00.000000Z</creationTime>
            <version>GSC</version>
          </creationInfo>
        </arrival>
        <arrival publicID="smi:ca.seismo/pick/solid/arrid/19521225.0428001/19521225.0430004_smi_ca.seismo/origin/solid/19521225.0428001">
          <timeWeight>0.0</timeWeight>
          <pickID>smi:ca.seismo/pick/solid/arrid/19521225.0428001/19521225.0430004</pickID>
          <phase>Sg</phase>
          <azimuth>10.0</azimuth>
          <distance>4.487615</distance>
          <takeoffAngle>
            <value>49.0</value>
          </takeoffAngle>
          <timeResidual>-0.08</timeResidual>
          <creationInfo>
            <agencyID>GSC</agencyID>
            <creationTime>1995-02-15T00:00:00.000000Z</creationTime>
            <version>GSC</version>
          </creationInfo>
        </arrival>
        <arrival publicID="smi:ca.seismo/pick/solid/arrid/19521225.0428001/19521225.0431001_smi_ca.seismo/origin/solid/19521225.0428001">
          <timeWeight>2.7</timeWeight>
          <pickID>smi:ca.seismo/pick/solid/arrid/19521225.0428001/19521225.0431001</pickID>
          <phase>Sg</phase>
          <azimuth>62.0</azimuth>
          <distance>6.565048</distance>
          <takeoffAngle>
            <value>49.0</value>
          </takeoffAngle>
          <timeResidual>1.09</timeResidual>
          <creationInfo>
            <agencyID>GSC</agencyID>
            <creationTime>1995-02-15T00:00:00.000000Z</creationTime>
            <version>GSC</version>
          </creationInfo>
        </arrival>
      </origin>
      <magnitude publicID="smi:ca.seismo/magnitude/solid/magcnt/19521225.0428002/1">
        <mag>
          <value>3.6</value>
          <uncertainty>-0.0</uncertainty>
        </mag>
        <type>ML</type>
        <originID>smi:ca.seismo/origin/solid/19521225.0428002</originID>
        <stationCount>0</stationCount>
        <creationInfo>
          <agencyID>GSC</agencyID>
        </creationInfo>
      </magnitude>
      <origin publicID="smi:ca.seismo/origin/solid/19521225.0428002">
        <time>
          <value>1952-12-25T04:28:32.500000Z</value>
          <uncertainty>0.0</uncertainty>
        </time>
        <latitude>
          <value>43.85</value>
          <uncertainty>0.0</uncertainty>
        </latitude>
        <longitude>
          <value>-80.97</value>
          <uncertainty>0.0</uncertainty>
        </longitude>
        <depth>
          <value>0</value>
          <uncertainty>0</uncertainty>
        </depth>
        <depthType>constrained by direct phases</depthType>
        <timeFixed>false</timeFixed>
        <epicenterFixed>false</epicenterFixed>
        <earthModelID>smi:ca.seismo/1dcvl/unknown</earthModelID>
        <quality>
          <usedPhaseCount>0</usedPhaseCount>
          <usedStationCount>0</usedStationCount>
          <depthPhaseCount>0</depthPhaseCount>
          <standardError>0.0</standardError>
          <azimuthalGap>0.0</azimuthalGap>
          <minimumDistance>0.0</minimumDistance>
        </quality>
        <originUncertainty>
          <minHorizontalUncertainty>0</minHorizontalUncertainty>
          <maxHorizontalUncertainty>0</maxHorizontalUncertainty>
          <azimuthMaxHorizontalUncertainty>0.0</azimuthMaxHorizontalUncertainty>
        </originUncertainty>
        <type>hypocenter</type>
        <evaluationMode>manual</evaluationMode>
        <evaluationStatus>final</evaluationStatus>
        <creationInfo>
          <agencyID>GSC</agencyID>
          <creationTime>1995-07-18T00:00:00.000000Z</creationTime>
          <version>CEEF91</version>
        </creationInfo>
        <comment id="smi:ca.seismo/comment/solid/comment_type/cmcnt/19521225.0428002/C/1">
          <text>MAP # :040P correction year:  -</text>
          <creationInfo>
            <creationTime>1995-07-18T00:00:00.000000Z</creationTime>
            <version>English</version>
          </creationInfo>
        </comment>
      </origin>
      <preferredOriginID>smi:ca.seismo/origin/solid/19521225.0428002</preferredOriginID>
      <preferredMagnitudeID>smi:ca.seismo/magnitude/solid/magcnt/19521225.0428001/1</preferredMagnitudeID>
      <type>earthquake</type>
      <typeCertainty>known</typeCertainty>
    </event>
  </eventParameters>
</q:quakeml>
