<?xml version='1.0' encoding='utf-8'?>
<q:quakeml xmlns:q="http://quakeml.org/xmlns/quakeml/1.2" xmlns="http://quakeml.org/xmlns/bed/1.2">
  <eventParameters publicID="smi:local/8d8d4e2d-df8c-4f0c-94ce-49d3e189934c">
    <event publicID="smi:ca.seismo/event/evid/19521225.0428002">
      <preferredOriginID>smi:ca.seismo/origin/solid/19521225.0428002</preferredOriginID>
      <type>earthquake</type>
      <typeCertainty>known</typeCertainty>
      <origin publicID="smi:ca.seismo/origin/solid/19521225.0428001">
        <time>
          <value>1952-12-25T04:28:30.000000Z</value>
          <uncertainty>0.0</uncertainty>
        </time>
        <latitude>
          <value>43.725</value>
          <uncertainty>0.06</uncertainty>
        </latitude>
        <longitude>
          <value>-81.147</value>
          <uncertainty>0.09</uncertainty>
        </longitude>
        <depth>
          <value>20000.0</value>
          <uncertainty>0.0</uncertainty>
        </depth>
        <timeFixed>false</timeFixed>
        <epicenterFixed>false</epicenterFixed>
        <methodID>smi:ca.seismo/system/module/GSC/unknown-0</methodID>
        <earthModelID>smi:ca.seismo/1dcvl/unknown-10</earthModelID>
        <quality>
          <usedPhaseCount>5</usedPhaseCount>
          <usedStationCount>3</usedStationCount>
          <depthPhaseCount>0</depthPhaseCount>
          <standardError>0.66</standardError>
          <azimuthalGap>357.0</azimuthalGap>
          <minimumDistance>4.22681</minimumDistance>
        </quality>
        <type>hypocenter</type>
        <evaluationMode>manual</evaluationMode>
        <evaluationStatus>preliminary</evaluationStatus>
        <creationInfo>
          <agencyID>GSC</agencyID>
          <author>GSC</author>
          <creationTime>1995-02-15T00:00:00.000000Z</creationTime>
          <version>JD</version>
        </creationInfo>
        <originUncertainty>
          <minHorizontalUncertainty>0.0</minHorizontalUncertainty>
          <maxHorizontalUncertainty>0.0</maxHorizontalUncertainty>
          <azimuthMaxHorizontalUncertainty>0.0</azimuthMaxHorizontalUncertainty>
        </originUncertainty>
      </origin>
      <pick publicID="smi:ca.seismo/pick/solid/arrid/19521225.0428001/19521225.0430003">
        <time>
          <value>1952-12-25T04:30:40.000000Z</value>
        </time>
        <waveformID channelCode="SZ" locationCode="" networkCode="CN" stationCode="OTT"></waveformID>
        <phaseHint>A</phaseHint>
        <creationInfo>
          <agencyID>GSC</agencyID>
          <creationTime>1995-02-15T00:00:00.000000Z</creationTime>
          <version>GSC</version>
        </creationInfo>
      </pick>
      <amplitude publicID="smi:ca.seismo/amplitude/solid/arrid/19521225.0428001/19521225.0430003">
        <genericAmplitude>
          <value>3.06496844253e-07</value>
        </genericAmplitude>
        <type>AMN</type>
        <unit>m/s</unit>
        <period>
          <value>0.5</value>
        </period>
        <pickID>smi:ca.seismo/pick/solid/arrid/19521225.0428001/19521225.0430003</pickID>
        <waveformID channelCode="SZ" locationCode="" networkCode="CN" stationCode="OTT"></waveformID>
      </amplitude>
    </event>
  </eventParameters>
</q:quakeml>
