<?xml version="1.0" encoding="UTF-8"?>
<seiscomp xmlns="http://geofon.gfz-potsdam.de/ns/seiscomp3-schema/0.12" version="0.12">
  <EventParameters publicID="smi:local/29023719-af89-47aa-997d-d43806233047">
    <pick publicID="smi:local/pick/200828InLZwb5Z">
      <time>
        <value>2020-08-28T06:26:51.179700Z</value>
      </time>
      <waveformID networkCode="AU" stationCode="MUN" locationCode="" channelCode="BHZ"/>
      <methodID>smi:local/eqt</methodID>
      <phaseHint>P</phaseHint>
      <evaluationMode>automatic</evaluationMode>
      <creationInfo>
        <agencyID>RSES</agencyID>
        <author>NLL</author>
        <creationTime>2022-01-21T10:59:21.926186Z</creationTime>
      </creationInfo>
    </pick>
    <pick publicID="smi:local/pick/200828gUv9zIP8">
      <time>
        <value>2020-08-28T06:26:57.639700Z</value>
      </time>
      <waveformID networkCode="AU" stationCode="MUN" locationCode="" channelCode="BHE"/>
      <methodID>smi:local/eqt</methodID>
      <phaseHint>S</phaseHint>
      <evaluationMode>automatic</evaluationMode>
      <creationInfo>
        <agencyID>RSES</agencyID>
        <author>NLL</author>
        <creationTime>2022-01-21T10:59:21.926186Z</creationTime>
      </creationInfo>
    </pick>
    <pick publicID="smi:local/pick/200828630le7jh">
      <time>
        <value>2020-08-28T06:27:25.319700Z</value>
      </time>
      <waveformID networkCode="2P" stationCode="SWN15" locationCode="" channelCode="CHN"/>
      <methodID>smi:local/eqt</methodID>
      <phaseHint>S</phaseHint>
      <evaluationMode>automatic</evaluationMode>
      <creationInfo>
        <agencyID>RSES</agencyID>
        <author>NLL</author>
        <creationTime>2022-01-21T10:59:21.926186Z</creationTime>
      </creationInfo>
    </pick>
    <pick publicID="smi:local/pick/200828NE9FYI0N">
      <time>
        <value>2020-08-28T06:27:16.499700Z</value>
      </time>
      <waveformID networkCode="AU" stationCode="BLDU" locationCode="" channelCode="BHZ"/>
      <methodID>smi:local/eqt</methodID>
      <phaseHint>P</phaseHint>
      <evaluationMode>automatic</evaluationMode>
      <creationInfo>
        <agencyID>RSES</agencyID>
        <author>NLL</author>
        <creationTime>2022-01-21T10:59:21.926186Z</creationTime>
      </creationInfo>
    </pick>
    <pick publicID="smi:local/pick/200828sRvnNVCE">
      <time>
        <value>2020-08-28T06:27:40.819700Z</value>
      </time>
      <waveformID networkCode="AU" stationCode="BLDU" locationCode="" channelCode="BHE"/>
      <methodID>smi:local/eqt</methodID>
      <phaseHint>S</phaseHint>
      <evaluationMode>automatic</evaluationMode>
      <creationInfo>
        <agencyID>RSES</agencyID>
        <author>NLL</author>
        <creationTime>2022-01-21T10:59:21.926186Z</creationTime>
      </creationInfo>
    </pick>
    <pick publicID="smi:local/pick/200828Og8YtK9V">
      <time>
        <value>2020-08-28T06:27:21.319700Z</value>
      </time>
      <waveformID networkCode="AU" stationCode="RKGY" locationCode="" channelCode="HHZ"/>
      <methodID>smi:local/eqt</methodID>
      <phaseHint>P</phaseHint>
      <evaluationMode>automatic</evaluationMode>
      <creationInfo>
        <agencyID>RSES</agencyID>
        <author>NLL</author>
        <creationTime>2022-01-21T10:59:21.926186Z</creationTime>
      </creationInfo>
    </pick>
    <pick publicID="smi:local/pick/200828roCO7hnm">
      <time>
        <value>2020-08-28T06:27:48.739700Z</value>
      </time>
      <waveformID networkCode="AU" stationCode="RKGY" locationCode="" channelCode="HHE"/>
      <methodID>smi:local/eqt</methodID>
      <phaseHint>S</phaseHint>
      <evaluationMode>automatic</evaluationMode>
      <creationInfo>
        <agencyID>RSES</agencyID>
        <author>NLL</author>
        <creationTime>2022-01-21T10:59:21.926186Z</creationTime>
      </creationInfo>
    </pick>
    <pick publicID="smi:local/pick/200828LOQftw8s">
      <time>
        <value>2020-08-28T22:47:17.760000Z</value>
      </time>
      <waveformID networkCode="AU" stationCode="BCON" locationCode="" channelCode="BHZ"/>
      <methodID>smi:local/eqt</methodID>
      <phaseHint>P</phaseHint>
      <evaluationMode>automatic</evaluationMode>
      <creationInfo>
        <agencyID>RSES</agencyID>
        <author>NLL</author>
        <creationTime>2022-01-21T10:59:21.926186Z</creationTime>
      </creationInfo>
    </pick>
    <pick publicID="smi:local/pick/200828d9gPd2i3">
      <time>
        <value>2020-08-28T22:47:18.960000Z</value>
      </time>
      <waveformID networkCode="AU" stationCode="BCON" locationCode="" channelCode="BHE"/>
      <methodID>smi:local/eqt</methodID>
      <phaseHint>S</phaseHint>
      <evaluationMode>automatic</evaluationMode>
      <creationInfo>
        <agencyID>RSES</agencyID>
        <author>NLL</author>
        <creationTime>2022-01-21T10:59:21.926186Z</creationTime>
      </creationInfo>
    </pick>
    <pick publicID="smi:local/pick/2008282Kx0TnVf">
      <time>
        <value>2020-08-28T22:47:35.540000Z</value>
      </time>
      <waveformID networkCode="AU" stationCode="WATNG" locationCode="" channelCode="BHE"/>
      <methodID>smi:local/eqt</methodID>
      <phaseHint>S</phaseHint>
      <evaluationMode>automatic</evaluationMode>
      <creationInfo>
        <agencyID>RSES</agencyID>
        <author>NLL</author>
        <creationTime>2022-01-21T10:59:21.926186Z</creationTime>
      </creationInfo>
    </pick>
    <pick publicID="smi:local/pick/200828IYHE7Gqs">
      <time>
        <value>2020-08-28T22:47:33.120000Z</value>
      </time>
      <waveformID networkCode="AU" stationCode="BLDU" locationCode="" channelCode="BHZ"/>
      <methodID>smi:local/eqt</methodID>
      <phaseHint>P</phaseHint>
      <evaluationMode>automatic</evaluationMode>
      <creationInfo>
        <agencyID>RSES</agencyID>
        <author>NLL</author>
        <creationTime>2022-01-21T10:59:21.926186Z</creationTime>
      </creationInfo>
    </pick>
    <pick publicID="smi:local/pick/200828rbEbHcwp">
      <time>
        <value>2020-08-28T22:47:45.840000Z</value>
      </time>
      <waveformID networkCode="AU" stationCode="BLDU" locationCode="" channelCode="BHE"/>
      <methodID>smi:local/eqt</methodID>
      <phaseHint>S</phaseHint>
      <evaluationMode>automatic</evaluationMode>
      <creationInfo>
        <agencyID>RSES</agencyID>
        <author>NLL</author>
        <creationTime>2022-01-21T10:59:21.926186Z</creationTime>
      </creationInfo>
    </pick>
    <pick publicID="smi:local/pick/2008281aOTI1OE">
      <time>
        <value>2020-08-28T22:48:20.320000Z</value>
      </time>
      <waveformID networkCode="2P" stationCode="SWN23" locationCode="" channelCode="CHZ"/>
      <methodID>smi:local/eqt</methodID>
      <phaseHint>P</phaseHint>
      <evaluationMode>automatic</evaluationMode>
      <creationInfo>
        <agencyID>RSES</agencyID>
        <author>NLL</author>
        <creationTime>2022-01-21T10:59:21.926186Z</creationTime>
      </creationInfo>
    </pick>
    <amplitude publicID="smi:local/amp/200828sTVTOEmk">
      <type>mb</type>
      <amplitude>
        <value>1.0</value>
      </amplitude>
      <timeWindow>
        <reference>2020-08-28T06:26:51.179700Z</reference>
        <begin>-3.0</begin>
        <end>3.0</end>
      </timeWindow>
      <snr>3.0</snr>
      <pickID>smi:local/pick/200828InLZwb5Z</pickID>
      <waveformID networkCode="AU" stationCode="MUN" locationCode="" channelCode="BHZ"/>
    </amplitude>
    <amplitude publicID="smi:local/amp/2008284k59H6s6">
      <type>mb</type>
      <amplitude>
        <value>1.0</value>
      </amplitude>
      <timeWindow>
        <reference>2020-08-28T06:26:57.639700Z</reference>
        <begin>-3.0</begin>
        <end>3.0</end>
      </timeWindow>
      <snr>3.0</snr>
      <pickID>smi:local/pick/200828gUv9zIP8</pickID>
      <waveformID networkCode="AU" stationCode="MUN" locationCode="" channelCode="BHE"/>
    </amplitude>
    <amplitude publicID="smi:local/amp/200828Yw5q4OeY">
      <type>mb</type>
      <amplitude>
        <value>1.0</value>
      </amplitude>
      <timeWindow>
        <reference>2020-08-28T06:27:25.319700Z</reference>
        <begin>-3.0</begin>
        <end>3.0</end>
      </timeWindow>
      <snr>3.0</snr>
      <pickID>smi:local/pick/200828630le7jh</pickID>
      <waveformID networkCode="2P" stationCode="SWN15" locationCode="" channelCode="CHN"/>
    </amplitude>
    <amplitude publicID="smi:local/amp/200828TC2zo8vU">
      <type>mb</type>
      <amplitude>
        <value>1.0</value>
      </amplitude>
      <timeWindow>
        <reference>2020-08-28T06:27:16.499700Z</reference>
        <begin>-3.0</begin>
        <end>3.0</end>
      </timeWindow>
      <snr>3.0</snr>
      <pickID>smi:local/pick/200828NE9FYI0N</pickID>
      <waveformID networkCode="AU" stationCode="BLDU" locationCode="" channelCode="BHZ"/>
    </amplitude>
    <amplitude publicID="smi:local/amp/200828OGyGiZir">
      <type>mb</type>
      <amplitude>
        <value>1.0</value>
      </amplitude>
      <timeWindow>
        <reference>2020-08-28T06:27:40.819700Z</reference>
        <begin>-3.0</begin>
        <end>3.0</end>
      </timeWindow>
      <snr>3.0</snr>
      <pickID>smi:local/pick/200828sRvnNVCE</pickID>
      <waveformID networkCode="AU" stationCode="BLDU" locationCode="" channelCode="BHE"/>
    </amplitude>
    <amplitude publicID="smi:local/amp/200828HfjobTrs">
      <type>mb</type>
      <amplitude>
        <value>1.0</value>
      </amplitude>
      <timeWindow>
        <reference>2020-08-28T06:27:21.319700Z</reference>
        <begin>-3.0</begin>
        <end>3.0</end>
      </timeWindow>
      <snr>3.0</snr>
      <pickID>smi:local/pick/200828Og8YtK9V</pickID>
      <waveformID networkCode="AU" stationCode="RKGY" locationCode="" channelCode="HHZ"/>
    </amplitude>
    <amplitude publicID="smi:local/amp/200828x9txXA1o">
      <type>mb</type>
      <amplitude>
        <value>1.0</value>
      </amplitude>
      <timeWindow>
        <reference>2020-08-28T06:27:48.739700Z</reference>
        <begin>-3.0</begin>
        <end>3.0</end>
      </timeWindow>
      <snr>3.0</snr>
      <pickID>smi:local/pick/200828roCO7hnm</pickID>
      <waveformID networkCode="AU" stationCode="RKGY" locationCode="" channelCode="HHE"/>
    </amplitude>
    <amplitude publicID="smi:local/amp/200828RwtoUt4j">
      <type>mb</type>
      <amplitude>
        <value>1.0</value>
      </amplitude>
      <timeWindow>
        <reference>2020-08-28T22:47:17.760000Z</reference>
        <begin>-3.0</begin>
        <end>3.0</end>
      </timeWindow>
      <snr>3.0</snr>
      <pickID>smi:local/pick/200828LOQftw8s</pickID>
      <waveformID networkCode="AU" stationCode="BCON" locationCode="" channelCode="BHZ"/>
    </amplitude>
    <amplitude publicID="smi:local/amp/200828nDEo6mmj">
      <type>mb</type>
      <amplitude>
        <value>1.0</value>
      </amplitude>
      <timeWindow>
        <reference>2020-08-28T22:47:18.960000Z</reference>
        <begin>-3.0</begin>
        <end>3.0</end>
      </timeWindow>
      <snr>3.0</snr>
      <pickID>smi:local/pick/200828d9gPd2i3</pickID>
      <waveformID networkCode="AU" stationCode="BCON" locationCode="" channelCode="BHE"/>
    </amplitude>
    <amplitude publicID="smi:local/amp/200828mfcltjj8">
      <type>mb</type>
      <amplitude>
        <value>1.0</value>
      </amplitude>
      <timeWindow>
        <reference>2020-08-28T22:47:35.540000Z</reference>
        <begin>-3.0</begin>
        <end>3.0</end>
      </timeWindow>
      <snr>3.0</snr>
      <pickID>smi:local/pick/2008282Kx0TnVf</pickID>
      <waveformID networkCode="AU" stationCode="WATNG" locationCode="" channelCode="BHE"/>
    </amplitude>
    <amplitude publicID="smi:local/amp/200828y0lslJxs">
      <type>mb</type>
      <amplitude>
        <value>1.0</value>
      </amplitude>
      <timeWindow>
        <reference>2020-08-28T22:47:33.120000Z</reference>
        <begin>-3.0</begin>
        <end>3.0</end>
      </timeWindow>
      <snr>3.0</snr>
      <pickID>smi:local/pick/200828IYHE7Gqs</pickID>
      <waveformID networkCode="AU" stationCode="BLDU" locationCode="" channelCode="BHZ"/>
    </amplitude>
    <amplitude publicID="smi:local/amp/200828HB7UWhdS">
      <type>mb</type>
      <amplitude>
        <value>1.0</value>
      </amplitude>
      <timeWindow>
        <reference>2020-08-28T22:47:45.840000Z</reference>
        <begin>-3.0</begin>
        <end>3.0</end>
      </timeWindow>
      <snr>3.0</snr>
      <pickID>smi:local/pick/200828rbEbHcwp</pickID>
      <waveformID networkCode="AU" stationCode="BLDU" locationCode="" channelCode="BHE"/>
    </amplitude>
    <amplitude publicID="smi:local/amp/200828Stp8jRxp">
      <type>mb</type>
      <amplitude>
        <value>1.0</value>
      </amplitude>
      <timeWindow>
        <reference>2020-08-28T22:48:20.320000Z</reference>
        <begin>-3.0</begin>
        <end>3.0</end>
      </timeWindow>
      <snr>3.0</snr>
      <pickID>smi:local/pick/2008281aOTI1OE</pickID>
      <waveformID networkCode="2P" stationCode="SWN23" locationCode="" channelCode="CHZ"/>
    </amplitude>
    <origin publicID="smi:local/origin/200828zgnPN">
      <time>
        <value>2020-08-28T06:26:43.312800Z</value>
      </time>
      <latitude>
        <value>-32.39879</value>
        <uncertainty>11.1</uncertainty>
      </latitude>
      <longitude>
        <value>116.256529</value>
        <uncertainty>34.1</uncertainty>
      </longitude>
      <depth>
        <value>2.583</value>
        <uncertainty>43.502</uncertainty>
      </depth>
      <methodID>smi:local/NonLinLoc</methodID>
      <quality>
        <usedPhaseCount>7</usedPhaseCount>
        <associatedStationCount>4</associatedStationCount>
        <standardError>0.800454</standardError>
        <azimuthalGap>189.515</azimuthalGap>
        <maximumDistance>2.3</maximumDistance>
        <minimumDistance>0.4</minimumDistance>
      </quality>
      <uncertainty>
        <minHorizontalUncertainty>0.0168334</minHorizontalUncertainty>
        <maxHorizontalUncertainty>0.051773</maxHorizontalUncertainty>
        <azimuthMaxHorizontalUncertainty>88.9492</azimuthMaxHorizontalUncertainty>
        <confidenceEllipsoid>
          <semiMajorAxisLength>0.0984908</semiMajorAxisLength>
          <semiMinorAxisLength>0.0208133</semiMinorAxisLength>
          <semiIntermediateAxisLength>0.0330972</semiIntermediateAxisLength>
          <majorAxisPlunge>53.6747</majorAxisPlunge>
          <majorAxisAzimuth>88.5008</majorAxisAzimuth>
          <majorAxisRotation>349.712</majorAxisRotation>
        </confidenceEllipsoid>
        <preferredDescription>confidence ellipsoid</preferredDescription>
      </uncertainty>
      <type>hypocenter</type>
      <evaluationMode>automatic</evaluationMode>
      <evaluationStatus>preliminary</evaluationStatus>
      <creationInfo>
        <agencyID>RSES</agencyID>
        <author>NLL</author>
        <creationTime>2022-01-21T10:59:21.926186Z</creationTime>
      </creationInfo>
      <arrival>
        <pickID>smi:local/pick/200828InLZwb5Z</pickID>
        <phase>P</phase>
        <azimuth>354.4160915071281</azimuth>
        <distance>0.42246647564636314</distance>
        <timeResidual>-0.0522</timeResidual>
        <timeUsed>true</timeUsed>
        <weight>1.0</weight>
      </arrival>
      <arrival>
        <pickID>smi:local/pick/200828gUv9zIP8</pickID>
        <phase>S</phase>
        <azimuth>354.4160915071281</azimuth>
        <distance>0.42246647564636314</distance>
        <timeResidual>0.0852</timeResidual>
        <timeUsed>true</timeUsed>
        <weight>1.0</weight>
      </arrival>
      <arrival>
        <pickID>smi:local/pick/200828630le7jh</pickID>
        <phase>S</phase>
        <azimuth>123.92616576020531</azimuth>
        <distance>1.417111860681429</distance>
        <timeResidual>-0.0199</timeResidual>
        <timeUsed>true</timeUsed>
        <weight>0.845</weight>
      </arrival>
      <arrival>
        <pickID>smi:local/pick/200828NE9FYI0N</pickID>
        <phase>P</phase>
        <azimuth>12.380386585022352</azimuth>
        <distance>1.8253308525626706</distance>
        <timeResidual>2.3</timeResidual>
        <timeUsed>true</timeUsed>
        <weight>0.657</weight>
      </arrival>
      <arrival>
        <pickID>smi:local/pick/200828sRvnNVCE</pickID>
        <phase>S</phase>
        <azimuth>12.380386585022352</azimuth>
        <distance>1.8253308525626706</distance>
        <timeResidual>2.2924</timeResidual>
        <timeUsed>true</timeUsed>
        <weight>0.598</weight>
      </arrival>
      <arrival>
        <pickID>smi:local/pick/200828Og8YtK9V</pickID>
        <phase>P</phase>
        <azimuth>164.92023072491142</azimuth>
        <distance>2.2908311064979676</distance>
        <timeResidual>0.9076</timeResidual>
        <timeUsed>true</timeUsed>
        <weight>0.833</weight>
      </arrival>
      <arrival>
        <pickID>smi:local/pick/200828roCO7hnm</pickID>
        <phase>S</phase>
        <azimuth>164.92023072491142</azimuth>
        <distance>2.2908311064979676</distance>
        <timeResidual>-0.1472</timeResidual>
        <timeUsed>true</timeUsed>
        <weight>0.607</weight>
      </arrival>
      <stationMagnitude publicID="smi:local/stamag/200828rkqx4NCu">
        <originID>smi:local/origin/200828zgnPN</originID>
        <magnitude>
          <value>2.0</value>
        </magnitude>
        <type>mb</type>
        <amplitudeID>smi:local/amp/200828sTVTOEmk</amplitudeID>
        <waveformID networkCode="AU" stationCode="MUN" locationCode="" channelCode="BHZ"/>
      </stationMagnitude>
      <stationMagnitude publicID="smi:local/stamag/200828CtwvnVuX">
        <originID>smi:local/origin/200828zgnPN</originID>
        <magnitude>
          <value>2.0</value>
        </magnitude>
        <type>mb</type>
        <amplitudeID>smi:local/amp/2008284k59H6s6</amplitudeID>
        <waveformID networkCode="AU" stationCode="MUN" locationCode="" channelCode="BHE"/>
      </stationMagnitude>
      <stationMagnitude publicID="smi:local/stamag/200828ZLJErFPp">
        <originID>smi:local/origin/200828zgnPN</originID>
        <magnitude>
          <value>2.0</value>
        </magnitude>
        <type>mb</type>
        <amplitudeID>smi:local/amp/200828Yw5q4OeY</amplitudeID>
        <waveformID networkCode="2P" stationCode="SWN15" locationCode="" channelCode="CHN"/>
      </stationMagnitude>
      <stationMagnitude publicID="smi:local/stamag/200828GpaAMG4j">
        <originID>smi:local/origin/200828zgnPN</originID>
        <magnitude>
          <value>2.0</value>
        </magnitude>
        <type>mb</type>
        <amplitudeID>smi:local/amp/200828TC2zo8vU</amplitudeID>
        <waveformID networkCode="AU" stationCode="BLDU" locationCode="" channelCode="BHZ"/>
      </stationMagnitude>
      <stationMagnitude publicID="smi:local/stamag/200828Gt9GeXtL">
        <originID>smi:local/origin/200828zgnPN</originID>
        <magnitude>
          <value>2.0</value>
        </magnitude>
        <type>mb</type>
        <amplitudeID>smi:local/amp/200828OGyGiZir</amplitudeID>
        <waveformID networkCode="AU" stationCode="BLDU" locationCode="" channelCode="BHE"/>
      </stationMagnitude>
      <stationMagnitude publicID="smi:local/stamag/200828Oq5hXaLV">
        <originID>smi:local/origin/200828zgnPN</originID>
        <magnitude>
          <value>2.0</value>
        </magnitude>
        <type>mb</type>
        <amplitudeID>smi:local/amp/200828HfjobTrs</amplitudeID>
        <waveformID networkCode="AU" stationCode="RKGY" locationCode="" channelCode="HHZ"/>
      </stationMagnitude>
      <stationMagnitude publicID="smi:local/stamag/200828LrbnqpPo">
        <originID>smi:local/origin/200828zgnPN</originID>
        <magnitude>
          <value>2.0</value>
        </magnitude>
        <type>mb</type>
        <amplitudeID>smi:local/amp/200828x9txXA1o</amplitudeID>
